X,Y,OBJECTID,Store_Name,Address,City,Zip,Notes,Phone,Local_Fare,Express_Fare,Reduced_Fare,POINT_X,POINT_Y
-112.151805899062,33.4589027069281,1,JAS ARCO,935 N. 43rd Ave.,Phoenix,95009,,(602) 374-6666,"1-Day, 7-Day, 31-Day",,"1-Day, 7-Day, 31-Day",-112.151805899062,33.4589027069281
-112.134286612974,33.509418249823,2,Chevron,3501 W. Camelback Rd.,Phoenix,85019,,(602) 973-8413,1-Day,,1-Day,-112.134286612974,33.509418249823
-112.253397444712,33.5517399676605,3,Stadium Chevron,9031 W. Northern Ave.,Glendale,85305,,(623) 772-1503,1-Day,,1-Day,-112.253397444712,33.5517399676605
-112.012877445357,33.4579670181593,4,VA Market,907 N. 32nd Street,Phoenix,85008,,(602) 275-2776,1-Day,,1-Day,-112.012877445357,33.4579670181593
-111.980097436362,33.3927236408295,5,Food City #152,4727 E. Southern Ave.,Phoenix,85042,,(602) 438-4647,1-Day,,1-Day,-111.980097436362,33.3927236408295
-112.099569764553,33.5761252165139,6,Food Mart,9853 N. 19th Ave.,Phoenix,85021,,(602) 943-2183,1-Day,,1-Day,-112.099569764553,33.5761252165139
-112.18632290232,33.5244443533451,7,Food City,6020 N. 59th Ave.,Glendale,85301,,(623) 939-2024,1-Day,,1-Day,-112.18632290232,33.5244443533451
-111.719044308581,33.436143881105,8,Bashas #51,1122 N. Higley Rd.,Mesa,85205,,(480) 396-8098,1-Day,,1-Day,-111.719044308581,33.436143881105
-112.065241419821,33.4578830912474,9,Shell,922 N. 7th Street,Phoenix,85006,,(602) 254-5986,1-Day,,1-Day,-112.065241419821,33.4578830912474
-112.186408309388,33.5386100449182,10,Glendale Mini Mart,5904 W. Glendale Ave.,Glendale,85301,,(623) 934-9834,1-Day,,1-Day,-112.186408309388,33.5386100449182
-111.771874164425,33.4226539035686,11,ARCO AM/PM,2751 E. University Dr.,Mesa,85213,,(480) 649-3497,1-Day,,1-Day,-111.771874164425,33.4226539035686
-111.909084002161,33.3952372000263,12,ARCO AM/PM,3233 S. McClintock Dr.,Tempe,85282,,(480) 838-4193,1-Day,,1-Day,-111.909084002161,33.3952372000263
-112.099810625409,33.6110579269392,13,Brian's Smoke Shop,1903 W. Thunderbird Rd.,Phoenix,85023,,(602) 439-1933,"1-Day, 7-Day, 15-Day, 31-Day",,"1-Day, 7-Day, 15-Day, 31-Day",-112.099810625409,33.6110579269392
-111.99287876509,33.4656499317124,14,Cork and Bottle,4101 E. McDowell Rd.,Phoenix,85008,,(602) 275-1861,"1-Day, 7-Day, 15-Day",,"1-Day, 7-Day, 15-Day",-111.99287876509,33.4656499317124
-112.004406675526,33.6406737244443,15,ARCO,3610 E. Bell Rd.,Phoenix,85032,,(602) 485-8344,"1-Day, 7-Day, 31-Day",,7-Day,-112.004406675526,33.6406737244443
-112.220491325737,33.4646324073274,16,McDowell Chevron,1515 N. 75th Ave.,Phoenix,85043,,(623) 873-0517,"1-Day, 7-Day",,1-Day,-112.220491325737,33.4646324073274
-112.202374445859,33.6105771581391,17,Thunderbird Petroleum,6691 W. Thunderbird Rd.,Glendale,85306,,(623) 979-6613,"1-Day, 31-Day",,"1-Day, 31-Day",-112.202374445859,33.6105771581391
-112.120192371272,33.5964220379298,18,Westown Chevron,2850 W. Cactus Rd.,Phoenix,85029,,(602) 993-9980,"1-Day, 31-Day",,1-Day,-112.120192371272,33.5964220379298
-112.030168119819,33.4876620794313,19,GCJ Liquor and Market,3407 N. 24th Street,Phoenix,85016,,(602) 954-9858,"1-Day, 7-Day, 15-Day, 31-Day",,"1-Day, 7-Day, 15-Day, 31-Day",-112.030168119819,33.4876620794313
-111.873114133349,33.4221015712829,20,University Market,1931 W. University Dr.,Mesa,85201,,(480) 969-2078,"1-Day, 7-Day",,"1-Day, 7-Day",-111.873114133349,33.4221015712829
-111.839788461961,33.435227702942,21,Fairway Market,340 W. Brown Rd.,Mesa,85201,,(480) 969-6554,"1-Day, 7-Day",,1-Day,-111.839788461961,33.435227702942
-112.073366711794,33.3777246435977,22,South Mountain Liquor,1 West Baseline Rd.,Phoenix,85041,,(602) 330.2601,1-Day,,1-Day,-112.073366711794,33.3777246435977
-111.981589122587,33.4801268332698,23,AZ1 Smoke Shop aka Hermes Market,4617 E. Thomas Rd.,Phoenix,85018,,(480) 225-8856,"1-Day, 7-Day",,"1-Day, 7-Day",-111.981589122587,33.4801268332698
-111.822891690959,33.39284098402,24,A and E Market,1231 S. Mesa Dr.,Mesa,85210,,(480) 833-3338,1-Day,,1-Day,-111.822891690959,33.39284098402
-112.116980505177,33.502282074513,25,El Super Rancho,4501 N. 27th Ave.,Phoenix,85017,,(602) 844-6364,"1-Day, 7-Day, 15-Day, 31-Day",,"1-Day, 7-Day, 15-Day, 31-Day",-112.116980505177,33.502282074513
-112.197641981058,33.5384369399398,26,"Order Express, Inc.",6402 W. Glendale Ave.,Glendale,85301,,(623) 934-9254,"1-Day, 7-Day, 15-Day",,"1-Day, 7-Day, 15-Day, 31-Day",-112.197641981058,33.5384369399398
-112.171617005797,33.4798068822288,27,"Order Express, Inc.",2861 N. 52nd Avenue,Phoenix,85035,,(602) 278-2215,"1-Day, 7-Day, 15-Day",,"1-Day, 7-Day, 15-Day, 31-Day",-112.171617005797,33.4798068822288
-111.939413983824,33.3796238178121,28,Mill Fuel and Food,5124 S. Mill Ave.,Tempe,85282,,(480) 275-8475,1-Day,,1-Day,-111.939413983824,33.3796238178121
-111.861946301608,33.3060089149752,29,ARCO AMPM,1105 W. Chandler Blvd.,Chandler,85224,,(480) 216-6700,1-Day,,1-Day,-111.861946301608,33.3060089149752
-112.151537670933,33.5533983100246,30,Lola's African Variety Store,8021 N. 43rd Ave.,Phoenix,85051,,(623) 986-5751,"1-Day, 7-Day",,"1-Day, 7-Day",-112.151537670933,33.5533983100246
-111.884397821733,33.4220712237439,31,Sunshine Convenience Mart,2531 E. University Dr.,Tempe,85281,,(480) 968-6030,1-Day,,,-111.884397821733,33.4220712237439
-112.135699046657,33.451385802497,32,"Order Express, Inc.",3555 W. Van Buren St.,Phoenix,85009,,(602) 272-0595,"1-Day, 7-Day, 31-Day",,"1-Day, 7-Day, 15-Day, 31-Day",-112.135699046657,33.451385802497
-112.116045999671,33.509429731943,33,Big Dollar Store,2657 W. Camelback Rd.,Phoenix,85017,,(602) 544-0710,"1-Day, 7-Day",,1-Day,-112.116045999671,33.509429731943
-112.134245505772,33.4804488389292,34,"Arizona Financial Service Centers, Inc.",3443 W. Thomas Rd.,Phoenix,85017,,(602) 272-1300,"1-Day, 7-Day, 31-Day",,"1-Day, 15-Day",-112.134245505772,33.4804488389292
-111.948009412393,33.4074009578077,35,Kwik Mart,606 W. Broadway Rd.,Tempe,85282,,(480) 968-1348,1-Day,,1-Day,-111.948009412393,33.4074009578077
-112.116094351819,33.4949244883313,36,Tumbleweed Valero,2649 W. Indian School Rd.,Phoenix,85017,,(602) 285-5635,1-Day,,1-Day,-112.116094351819,33.4949244883313
-112.030208471736,33.4713257179741,37,Gary's Liquor,2131 N. 24th Street,Phoenix,85008,,(602) 286-0540,1-Day,,1-Day,-112.030208471736,33.4713257179741
-112.099812863938,33.640154274139,38,"Cash and More II, Inc.",1902 W. Bell Rd.,Phoenix,85023,,(602) 896-1900,"1-Day, 7-Day, 31-Day",,"1-Day, 15-Day",-112.099812863938,33.640154274139
-112.056779306119,33.5676530464089,39,F1 Food and Fuel,8941 N. 12th Street,Phoenix,85020,,(602) 371-0331,"1-Day, 31-Day",,"1-Day, 31-Day",-112.056779306119,33.5676530464089
-112.203360383147,33.4593104487054,40,Corner Store,1111 N. 67th Ave.,Phoenix,85043,,(623) 907-4507,1-Day,,1-Day,-112.203360383147,33.4593104487054
-112.073879127707,33.5666783483586,41,76 Gas / Central Food Mart,8941 N. Central Ave.,Phoenix,85020,,(602) 870-8707 ,1-Day,,1-Day,-112.073879127707,33.5666783483586
-111.805251661001,33.4229836671463,42,Circle K,415 N. Stapley Dr.,Mesa,85203,,(480) 833-0031,1-Day,,1-Day,-111.805251661001,33.4229836671463
-112.030822581759,33.632432329557,43,Ray's Smoke Shop,16026 N. Cave Creek Rd.,Phoenix,85032,,(602) 494-2853,"1-Day, 31-Day",,"1-Day, 31-Day",-112.030822581759,33.632432329557
-112.166233626663,33.4805267111288,44,Quick Corner Market,5026 W. Thomas Rd.,Phoenix,85031,,(602) 233-9120,1-Day,,1-Day,-112.166233626663,33.4805267111288
-112.186273153983,33.5195529830489,45,Pronto Mart,5635 N. 59th Ave.,Glendale,85301,,(602) 380-6142,"1-Day, 7-Day, 15-Day, 31-Day",,"1-Day, 7-Day, 15-Day, 31-Day",-112.186273153983,33.5195529830489
-112.151546749005,33.5384195390462,46,Circle K,4303 W. Glendale Ave.,Glendale,85301,,(602) 931-5058,1-Day,,1-Day,-112.151546749005,33.5384195390462
-112.235980323311,33.4942898327003,47,Ray's Smoke and More,8225 W. Indian School Rd.,Phoenix,85033,,(623) 873-1916,1-Day,,1-Day,-112.235980323311,33.4942898327003
-112.169753706766,33.5674783422,48,Circle K,5155 W. Olive Ave.,Glendale,85302,,(623) 931-5063,1-Day,,1-Day,-112.169753706766,33.5674783422
-111.789730844306,33.3111477106741,49,Circle K,3155 S. Gilbert Rd.,Gilbert,85295,,(480) 855-7316,1-Day,,1-Day,-111.789730844306,33.3111477106741
-111.68635448402,33.2849291702868,50,Circle K,7260 S. Power Rd.,Gilbert,85297,,(480) 279-5786,1-Day,,1-Day,-111.68635448402,33.2849291702868
-111.841573929576,33.3208168114456,51,Food City 26,1005 N. Arizona Ave.,Chandler,85225,,(480) 857-2198,"1-Day, 7-Day, 15-Day, 31-Day",,"1-Day, 7-Day, 15-Day, 31-Day",-111.841573929576,33.3208168114456
-111.788773766613,33.4517689319281,52,Bashas,1954 E. McKellips Road,Mesa,85203,,(480) 833-3343,1-Day,,"1-Day, 15-Day",-111.788773766613,33.4517689319281
-111.789682106342,33.3037905656474,53,Circle K,3030 S. Gilbert Rd.,Chandler,85225,,(480) 895-3172,1-Day,,1-Day,-111.789682106342,33.3037905656474
-111.927049180608,33.4147277936308,54,Campus Chevron,825 E. Apache Blvd.,Tempe,85281,,(480) 966-3330,"1-Day, 7-Day, 31-Day",,"1-Day, 7-Day, 31-Day",-111.927049180608,33.4147277936308
-111.84181820181,33.3494642536782,55,Circle K,2990 N. Arizona Ave.,Chandler,85225,,(480) 892-0597,1-Day,,1-Day,-111.84181820181,33.3494642536782
-111.562987129189,33.4150810315218,56,Circle K,1550 W. Apache Trail,Apache Junction,85120,,(480) 982-6774,1-Day,,1-Day,-111.562987129189,33.4150810315218
-111.900052118432,33.5239309338142,57,7-Eleven,8410 E. McDonald,Scottsdale,85250,,(480) 948-7363,1-Day,,1-Day,-111.900052118432,33.5239309338142
-111.789813797551,33.3646998542411,58,Speedsmart 105,815 N. Gilbert Rd.,Gilbert,85234,,(480) 892-0200,1-Day,,1-Day,-111.789813797551,33.3646998542411
-111.908273271016,33.4075231666591,59,Speedsmart 108,1808 E. Broadway Rd.,Tempe,85282,,(480) 966-7585,1-Day,,1-Day,-111.908273271016,33.4075231666591
-111.722529324497,33.3793027516734,60,Circle K,5202 E. Baseline Rd.,Gilbert,85234,,(480) 396-1008,1-Day,,1-Day,-111.722529324497,33.3793027516734
-111.806236855735,33.4224282437921,61,Speedsmart 107,1158 W. University Dr.,Mesa,85203,,(408) 610-0503,1-Day,,1-Day,-111.806236855735,33.4224282437921
-112.151483412277,33.531546763843,62,43rd Ave. Market,6520 N. 43rd Ave.,Glendale,85301,,(623) 939-0615,"1-Day, 7-Day",,"1-Day, 7-Day, 15-Day, 31-Day",-112.151483412277,33.531546763843
-111.686278051058,33.3072148895232,63,Chevron,6822 E. Williams Field Rd.,Mesa,85212,,(480) 840-3627,"1-Day, 7-Day, 31-Day",,"1-Day, 7-Day, 31-Day",-111.686278051058,33.3072148895232
-111.718371151606,33.4155287477823,64,U Stop Convenience,5207 E. Main St.,Mesa,85205,,(480) 325-6545,1-Day,,1-Day,-111.718371151606,33.4155287477823
-111.856051861873,33.4076204247571,65,Valero in the Zone,1163 W. Broadway Rd.,Mesa,85210,,(480) 668-5803,"1-Day, 31-Day",,31-Day,-111.856051861873,33.4076204247571
-112.168100427872,33.5674764474222,66,New Easy Trip Shell,5059 W. Olive Ave.,Glendale,85302,,(623) 934-9470,"1-Day, 7-Day, 31-Day",,"1-Day, 7-Day, 31-Day",-112.168100427872,33.5674764474222
-111.926425475936,33.4511466919489,67,Valero in the Zone,1925 N. Scottsdale Rd.,Tempe,85281,,(480) 947-0233,"1-Day, 31-Day",,31-Day,-111.926425475936,33.4511466919489
-111.684452468884,33.4085622749501,68,Majed 5 - A Fuel Stop 101 Co.,6807 E. Broadway Rd.,Mesa,85208,,(480) 218-1995,1-Day,,1-Day,-111.684452468884,33.4085622749501
-112.024065962333,33.6550480332988,69,ARCO AM/PM,2711 W. Union Hills Dr.,Phoenix,85050,,(602) 896-8491,"1-Day, 31-Day",,1-Day,-112.024065962333,33.6550480332988
-112.151328841548,33.6546175372693,70,Union Hills Chevron,4250 W. Union Hills Drive,Glendale,85308,,(623) 434-5847,1-Day,,"1-Day, 7-Day",-112.151328841548,33.6546175372693
-111.78981705429,33.3219189896406,71,Valero in the Zone,1570 S. Gilbert,Gilbert,85296,,(480) 917-1402,"1-Day, 31-Day",,1-Day,-111.78981705429,33.3219189896406
-111.688227600471,33.3793139200209,72,Circle K,6761 E. Baseline,Mesa,85236,,(480) 830-8983,1-Day,,1-Day,-111.688227600471,33.3793139200209
-112.11646281146,33.6837704435512,73,ARCO AM/PM,2635 W. Deer Valley Rd.,Phoenix,85027,,(623) 581-8938,"1-Day, 31-Day",,1-Day,-112.11646281146,33.6837704435512
-111.59802892131,33.4159045409379,74,Valero in the Zone,28 N. Signal Butte,Apache Junction,85120,,(480) 984-9125,"1-Day, 31-Day",,1-Day,-111.59802892131,33.4159045409379
-111.995447984926,33.4226394870319,75,40th Street Chevron,2711 S. 40th St.,Phoenix,85034,,(623) 866-5190,"1-Day, 31-Day",,"1-Day, 31-Day",-111.995447984926,33.4226394870319
-111.859650407046,33.3787675722698,76,ARCO AM/PM,1150 W. Baseline,Mesa,85210,,(480) 413-0255,"1-Day, 31-Day",,1-Day,-111.859650407046,33.3787675722698
-112.056395139125,33.4731374985102,77,Sunshine Market,2302 N. 12th St.,Phoenix,85006,,(602) 253-8952,"1-Day, 7-Day",,"1-Day, 7-Day",-112.056395139125,33.4731374985102
-112.012872235567,33.4587005345373,78,Valero in the Zone,1003 N. 32nd St.,Phoenix,85008,,(602) 685-0226,"1-Day, 31-Day",,1-Day,-112.012872235567,33.4587005345373
-112.06490322637,33.5092053568984,79,Fuel Stop 101,701 E. Camelback Rd.,Phoenix,85014,,(602) 266-2023,"1-Day, 7-Day",,1-Day,-112.06490322637,33.5092053568984
-111.70483207565,33.3649129080431,80,Valero in the Zone,3981 E. Guadalupe Rd.,Gilbert,85234,,(480) 813-9622,"1-Day, 31-Day",,1-Day,-111.70483207565,33.3649129080431
-112.097685817978,33.4367127474338,81,W-Y Market,1819 W. Buckeye Rd.,Phoenix,85007,,(602) 614-7128,"1-Day, 7-Day, 15-Day, 31-Day",,"1-Day, 7-Day, 15-Day, 31-Day",-112.097685817978,33.4367127474338
-112.202519115369,33.6253528503843,82,Geno's Market,15414 N. 67th Ave.,Glendale,85306,,(623) 334-3063,"1-Day, 7-Day",,"1-Day, 7-Day",-112.202519115369,33.6253528503843
-112.204432246765,33.5383233448619,83,Mike's Smoke Shop,"6766 W. Glendale Ave.
Suite 125",Glendale,85303,,(623) 399-6931,1-Day,,1-Day,-112.204432246765,33.5383233448619
-112.184033434034,33.3919051237445,84,Laveen Chevron,5115 W. Southern Ave.,Laveen,85339,,(480) 663-6996,"1-Day, 31-Day",,"1-Day, 31-Day",-112.184033434034,33.3919051237445
-112.08214006295,33.392194406394,85,Sahara Shell,709 W. Southern Ave.,Phoenix,85041,,(602) 694-4097,1-Day,,1-Day,-112.08214006295,33.392194406394
-111.813817873175,33.4224047493967,86,ABC Food Store,816 E. University Dr.,Mesa,85203,,(480) 314-4252,"1-Day, 7-Day, 15-Day",,"1-Day, 7-Day, 15-Day",-111.813817873175,33.4224047493967
-112.012676616295,33.4952570080002,87,Speedmart Shell Gas Station,3208 E. Indian School Rd.,Phoenix,85018,,(602) 957-8818,"1-Day, 31-Day",,1-Day,-112.012676616295,33.4952570080002
-112.039493937144,33.4586791650329,88,Valley Kwik Mart,1938 E. Roosevelt St.,Phoenix,85006,,(602) 252-5524,"1-Day, 7-Day, 15-Day, 31-Day",,"1-Day, 7-Day, 15-Day, 31-Day",-112.039493937144,33.4586791650329
-111.963148403504,33.3635553297221,89,Guadalupe Farmers Market,9210 S. Avenida Del Yaqui,Tempe,85283,,(480) 730-1945,1-Day,,1-Day,-111.963148403504,33.3635553297221
-111.683985296188,33.4674898891582,90,Bashas' #73,2864 N. Power Rd.,Mesa,85215,,(480) 830-7900,"1-Day, 7-Day, 31-Day",,"1-Day, 7-Day, 31-Day",-111.683985296188,33.4674898891582
-112.106501947466,33.7146466749258,91,Jacksons Car Wash,2501 W. Happy Valley Rd.,Phoenix,85027,,(623) 344-7900,"1-Day, 7-Day",,,-112.106501947466,33.7146466749258
-111.750939568585,33.292734316315,92,Jacksons Car Wash,2870 S. Market St.,Gilbert,85296,,(480) 294-6886,"1-Day, 7-Day",,,-111.750939568585,33.292734316315
-111.897294745688,33.6188460756323,93,Jacksons Car Wash,14717 N. Northsight Blvd.,Scottsdale,85260,,(480) 355-0300,"1-Day, 7-Day",,,-111.897294745688,33.6188460756323
-112.039365874225,33.5060502777586,94,Jacksons Car Wash,1954 E. Highland Ave.,Phoenix,85016,,(602) 277-8877,"1-Day, 7-Day",,,-112.039365874225,33.5060502777586
-111.788925624947,33.2768410979599,95,Jacksons Car Wash,4027 S. Gilbert Rd.,Gilbert,85296,,(480) 355-0399,"1-Day, 7-Day",,,-111.788925624947,33.2768410979599
-111.900091276817,33.4296598096995,96,Jacksons Car Wash,2090 Rio Salado Pkwy.,Tempe,85281,,(480) 751-3060,"1-Day, 7-Day",,,-111.900091276817,33.4296598096995
-111.981435223914,33.595959892471,97,Jacksons Car Wash,12020 N. Tatum Blvd.,Phoenix,85028,,(602) 494-9924,"1-Day, 7-Day",,,-111.981435223914,33.595959892471
-111.926248278185,33.6371802762466,98,Jacksons Food Store,16610 N. Scottsdale Rd.,Scottsdale,85254,,(480) 922-7005,"1-Day, 7-Day",,,-111.926248278185,33.6371802762466
-112.087764557381,33.571210733838,99,Dollar Store and More,1109 W. Hatcher Rd.,Phoenix,85021,,(602) 674-3007,"1-Day, 7-Day, 15-Day, 31-Day",,"1-Day, 7-Day, 15-Day, 31-Day",-112.087764557381,33.571210733838
-112.154634813022,33.581949263849,100,Come-N-Go Market,4432 W. Peoria Ave.,Glendale,85302,,(623) 931-0443,1-Day,,"1-Day, 31-Day",-112.154634813022,33.581949263849
-111.918003650638,33.4147897930298,101,Food City 96,1338 E. Apache Blvd.,Tempe,85281,,(480) 557-9301,1-Day,,1-Day,-111.918003650638,33.4147897930298
-112.243904456507,33.6325357938545,102,Jacksons Car Wash,8369 W. Bell Rd.,Peoria,85345,,(623) 875-0200,"1-Day, 7-Day",,,-112.243904456507,33.6325357938545
-111.857337063939,33.4572359618193,103,Food City 123,822 S. Alma School Rd.,Mesa,85201,,(480) 827-7600,"1-Day, 7-Day, 31-Day",,"1-Day, 7-Day, 31-Day",-111.857337063939,33.4572359618193
-111.98624077073,33.46574523735,104,Food City 143,4430 E. McDowell Rd. ,Phoenix,85008,,(602) 275-2141,"1-Day, 7-Day, 15-Day, 31-Day",,"1-Day, 7-Day, 15-Day, 31-Day",-111.98624077073,33.46574523735
-111.926422843288,33.4497109114753,105,Food City 41,1845 N. Scottsdale Rd.,Tempe,85281,,(480) 425-5580,"1-Day, 7-Day, 31-Day",,"1-Day, 7-Day, 31-Day",-111.926422843288,33.4497109114753
-111.802163659973,33.4152472765644,106,Food City 10,1342 E. Main St.,Mesa,85203,,(480) 969-1368,"1-Day, 7-Day, 31-Day",,"1-Day, 7-Day, 31-Day",-111.802163659973,33.4152472765644
-112.073278890641,33.3923081191235,107,Food City 107,7227 S. Central Ave.,Phoenix,85040,,(602) 243-6770,"1-Day, 7-Day, 31-Day",,"1-Day, 7-Day, 31-Day",-112.073278890641,33.3923081191235
-111.979499950555,33.3311464568149,108,Bashas 11,4855 E. Warner Rd.,Phoenix,85044,,(480) 496-8191,"1-Day, 7-Day, 15-Day",,,-111.979499950555,33.3311464568149
-111.948963118872,33.3781701252198,109,Food City 157,725 W. Baseline Rd.,Tempe,85283,,(480) 456-3201,"1-Day, 7-Day, 31-Day",,"1-Day, 7-Day, 31-Day",-111.948963118872,33.3781701252198
-112.3410487643,33.4558177290581,110,Food City 93,1450 N. Dysart ,Avondale,85323,,(623) 925-1515,"1-Day, 7-Day, 31-Day",,"1-Day, 7-Day, 31-Day",-112.3410487643,33.4558177290581
-111.821534356285,33.3933719939324,111,Food City 25,450 E. Southern Ave.,Mesa,85204,,(480) 834-3594,"1-Day, 7-Day",,"1-Day, 7-Day",-111.821534356285,33.3933719939324
-112.064967585881,33.5175598956402,112,Bashas 158,5555 N. 7th St.,Phoenix,85014,,(602) 222-1820,"1-Day, 7-Day, 31-Day",,"1-Day, 7-Day, 31-Day",-112.064967585881,33.5175598956402
-112.117852626968,33.4510607554961,113,Food City 132,2709 W. Van Buren,Phoenix,85009,,(602) 272-0652,"1-Day, 7-Day",,1-Day,-112.117852626968,33.4510607554961
-112.116871596914,33.5243341326167,114,Food City 149,6025 N. 27th Ave.,Phoenix,85017,,(602) 249-4184,"1-Day, 7-Day",,"1-Day, 7-Day, 15-Day, 31-Day",-112.116871596914,33.5243341326167
-111.822564080731,33.435545058409,115,Bashas 2,339 E. Brown Rd.,Mesa,85203,,(480) 898-3352,1-Day,,1-Day,-111.822564080731,33.435545058409
-111.834121365115,33.4141745421666,116,TLC Inconvenience Store,34 S. MacDonald,Mesa,85210,,(480) 232-9789,"1-Day, 7-Day, 31-Day",,"1-Day, 7-Day, 31-Day",-111.834121365115,33.4141745421666
-112.06506015858,33.531122976393,117,Maryland Deli and Liquor,6502 N. 7th St.,Phoenix,85014,,(602)277-6269,"1-Day, 7-Day",,1-Day,-112.06506015858,33.531122976393
-112.091346488717,33.5748764955297,118,Country Store,1501 W. Mountain View Rd.,Phoenix,85021,,(602)943-7730,"1-Day, 7-Day, 15-Day, 31-Day",,"1-Day, 15-Day, 31-Day",-112.091346488717,33.5748764955297
-111.863158346731,33.3060050496005,119,Safeway 1604,"1159 W. Chandler Blvd.		
",Chandler,85224,,(480) 726-7776,"1-Day, 7-Day, 31-Day",,1-Day,-111.863158346731,33.3060050496005
-112.012733428409,33.4657634052608,120,Mr. J's Market #2,3202 E. McDowell Rd.,Phoenix,85008,,(602) 275-0669,"1-Day, 7-Day, 15-Day, 31-Day",,"1-Day, 7-Day, 15-Day, 31-Day",-112.012733428409,33.4657634052608
-112.200340018911,33.4803980442387,121,Food City 140,6544 W. Thomas Rd.,Phoenix,85033,,(623) 849-5580,"1-Day, 7-Day, 15-Day, 31-Day",,"1-Day, 15-Day, 31-Day",-112.200340018911,33.4803980442387
-112.138787446591,33.8672381914301,122,Safeway,"3655 W. Anthem Way	
",Phoenix,85086,,(623) 551-0200,"1-Day, 7-Day, 31-Day",,1-Day,-112.138787446591,33.8672381914301
-112.065253754686,33.5597648379734,123,Stop and Go Market,8359 N. 7th St.,Phoenix,85020,,(602) 870-6991,"1-Day, 7-Day, 31-Day",,"1-Day, 7-Day, 31-Day",-112.065253754686,33.5597648379734
-112.140521651299,33.7127929350744,124,Safeway 2821,3800  W. Happy Valley Rd.,Glendale,85310,,(623) 518-1946,"1-Day, 7-Day, 31-Day",,1-Day,-112.140521651299,33.7127929350744
-112.169551004541,33.4659996260364,125,Food City 135,5114 W. McDowell Rd.,Phoenix,85035,,(602) 278-2005,"1-Day, 7-Day, 31-Day",,,-112.169551004541,33.4659996260364
-111.822929957661,33.3207835996085,126,Safeway 1605,"1060 E. Ray Rd.		
",Chandler,85225,,(480) 855-5005,"1-Day, 7-Day, 31-Day",,1-Day,-111.822929957661,33.3207835996085
-111.859645019706,33.3641976116294,127,Safeway 0247,"1225 W. Guadalupe		
",Mesa,85202,,(480) 838-7452,"1-Day, 7-Day, 31-Day",,1-Day,-111.859645019706,33.3641976116294
-111.92502821296,33.6291155017741,128,Jacksons Car Wash,15515 N. Scottsdale Rd.,Scottsdale,85260,,(480) 348-1909,"1-Day, 7-Day",,,-111.92502821296,33.6291155017741
-111.755716604547,33.3485214777097,129,Safeway 1534,"90 S. Val Vista Dr.		
",Gilbert,85296,,(480) 545-7555,"1-Day, 7-Day, 31-Day",,1-Day,-111.755716604547,33.3485214777097
-111.753059240058,33.3937240556941,130,Safeway 1637,"3622 E. Southern Ave.			
",Mesa,85206,,(480) 807-0447,"1-Day, 7-Day, 31-Day",,1-Day,-111.753059240058,33.3937240556941
-112.133248318129,33.6396534126291,131,Safeway 0240,3450 W. Bell Rd.,Phoenix,85053,,(602) 863-1431,"1-Day, 7-Day, 31-Day",,1-Day,-112.133248318129,33.6396534126291
-111.996910060352,33.3047402698656,132,Safeway 1201,"4005 E. Chandler Blvd. 	",Phoenix,85044,,(480) 759-9611,"1-Day, 7-Day, 31-Day",,1-Day,-111.996910060352,33.3047402698656
-112.322467793734,33.7405678490235,133,Safeway 2799,"28455 N. Vistancia Blvd.		
",Peoria,85383,,(623) 243-9204,"1-Day, 7-Day, 31-Day",,1-Day,-112.322467793734,33.7405678490235
-112.080990473642,33.4876042848083,134,Safeway 0174,520 W. Osborn Rd.,Phoenix,85013,,(602) 274-7422,"1-Day, 7-Day, 31-Day",,1-Day,-112.080990473642,33.4876042848083
-111.772029769202,33.4227076716043,135,Safeway 1567,"2740 E. University		
",Mesa,85213,,(480) 833-9338,"1-Day, 7-Day, 31-Day",,1-Day,-111.772029769202,33.4227076716043
-112.067177832879,33.6403080450088,136,Safeway 0413,"550 E. Bell Rd.	
",Phoenix,85022,,(602) 863-4194,"1-Day, 7-Day, 31-Day",,1-Day,-112.067177832879,33.6403080450088
-111.873552147715,33.4148855107923,137,Safeway 1717,"1960 W. Main St.	
",Mesa,85201,,(480) 644-7776,"1-Day, 7-Day, 31-Day",,1-Day,-111.873552147715,33.4148855107923
-111.981096314001,33.3489138788903,138,Safeway 0752,"4747 E. Elliot Rd.		
",Phoenix,85044,,(480) 496-0076,"1-Day, 7-Day, 31-Day",,1-Day,-111.981096314001,33.3489138788903
-112.068961242406,33.4657548941831,139,Safeway 2651,"340 E. McDowell Rd. 		",Phoenix,85004,,(602) 252-4538,"1-Day, 7-Day, 31-Day",,1-Day,-112.068961242406,33.4657548941831
-112.06276735338,33.5382951807697,140,Safeway 1515,"810 E. Glendale Ave.		
",Phoenix,85020,,(602) 331-0134,"1-Day, 7-Day, 31-Day",,1-Day,-112.06276735338,33.5382951807697
-112.23769559284,33.5069390881645,141,Safeway 1654,4811 N. 83rd Ave.,Phoenix,85033,,(623) 247-4447,"1-Day, 7-Day, 31-Day",,1-Day,-112.23769559284,33.5069390881645
-112.014778141067,33.5099756564465,142,Safeway 2042,"3132 E. Camelback Rd.		
",Phoenix,85016,,(602) 955-6455,"1-Day, 7-Day, 31-Day",,1-Day,-112.014778141067,33.5099756564465
-111.838057809098,33.5881060881743,143,Safeway 1126,11275 E. Via Linda,Scottsdale,85259,,(480) 451-3444,"1-Day, 7-Day, 31-Day",,1-Day,-111.838057809098,33.5881060881743
-111.972932987054,33.6260949774123,144,Safeway 2088,"4857 E. Greenway Rd.	
",Scottsdale,85254,,(602) 996-5635,"1-Day, 7-Day, 31-Day",,1-Day,-111.972932987054,33.6260949774123
-112.16684248838,33.377524037304,145,Safeway 2709,"5035 W. Baseline Rd.		
",Laveen,85339,,(602) 567-7561,"1-Day, 7-Day, 31-Day",,1-Day,-112.16684248838,33.377524037304
-111.909549597656,33.5094318620395,146,Safeway 1491,7920 E. Chaparral,Scottsdale,85250,,(480) 994-5653,"1-Day, 7-Day, 31-Day",,1-Day,-111.909549597656,33.5094318620395
-111.979732793554,33.494679796086,147,Safeway 2716,"4750 E. Indian School Rd.			
",Phoenix,85018,,(602) 281-1882,"1-Day, 7-Day, 31-Day",,1-Day,-111.979732793554,33.494679796086
-112.047381386627,33.3915433161765,148,Safeway 1591,6202 S. 16th St.,Phoenix,85040,,(602) 268-0022,"1-Day, 7-Day, 31-Day",,1-Day,-112.047381386627,33.3915433161765
-111.871149065008,33.6169207629831,149,Safeway 1549,14696 N. Frank Lloyd Wright Blvd. ,Scottsdale,85260,,(480) 391-3703,"1-Day, 7-Day, 31-Day",,1-Day,-111.871149065008,33.6169207629831
-111.925810424305,33.7807213247751,150,Safeway 1849,32551 N. Scottsdale Rd.,Scottsdale,85266,,(480) 595-9844,"1-Day, 7-Day, 31-Day",,1-Day,-111.925810424305,33.7807213247751
-111.925970740194,33.58465707812,151,Safeway 2032,10773 N. Scottsdale Rd. ,Scottsdale,85254,,(480) 948-6446,"1-Day, 7-Day, 31-Day",,1-Day,-111.925970740194,33.58465707812
-112.017136314854,33.4480668120236,152,Shell 3001,3001 E. Washington St.,Phoenix,85034,,(602) 267-1540,"1-Day, 7-Day",,"1-Day, 7-Day",-112.017136314854,33.4480668120236
-111.925756639908,33.407535964217,153,Safeway 1487,926 E. Broadway Rd.,Tempe,85282,,(480) 829-6824,"1-Day, 7-Day, 31-Day",,1-Day,-111.925756639908,33.407535964217
-112.069299486426,33.4802029639788,154,Shell 305,305 E. Thomas Rd.,Phoenix,85012,,(602) 266-1107,"1-Day, 7-Day",,"1-Day, 7-Day",-112.069299486426,33.4802029639788
-111.914732294787,33.3490998874628,155,Safeway 1535,"1515 E. Elliot Rd.	",Tempe,85284,,(480) 755-1844,"1-Day, 7-Day, 31-Day",,1-Day,-111.914732294787,33.3490998874628
-112.06522502929,33.6087828244619,156,Safeway 1979,"13440 N. 7th St.			
",Phoenix,85022,,(602) 547-1288,"1-Day, 7-Day, 31-Day",,1-Day,-112.06522502929,33.6087828244619
-112.0645924136,33.3994984365169,157,Speedway,5201 S. 7th St.,Phoenix,85040,,(602) 268-4109,"1-Day, 7-Day",,"1-Day, 7-Day",-112.0645924136,33.3994984365169
-111.895064118932,33.3784224547763,158,Shell 2165,2165 E. Baseline Rd.,Tempe,85283,,(480) 345-8545,"1-Day, 7-Day",,"1-Day, 7-Day",-111.895064118932,33.3784224547763
-111.839716136859,33.4507843636685,159,Shell 1957,1957 N. Country Club Dr.,Mesa,85201,,(480) 733-4095,"1-Day, 7-Day",,"1-Day, 7-Day",-111.839716136859,33.4507843636685
-112.065167182465,33.4600488330328,160,Sinclair 1101,1101 N. 7th St.,Phoenix,85006,,(602) 258-3393,"1-Day, 7-Day",,"1-Day, 7-Day",-112.065167182465,33.4600488330328
-112.201193966571,33.5672354213245,161,Olive Liquor,6604 W. Olive Ave.,Glendale,85302,,(602) 931-3007,"1-Day, 7-Day, 15-Day, 31-Day",,"1-Day, 7-Day, 31-Day",-112.201193966571,33.5672354213245
-111.781302742539,33.3789998478007,162,Shell 2371,2371 E. Baseline Rd.,Gilbert,85234,,(480) 539-2948,"1-Day, 7-Day",,"1-Day, 7-Day",-111.781302742539,33.3789998478007
-111.805251661001,33.4229836671463,163,Asse Gas Valero,415 N. Stapley Dr.,Mesa,85203,,(480) 733-2233,"1-Day, 7-Day, 15-Day, 31-Day",,"1-Day, 7-Day, 15-Day, 31-Day",-111.805251661001,33.4229836671463
-111.813960141169,33.4224040927045,164,University Farmer's Market,812 E. University Drive,Mesa,85203,,(480) 834-3499,"1-Day, 7-Day, 15-Day, 31-Day",,"1-Day, 7-Day, 15-Day, 31-Day",-111.813960141169,33.4224040927045
-111.892101099789,33.4075242125675,165,Shell 2180,2180 E. Broadway Rd.,Tempe,85282,,(480) 829-3845,"1-Day, 7-Day",,"1-Day, 7-Day",-111.892101099789,33.4075242125675
-111.874728108851,33.4221058875468,166,Shell 2015,2015 W. University Dr.,Mesa,85202,,(480) 844-2282,"1-Day, 7-Day",,"1-Day, 7-Day",-111.874728108851,33.4221058875468
-112.101513983363,33.4367701866562,167,Amigo Check Cashing,1928 W. Buckeye Rd.,Phoenix,85009,,(602) 507-6442,"1-Day, 7-Day, 15-Day, 31-Day",,,-112.101513983363,33.4367701866562
-112.099980356045,33.4864818802848,168,Eddie's Tobacco & More,3338 N. 19th Ave.,Phoenix,85015,,(602) 266-2666,"1-Day, 7-Day, 31-Day",,"1-Day, 7-Day, 15-Day",-112.099980356045,33.4864818802848
-111.687638098664,33.364939086727,169,Power & Guadalupe LLC,2737 N. Power Rd.,Mesa,85212,,(480) 924-6434,1-Day,,1-Day,-111.687638098664,33.364939086727
-112.202383177796,33.4658279855192,170,Amigo Check Cashing,6639 W. McDowell Rd.,Phoenix,85035,,(623) 848-1192,"1-Day, 7-Day, 15-Day, 31-Day",,,-112.202383177796,33.4658279855192
-112.099680058927,33.6023955502432,171,N Food Mart,12850 N. 19th Ave.,Phoenix,85029,,(602) 678-4590,1-Day,,1-Day,-112.099680058927,33.6023955502432
-112.169030024414,33.290589431394,172,Komatke Market,17197 S. 51st Avenue,Laveen,85339,,(520) 550-2097,"1-Day, 31-Day",,"1-Day, 31-Day",-112.169030024414,33.290589431394
-112.099886499432,33.5118843595904,173,Liquor Basket,5130 N. 19th Ave.,Phoenix,85015,,(602) 246-7088,"1-Day, 7-Day",,"1-Day, 7-Day",-112.099886499432,33.5118843595904
-112.350106764383,33.4498121719714,174,Circle K - OPEN 24 HOURS,51 East Van Buren,Avondale,85323,,(623) 932-4908,1-Day,,1-Day,-112.350106764383,33.4498121719714
-112.204040035415,33.5817099782581,175,K Smoke Shop,"6750 W. Peoria Ave.
Suite #105",Peoria,85345,,(623) 776-9100,"1-Day, 7-Day, 15-Day, 31-Day",,"1-Day, 7-Day, 15-Day, 31-Day",-112.204040035415,33.5817099782581
-111.806977788348,33.3807597974134,176,Circle K - OPEN 24 HOURS,1850 S. Stapley Dr.,Mesa,85204,,(480) 558-7116,1-Day,,1-Day,-111.806977788348,33.3807597974134
-112.186551965698,33.6387179599884,177,Circle K - OPEN 24 HOURS,5902 W. Bell Rd,Glendale,85308,,(623) 439-1353,1-Day,,1-Day,-112.186551965698,33.6387179599884
-112.159961633374,33.5239690419062,178,Circle K - OPEN 24 HOURS,4648 W. Bethany Home Rd.,Glendale,85301,,(602) 939-0682,1-Day,,1-Day,-112.159961633374,33.5239690419062
-112.168610426626,33.5455940095096,179,Circle K - OPEN 24 HOURS,7428 N. 51st Avenue,Glendale,85301,,(623) 931-2596,1-Day,,1-Day,-112.168610426626,33.5455940095096
-111.904570444849,33.4658435704317,180,Circle K - OPEN 24 HOURS,8202 E. McDowell Road,Tempe,85281,,(480) 705-0665,1-Day,,1-Day,-111.904570444849,33.4658435704317
-111.789720770499,33.3597302081024,181,Circle K - OPEN 24 HOURS,503 N Gilbert Road,Gilbert,85234,,(480) 926-3145,1-Day,,1-Day,-111.789720770499,33.3597302081024
-112.23850749611,33.5402751088084,182,Circle K - OPEN 24 HOURS,6972 N. 83rd Avenue,Glendale,85305,,(623) 877-2051,1-Day,,1-Day,-112.23850749611,33.5402751088084
-112.307091359643,33.4308456631152,183,Circle K - OPEN 24 HOURS,1595 N. 115th Ave,Avondale,85323,,(623) 478-9144,1-Day,,1-Day,-112.307091359643,33.4308456631152
-112.160329976592,33.5676023033629,184,Circle K - OPEN 24 HOURS,9002 N 47th Avenue,Glendale,85302,,(623) 931-3085,1-Day,,1-Day,-112.160329976592,33.5676023033629
-112.187994580487,33.5401921418611,185,Circle K - OPEN 24 HOURS,6002 NW. Grand Avenue,Glendale,85301,,(623) 937-0401,1-Day,,1-Day,-112.187994580487,33.5401921418611
-111.773027997095,33.3356205355662,186,Circle K - OPEN 24 HOURS,750 E Warner Road,Gilbert,85296,,(480) 892-8543,1-Day,,1-Day,-111.773027997095,33.3356205355662
-111.96254511652,33.3198296233788,187,Circle K - OPEN 24 HOURS,6969 W Ray Road,Chandler,85226,,(480) 785-7838,1-Day,,1-Day,-111.96254511652,33.3198296233788
-112.186447038656,33.509590209513,188,Circle K - OPEN 24 HOURS,5880 W. Camelback Rd.,Glendale,85301,,(602) 561-7070,1-Day,,1-Day,-112.186447038656,33.509590209513
-111.73579515275,33.4154687717086,189,Circle K - OPEN 24 HOURS,4425 E. Main St.,Mesa,85205,,(480) 325-6612,1-Day,,1-Day,-111.73579515275,33.4154687717086
-111.928707177504,33.3781556606906,190,Circle K - OPEN 24 HOURS,5240 S. Rural Rd.,Tempe,85283,,(480) 897-9297,1-Day,,1-Day,-111.928707177504,33.3781556606906
-111.962992407045,33.3508070422459,191,Circle K - OPEN 24 HOURS,7530 S. Priest Drive,Tempe,85283,,(480) 413-9390,1-Day,,1-Day,-111.962992407045,33.3508070422459
-111.952242098089,33.4218161403707,192,Circle K - OPEN 24 HOURS,802 S. Hardy Drive,Tempe,85281,,(480) 967-0600,1-Day,,1-Day,-111.952242098089,33.4218161403707
-111.928373845641,33.3353238928473,193,Circle K - OPEN 24 HOURS,8749 S. Rural Rd.,Tempe,85284,,(480) 838-5107,1-Day,,1-Day,-111.928373845641,33.3353238928473
-111.946746352972,33.4073428974668,194,Circle K - OPEN 24 HOURS,507 W. Broadway Rd.,Tempe,85282,,(480) 829-5729,1-Day,,1-Day,-111.946746352972,33.4073428974668
-111.72133771561,33.3359484814775,195,Circle K - OPEN 24 HOURS,888 S. Higley Rd.,Gilbert,85296,,(480) 892-2630,1-Day,,1-Day,-111.72133771561,33.3359484814775
-111.668716575885,33.3793175838144,196,Circle K - OPEN 24 HOURS,7546 E. Baseline Rd.,Mesa,85209,,(480) 832-6300,1-Day,,1-Day,-111.668716575885,33.3793175838144
-112.099588413006,33.5668372213616,197,Circle K - OPEN 24 HOURS,8955 N. 19th Avenue,Phoenix,85021,,(602) 944-7686,1-Day,,1-Day,-112.099588413006,33.5668372213616
-112.06519971101,33.57469925823,198,Circle K - OPEN 24 HOURS,9714 N. 7th Street,Phoenix,85020,,(602) 943-2159,1-Day,,1-Day,-112.06519971101,33.57469925823
-111.954325774378,33.3491268462969,199,Circle K - OPEN 24 HOURS,995 W. Elliot Rd.,Tempe,85284,,(480) 705-0665,1-Day,,1-Day,-111.954325774378,33.3491268462969
-112.081972752956,33.6401897799137,200,Circle K - OPEN 24 HOURS,625 W. Bell Rd.,Phoenix,85023,,(602) 862-9503,1-Day,,1-Day,-112.081972752956,33.6401897799137
-112.064886224666,33.5237130777358,201,Circle K - OPEN 24 HOURS,701 E. Bethany Home Rd,Phoenix,85014,,(602) 274-7930,1-Day,,1-Day,-112.064886224666,33.5237130777358
-111.960138828395,33.6404329110588,202,Circle K - OPEN 24 HOURS,5555 E. Bell Rd.,Scottsdale,85254,,(602) 493-5367,1-Day,,1-Day,-111.960138828395,33.6404329110588
-112.236519275491,33.4942813274932,203,Circle K - OPEN 24 HOURS,8249 West Indian School Road,Phoenix,85033,,(623) 849-5306,1-Day,,1-Day,-112.236519275491,33.4942813274932
-112.204041753086,33.4372305855438,204,Circle K - OPEN 24 HOURS,6710 W. Buckeye Rd,Phoenix,85043,,(623) 936-6887,1-Day,,1-Day,-112.204041753086,33.4372305855438
-112.116990502157,33.5154492626434,205,Circle K - OPEN 24 HOURS,5350 N. 27th Avenue,Phoenix,85017,,(602) 249-0861,1-Day,,1-Day,-112.116990502157,33.5154492626434
-112.066079409875,33.5165195222404,206,Circle K - OPEN 24 HOURS,630 E. Missouri,Phoenix,85012,,(602) 264-7980,1-Day,,1-Day,-112.066079409875,33.5165195222404
-112.237718953523,33.47984564623,207,Circle K - OPEN 24 HOURS,8248 W. Thomas Rd,Phoenix,85033,,(623) 848-0436,1-Day,,1-Day,-112.237718953523,33.47984564623
-112.075154201499,33.4548205810016,208,Circle K - OPEN 24 HOURS,602 N. 1st Avenue,Phoenix,85003,,(602) 252-3142,1-Day,,1-Day,-112.075154201499,33.4548205810016
-111.976728876907,33.3341382272528,209,Circle K - OPEN 24 HOURS,5060 E. Warner Road,Phoenix,85044,,(480) 893-9204,1-Day,,1-Day,-111.976728876907,33.3341382272528
-111.971012116113,33.4655902135897,210,Circle K - OPEN 24 HOURS,5146 E. McDowell,Phoenix,85008,,(602) 269-0958,1-Day,,1-Day,-111.971012116113,33.4655902135897
-112.169309004055,33.4659427968364,211,Circle K - OPEN 24 HOURS,5105 W. McDowell,Phoenix,85035,,(602) 269-0958,1-Day,,1-Day,-112.169309004055,33.4659427968364
-111.976252860983,33.3198345699567,212,Circle K - OPEN 24 HOURS,4939 E. Ray Road,Phoenix,85044,,(480) 785-1763,1-Day,,1-Day,-111.976252860983,33.3198345699567
-112.255047913276,33.5087042978555,213,Circle K - OPEN 24 HOURS,4930 N. 91st Ave.,Phoenix,85037,,Telephone is currently not in service.,1-Day,,1-Day,-112.255047913276,33.5087042978555
-111.986961657173,33.4511468850736,214,Circle K - OPEN 24 HOURS,4403 E. Van Buren,Phoenix,85008,,(602) 220-0661,1-Day,,1-Day,-111.986961657173,33.4511468850736
-112.116986047661,33.501137588265,215,Circle K - OPEN 24 HOURS,4435 N. 27th Avenue,Phoenix,85017,,(602) 246-4720,1-Day,,1-Day,-112.116986047661,33.501137588265
-111.980310890858,33.3489263191088,216,Circle K - OPEN 24 HOURS,4801 E. Elliott,Phoenix,85044,,(480) 496-5760,1-Day,,1-Day,-111.980310890858,33.3489263191088
-111.831481684534,33.4225610174682,217,Circle K - OPEN 24 HOURS,410 N Center St.,Mesa,85201,,(480) 898-0513,1-Day,,1-Day,-111.831481684534,33.4225610174682
-111.874505890771,33.4071520894547,218,Circle K - OPEN 24 HOURS,417 S. Dobson Rd,Mesa,85202,,(480) 464-5725,1-Day,,1-Day,-111.874505890771,33.4071520894547
-112.150804286396,33.4659387955679,219,Circle K - OPEN 24 HOURS,4259 W. McDowell,Phoenix,85009,,(602) 272-7248,1-Day,,1-Day,-112.150804286396,33.4659387955679
-112.147193213566,33.4804428781761,220,Circle K - OPEN 24 HOURS,4301 West Thomas Road,Phoenix,85009,,(602) 269-7489,1-Day,,1-Day,-112.147193213566,33.4804428781761
-111.754279575875,33.3791299922243,221,Circle K - OPEN 24 HOURS,3589 E Baseline Rd.,Gilbert,85234,,(480) 507-2486,1-Day,,1-Day,-111.754279575875,33.3791299922243
-111.755646729683,33.3495165857899,222,Circle K - OPEN 24 HOURS,33 S. Val Vista Dr.,Gilbert,85296,,(480) 632-1625,1-Day,,1-Day,-111.755646729683,33.3495165857899
-112.0177830006,33.4357783284776,223,Circle K - OPEN 24 HOURS,3618 W. Buckeye,Phoenix,85034,,(602) 269-8482,1-Day,,1-Day,-112.0177830006,33.4357783284776
-111.720218391873,33.3069852669644,224,Circle K - OPEN 24 HOURS,3230 E Williams Field Rd.,Gilbert,85295,,(480) 988-9322,1-Day,,1-Day,-111.720218391873,33.3069852669644
-112.117313639957,33.5675525012357,225,Circle K - OPEN 24 HOURS,3443 W. Dunlap,Phoenix,85021,,(602) 973-4847,1-Day,,1-Day,-112.117313639957,33.5675525012357
-111.997071653407,33.3926534672862,226,Circle K - OPEN 24 HOURS,3930 E. Southern,Phoenix,85040,,(602) 437-3093,1-Day,,1-Day,-111.997071653407,33.3926534672862
-112.115627589992,33.6398652191795,227,Circle K - OPEN 24 HOURS,4251 W. Bell Rd,Phoenix,85023,,(602) 978-6195,1-Day,,1-Day,-112.115627589992,33.6398652191795
-112.132535457739,33.6252374652703,228,Circle K - OPEN 24 HOURS,3449 W. Greenway,Phoenix,85053,,(602) 993-1452,1-Day,,1-Day,-112.132535457739,33.6252374652703
-112.134367966096,33.6546639568227,229,Circle K - OPEN 24 HOURS,3441 W Union Hills Dr.,Phoenix,85027,,(602) 439-7389,1-Day,,1-Day,-112.134367966096,33.6546639568227
-112.134287511187,33.6837958933395,230,Circle K - OPEN 24 HOURS,3435 W. Deer Valley Rd.,Phoenix,85027,,(623) 587-9718,1-Day,,1-Day,-112.134287511187,33.6837958933395
-112.134367966096,33.6546639568227,231,Circle K - OPEN 24 HOURS,3502 W. Union Hills,Phoenix,85027,,(623) 582-5128,1-Day,,1-Day,-112.134367966096,33.6546639568227
-112.014382879846,33.3051763691769,232,Circle K - OPEN 24 HOURS,3201 E Chandler Blvd,Phoenix,85048,,(480) 759-9639,1-Day,,1-Day,-112.014382879846,33.3051763691769
-111.969792375973,33.4510653841447,233,Circle K - OPEN 24 HOURS,302 N. 52nd Street,Phoenix,85008,,(602) 225-0824,1-Day,,1-Day,-111.969792375973,33.4510653841447
-112.014491786322,33.4512831123557,234,Circle K - OPEN 24 HOURS,3149 E. Van Buren,Phoenix,85008,,(602) 220-9808,1-Day,,1-Day,-112.014491786322,33.4512831123557
-112.017513691988,33.6405542058735,235,Circle K - OPEN 24 HOURS,3011 E. Bell Road,Phoenix,85032,,(602) 923-0366,1-Day,,1-Day,-112.017513691988,33.6405542058735
-112.047689026264,33.48757458285,236,Circle K - OPEN 24 HOURS,3402 N. 16th Street,Phoenix,85016,,(602) 279-3604,1-Day,,1-Day,-112.047689026264,33.48757458285
-112.151733992149,33.4514647950571,237,Circle K - OPEN 24 HOURS,301 N. 43rd Avenue,Phoenix,85009,,(602) 278-2508,1-Day,,1-Day,-112.151733992149,33.4514647950571
-112.069231144833,33.4874648209092,238,Circle K - OPEN 24 HOURS,309 E. Osborn,Phoenix,85012,,(602) 532-0076,1-Day,,1-Day,-112.069231144833,33.4874648209092
-112.012891884103,33.4811187891276,239,Circle K - OPEN 24 HOURS,2949 N. 32nd Street,Phoenix,85018,,(602) 955-4127,1-Day,,1-Day,-112.012891884103,33.4811187891276
-112.238367809895,33.449713340538,240,Circle K - OPEN 24 HOURS,298 North 83rd Ave,Tolleson,85353,,(623) 907-5448,1-Day,,1-Day,-112.238367809895,33.449713340538
-112.108971248259,33.6837574419489,241,Circle K - OPEN 24 HOURS,2311 W. Deer Valley Rd.,Phoenix,85027,,(623) 582-8827,1-Day,,1-Day,-112.108971248259,33.6837574419489
-111.893913340753,33.3638331398728,242,Circle K - OPEN 24 HOURS,2709 W. Guadalupe,Mesa,85202,,(480) 838-7988,1-Day,,1-Day,-111.893913340753,33.3638331398728
-112.104575627877,33.5531324273406,243,Circle K - OPEN 24 HOURS,2120 W. Northern,Phoenix,85021,,(602) 973-7086,1-Day,,1-Day,-112.104575627877,33.5531324273406
-112.100167996086,33.6837819570535,244,Circle K - OPEN 24 HOURS,1910 W. Deer Valley Rd.,Phoenix,85027,,(623) 581-2238,1-Day,,1-Day,-112.100167996086,33.6837819570535
-112.117541233277,33.6838264334104,245,Circle K - OPEN 24 HOURS,2702 W. Deer Valley Rd.,Phoenix,85027,,(623) 582-6701,1-Day,,1-Day,-112.117541233277,33.6838264334104
-111.739647730891,33.3797864198139,246,Circle K - OPEN 24 HOURS,1959 S. Greenfield Rd.,Mesa,85206,,(480) 633-5515,1-Day,,1-Day,-111.739647730891,33.3797864198139
-112.099571833409,33.5530719389418,247,Circle K - OPEN 24 HOURS,1851 W. Northern,Phoenix,85021,,(602) 944-7863,1-Day,,1-Day,-112.099571833409,33.5530719389418
-112.048648660955,33.4657194687748,248,Circle K - OPEN 24 HOURS,1523 E. McDowell Rd.,Phoenix,85006,,(602) 716-0491,1-Day,,1-Day,-112.048648660955,33.4657194687748
-111.756416630828,33.3212609576686,249,Circle K - OPEN 24 HOURS,1564 E. Ray Rd.,Gilbert,85296,,(480) 963-4994,1-Day,,1-Day,-111.756416630828,33.3212609576686
-112.089759749512,33.4804741524467,250,Circle K - OPEN 24 HOURS,1342 W. Thomas Rd.,Phoenix,85013,,(602) 279-6675,1-Day,,1-Day,-112.089759749512,33.4804741524467
-111.840151037023,33.3820552658754,251,Circle K - OPEN 24 HOURS,1810 S. Country Club Dr.,Mesa,85210,,(480) 733-6552,1-Day,,1-Day,-111.840151037023,33.3820552658754
-112.090835427461,33.6401987945024,252,Circle K - OPEN 24 HOURS,1440 W. Bell Rd.,Phoenix,85023,,(602) 548-1659,1-Day,,1-Day,-112.090835427461,33.6401987945024
-112.399775968396,33.6387232377448,253,Circle K - OPEN 24 HOURS,16247 W. Bell Rd.,Surprise,85374,,(623) 584-0063,1-Day,,1-Day,-112.399775968396,33.6387232377448
-112.013229649049,33.6105392469335,254,Circle K - OPEN 24 HOURS,13641 N. 32nd Street,Phoenix,85032,,(602) 867-9481,1-Day,,1-Day,-112.013229649049,33.6105392469335
-112.036796322409,33.6032421507216,255,Circle K - OPEN 24 HOURS,12839 N. Cave Creek Rd.,Phoenix,85022,,(602) 992-3433,1-Day,,1-Day,-112.036796322409,33.6032421507216
-111.936232403257,33.3782460046283,256,Circle K - OPEN 24 HOURS,222 E. Baseline Rd.,Tempe,85283,,(480) 820-6205,1-Day,,1-Day,-111.936232403257,33.3782460046283
-112.013189536706,33.5961668593003,257,Circle K - OPEN 24 HOURS,12042 N. 32nd Street,Phoenix,85028,,(602) 569-2835,1-Day,,1-Day,-112.013189536706,33.5961668593003
-112.298760968622,33.5965492167194,258,Circle K - OPEN 24 HOURS,13216 N. 111th Ave.,Youngtown,85363,,(623) 933-1275,1-Day,,1-Day,-112.298760968622,33.5965492167194
-112.056475989825,33.306473116728,259,Circle K - OPEN 24 HOURS,1250 E Chandler Blvd,Phoenix,85048,,(480) 460-3051,1-Day,,1-Day,-112.056475989825,33.306473116728
-111.805302536382,33.3933388053956,260,Circle K - OPEN 24 HOURS,1203 E. Southern Ave.,Mesa,85204,,(480) 926-5270,1-Day,,1-Day,-111.805302536382,33.3933388053956
-111.830743284771,33.4514385105511,261,Circle K - OPEN 24 HOURS,11 E. McKellips Road,Mesa,85201,,(480) 655-0135,1-Day,,1-Day,-111.830743284771,33.4514385105511
-111.684323656513,33.4382306646888,262,Circle K - OPEN 24 HOURS,1202 N. Power Rd.,Mesa,85205,,(480) 985-2596,1-Day,,1-Day,-111.684323656513,33.4382306646888
-111.977446860061,33.6536919114764,263,Circle K - OPEN 24 HOURS,18442 N. Tatum Rd.,Scottsdale,85072,,(602) 494-2810,1-Day,,1-Day,-111.977446860061,33.6536919114764
-111.80753354701,33.3788946373137,264,Circle K - OPEN 24 HOURS,1189 E Baseline Rd.,Gilbert,85233,,(480) 507-5547,1-Day,,1-Day,-111.80753354701,33.3788946373137
-111.941487433172,33.4219026973318,265,Circle K - OPEN 24 HOURS,119 W. University,Tempe,85281,,(480) 966-7592,1-Day,,1-Day,-111.941487433172,33.4219026973318
-112.057636449374,33.4947452755065,266,Circle K - OPEN 24 HOURS,1122 E. Indian School Rd,Phoenix,85014,,(602) 265-1016,1-Day,,1-Day,-112.057636449374,33.4947452755065
-112.086790689047,33.5712130869742,267,Circle K - OPEN 24 HOURS,1049 W. Hatcher Rd.,Phoenix,85021,,(602) 943-2089,1-Day,,1-Day,-112.086790689047,33.5712130869742
-111.908946454676,33.4585112851133,268,Rocky’s Kwik Mart,8001 E. Roosevelt St.,Scottsdale,85257,,(480) 994-5566,"1-Day, 7-Day, 15-Day, 31-Day",,"1-Day, 7-Day, 15-Day, 31-Day",-111.908946454676,33.4585112851133
-112.167781931683,33.465935567003,269,24 Hour Food Mart,5035 W. McDowell Rd.,Phoenix,85035,,(602) 353-0313,"1-Day, 7-Day",,"1-Day, 7-Day",-112.167781931683,33.465935567003
-112.305296259448,33.4430472353484,270,Avondale Civic Center Library,11350 W. Civic Center Drive,Avondale,85323,,(623) 333-2602,"1-Day, 7-Day, 31-Day",,"1-Day, 7-Day, 31-Day",-112.305296259448,33.4430472353484
-112.344767112362,33.4353556292171,271,Sam Garcia Western Avenue Library,495 E. Western Avenue,Avondale,85323,,(623) 333-2601,"1-Day, 7-Day, 31-Day",,"1-Day, 7-Day, 31-Day",-112.344767112362,33.4353556292171
-111.800424275159,33.407998728651,272,Kevin's Market,1416 E. Broadway Rd.,Mesa,85204,,(480) 615-6016,1-Day,,1-Day,-111.800424275159,33.407998728651
-112.13418184256,33.4958228363346,273,Los Amigos Market,4141 N. 35th Ave.,Phoenix,85017,,(602) 249-4833,1-Day,,1-Day,-112.13418184256,33.4958228363346
-112.099811967857,33.640100179634,274,Chevron Food Mart - OPEN 24 HOURS,1901 W. Bell Rd,Phoenix,85023,,(602) 942-4330,"1-Day, 7-Day, 15-Day",,"1-Day, 7-Day, 15-Day",-112.099811967857,33.640100179634
-112.160814064549,33.4804944837381,275,"47th Ave. Food Store, Inc",4723 W. Thomas Rd.,Phoenix,85031,,(602) 415-9155,1-Day,,1-Day,-112.160814064549,33.4804944837381
-111.824332905187,33.3489560278754,276,Desert Rose Express Chevron,37 S. McQueen Rd,Gilbert,85233,,(480) 892-1725,"1-Day, 15-Day",,"1-Day, 15-Day, 31-Day",-111.824332905187,33.3489560278754
-111.952079092616,33.3928815554546,277,Circle K - OPEN 24 HOURS,1010 W. Southern Ave.,Tempe,85282,,(480) 804-0652,1-Day,,1-Day,-111.952079092616,33.3928815554546
-112.160241374032,33.4937851460862,278,Circle K - OPEN 24 HOURS ,4023 N. 47th Avenue,Phoenix,85031,,(602) 278-5280,1-Day,,1-Day,-112.160241374032,33.4937851460862
-112.037855122344,33.5969283917314,279,Circle K - OPEN 24 HOURS,12201 N. Cave Creek Rd.,Phoenix,85022,,(602) 992-3207,1-Day,,1-Day,-112.037855122344,33.5969283917314
-111.841260994775,33.2565917982717,280,Circle K - OPEN 24 HOURS,1995 S. Arizona Ave,Chandler,85248,,(480) 963-3733,1-Day,,1-Day,-111.841260994775,33.2565917982717
-111.917599709292,33.4794527830384,281,Circle K - OPEN 24 HOURS,4440 N. Miller,Scottsdale,85257,,(480) 945-9174,1-Day,,1-Day,-111.917599709292,33.4794527830384
-111.932371124874,33.4948130715452,282,Circle K - OPEN 24 HOURS,6901 E. Indian School,Scottsdale,85251,,(480) 947-9827,1-Day,,1-Day,-111.932371124874,33.4948130715452
-112.125717843314,33.5530593605366,283,Circle K - OPEN 24 HOURS,3101 W. Northern,Phoenix,85051,,(602) 973-7030,1-Day,,1-Day,-112.125717843314,33.5530593605366
-112.349767463261,33.4498688539827,284,Goodyear Food Store,13310 W. Van Buren St.,Goodyear,85338,,(602) 882-8894,"1-Day, 7-Day",,,-112.349767463261,33.4498688539827
-111.908946453763,33.4878473340251,285,Circle K - OPEN 24 HOURS,3410 N. Hayden,Scottsdale,85251,,(480) 990-7435,1-Day,,1-Day,-111.908946453763,33.4878473340251
-112.099717458686,33.6257200291747,286,Circle K - OPEN 24 HOURS,15402 N. 19th Ave,Phoenix,85023,,(602) 548-1872,1-Day,,1-Day,-112.099717458686,33.6257200291747
-112.119744310052,33.6033230663909,287,Circle K - OPEN 24 HOURS,12806 N. 28th Drive,Phoenix,85029,,(602) 548-9315,1-Day,,1-Day,-112.119744310052,33.6033230663909
-112.185516839025,33.596353339586,288,Circle K - OPEN 24 HOURS,5881 W. Cactus Rd,Glendale,85304,,(623) 486-1032,1-Day,,1-Day,-112.185516839025,33.596353339586
-112.116904241105,33.5622792971876,289,Circle K - OPEN 24 HOURS,8617 N. 27th Avenue,Phoenix,85051,,(602) 864-8043,1-Day,,1-Day,-112.116904241105,33.5622792971876
-111.950990569622,33.4074114348701,290,Friendly Market,830 W. Broadway,Tempe,85282,,(480) 287-0450,"1-Day, 31-Day",,"1-Day, 31-Day",-111.950990569622,33.4074114348701
-111.597989070752,33.3940490388359,291,Circle K - OPEN 24 HOURS,1153 S. Signal Butte Rd.,Mesa,85208,,(480) 986-1187,1-Day,,1-Day,-111.597989070752,33.3940490388359
-111.615320786201,33.4070183174267,292,Circle K - OPEN 24 HOURS,425 South Crismon,Mesa,85208,,(480) 380-8992,1-Day,,1-Day,-111.615320786201,33.4070183174267
-111.5470133546,33.4222975594538,293,Circle K - OPEN 24 HOURS,85 W Superstition,Apache Junction,85120,,(480) 982-4388,1-Day,,1-Day,-111.5470133546,33.4222975594538
-111.996884072878,33.3780943719883,294,Circle K - OPEN 24 HOURS,3950 E. Baseline Rd.,Phoenix,85042,,(480) 438-7076,1-Day,,1-Day,-111.996884072878,33.3780943719883
-111.927300707134,33.5821920390739,295,Circle K - OPEN 24 HOURS,7140 E. Shea Blvd,Paradise Valley,85253,,(480) 948-3595,1-Day,,1-Day,-111.927300707134,33.5821920390739
-111.719377357394,33.3935699832821,296,Circle K - OPEN 24 HOURS,1210 S. Higley Rd.,Mesa,85206,,(480) 654-3394,1-Day,,1-Day,-111.719377357394,33.3935699832821
-111.52871229077,33.3884218884913,297,Circle K - OPEN 24 HOURS,2933 S. Tomahawk Rd.,Apache Junction,85119,,(480) 982-3582,1-Day,,1-Day,-111.52871229077,33.3884218884913
-111.701330826479,33.4518359762598,298,Circle K - OPEN 24 HOURS,6005 E McKellips,Mesa,85215,,(480) 396-8894,1-Day,,1-Day,-111.701330826479,33.4518359762598
-111.577443256957,33.4222970033745,299,Circle K - OPEN 24 HOURS,3135 W Superstition,Apache Junction,85120,,(480) 983-4105,1-Day,,1-Day,-111.577443256957,33.4222970033745
-111.623305938916,33.4223181733076,300,Circle K - OPEN 24 HOURS,9615 E University Dr.,Mesa,85207,,(480) 986-6573,1-Day,,1-Day,-111.623305938916,33.4223181733076
-111.988747323827,33.3203411246501,301,Circle K - OPEN 24 HOURS,4410 E. Ray Rd.,Phoenix,85044,,(480) 496-6838,1-Day,,1-Day,-111.988747323827,33.3203411246501
-111.787543711488,33.4517302825109,302,Circle K - OPEN 24 HOURS,2011 East McKellips,Mesa,85213,,(480) 844-4275,1-Day,,1-Day,-111.787543711488,33.4517302825109
-111.839927164697,33.4255662569891,303,Mr. J's Market,559 N. Country Club Drive,Mesa,85201,"Please contact location to verify hours and supply available.
",(480) 615-9985,"1-Day, 7-Day, 31-Day",,"1-Day, 7-Day, 31-Day",-111.839927164697,33.4255662569891
-111.980743470178,33.3308749623354,304,Circle K - OPEN 24 HOURS,E. Warner Road,Phoenix,85044,,(480) 893-9204,1-Day,,1-Day,-111.980743470178,33.3308749623354
-111.735749018458,33.3938162462435,305,Circle K - OPEN 24 HOURS,4420 E Southern Ave.,Mesa,85206,,(480) 807-9096,1-Day,,1-Day,-111.735749018458,33.3938162462435
-111.753841444374,33.3870796524878,306,Circle K - OPEN 24 HOURS,1557 S. Val Vista Dr.,Mesa,85204,,(480) 654-2543,1-Day,,1-Day,-111.753841444374,33.3870796524878
-111.964509277931,33.3344866298236,307,Circle K - OPEN 24 HOURS,1501 W. Warner ,Tempe,85284,,(480) 598-8641,1-Day,,1-Day,-111.964509277931,33.3344866298236
-111.997148045747,33.305175424359,308,Circle K - OPEN 24 HOURS,4001 E. Chandler Blvd.,Phoenix,85044,,(480) 704-0359,1-Day,,1-Day,-111.997148045747,33.305175424359
-111.770626647348,33.4226500146736,310,Circle K - OPEN 24 HOURS,2815 E University,Mesa,85213,,(480) 830-1678,1-Day,,1-Day,-111.770626647348,33.4226500146736
-111.962195054551,33.3053036639517,311,Circle K - OPEN 24 HOURS,6950 W Chandler Blvd,Chandler,85226,,(480) 961-4249,1-Day,,1-Day,-111.962195054551,33.3053036639517
-111.865851345575,33.4075832518636,312,Circle K - OPEN 24 HOURS,1605 W Broadway,Mesa,85202,,(480) 649-2761,1-Day,,1-Day,-111.865851345575,33.4075832518636
-111.96803889634,33.3052579170326,313,Circle K - OPEN 24 HOURS,7351 W Chandler Blvd,Chandler,85226,,(480) 785-7951,1-Day,,1-Day,-111.96803889634,33.3052579170326
-112.134106282042,33.5964051997935,314,Pump N Munch - OPEN 24 HOURS,3502 W. Cactus Rd.,Phoenix,85029,,(602) 938-1590,1-Day,,1-Day,-112.134106282042,33.5964051997935
-112.203146056068,33.520310944271,315,Stop in Market,5710 N. 67th Ave.,Glendale,85301,"Please contact location to verify hours and supply available.
",(623) 848-9639,"1-Day, 31-Day",,"1-Day, 31-Day",-112.203146056068,33.520310944271
-111.788851337923,33.3936077816095,316,Southern Express Chevron - OPEN 24 HOURS,1956 E. Southern Ave.,Mesa,85204,,(480) 361-8285,1-Day,,"1-Day, 31-Day",-111.788851337923,33.3936077816095
-112.134245667206,33.4958850375546,317,76/Mojo Mart - OPEN 24 HOURS,4150 N. 35th Ave.,Phoenix,85017,,(602) 296-7334,"1-Day, 31-Day",,"1-Day, 31-Day",-112.134245667206,33.4958850375546
-112.099755743297,33.5965806909122,318,76/Gas & Food Mart,1902 W. Cactus,Phoenix,85029,,(602) 994-1321,"1-Day, 31-Day",,"1-Day, 31-Day",-112.099755743297,33.5965806909122
-111.963176887822,33.3668519010233,319,Guadalupe Food Mart,8818 S. Avenida Del Yaqui,Tempe,85283,,(480) 839-2038,"1-Day, 7-Day, 31-Day",,"1-Day, 7-Day, 31-Day",-111.963176887822,33.3668519010233
-111.979303658345,33.7411400041974,320,Superpumper - OPEN 24 HOURS,4740 E Dynamite Blvd ,Cave Creek,85331,,(480) 419-9037,1-Day,,1-Day,-111.979303658345,33.7411400041974
-112.064477436493,33.3996162869987,321,Snappy Convenience Store,702 E. Roeser Rd.,Phoenix,85040,,(602) 302-7521,"1-Day, 7-Day, 31-Day",,"1-Day, 31-Day",-112.064477436493,33.3996162869987
-112.02144700466,33.4803695867887,322,Zest Market,2801 E. Thomas Rd.,Phoenix,85016,,(602) 522-9300,"1-Day, 31-Day",,"1-Day, 31-Day",-112.02144700466,33.4803695867887
-112.031017708861,33.6770553409267,323,Superpumper - OPEN 24 HOURS,21015 N Cave Creek Rd,Phoenix,85024,,(480) 765-2442,1-Day,,1-Day,-112.031017708861,33.6770553409267
-111.894219745619,33.6307546382555,324,Superpumper - OPEN 24 HOURS,8646 E Frank Lloyd Wright Blvd ,Scottsdale,85260,,(480) 922-0983,1-Day,,1-Day,-111.894219745619,33.6307546382555
-111.866044727456,33.6269765920265,325,Superpumper - OPEN 24 HOURS,15550 N Thompson Peak Pkwy,Scottsdale,85260,,(480) 419-6799,1-Day,,1-Day,-111.866044727456,33.6269765920265
-112.065337759164,33.6376337526799,326,Superpumper - OPEN 24 HOURS,704 E Greenway Pkwy,Phoenix,85022,,(480) 863-9307,1-Day,,1-Day,-112.065337759164,33.6376337526799
-111.887022089486,33.6297376202345,327,Superpumper - OPEN 24 HOURS,15752 N Frank Lloyd Wright Blvd,Scottsdale,85260,,(480) 860-2110,1-Day,,1-Day,-111.887022089486,33.6297376202345
-111.925274704333,33.7006100593143,328,Superpumper - OPEN 24 HOURS,23609 N Scottsdale Rd,Scottsdale,85255,,(480) 585-4476,1-Day,,1-Day,-111.925274704333,33.7006100593143
-112.073307935298,33.3993320402867,329,GES Mini Mart,5217 S. Central Ave.,Phoenix,85040,,(602) 304-0285,1-Day,,1-Day,-112.073307935298,33.3993320402867
-111.886458956724,33.5825758168369,330,Superpumper - OPEN 24 HOURS,8990 E Shea Blvd ,Scottsdale,85260,,(480) 391-1956,1-Day,,1-Day,-111.886458956724,33.5825758168369
-111.925881950631,33.6063200687963,331,Superpumper - OPEN 24 HOURS,13240 N Scottsdale Rd,Scottsdale,85254,,(480) 998-8250,1-Day,,1-Day,-111.925881950631,33.6063200687963
-111.974117512888,33.5827105350941,332,Superpumper - OPEN 24 HOURS,4934 E Shea Blvd,Scottsdale,85254,,(480) 998-8318,1-Day,,1-Day,-111.974117512888,33.5827105350941
-112.048588269376,33.451440686791,333,AZ’s Puff-N-Stuf,1524 E. Van Buren,Phoenix,85006,,(602) 488-1217,"1-Day, 31-Day",,"1-Day, 31-Day",-112.048588269376,33.451440686791
-111.947183472522,33.6259991581759,334,Superpumper - OPEN 24 HOURS,6324 E. Greenway Rd. ,Scottsdale,85254,,(480) 905-8240,1-Day,,1-Day,-111.947183472522,33.6259991581759
-111.859080516892,33.327983322794,335,Circle K - OPEN 24 HOURS,1405 N. Alma School Road,Chandler,85224,,(480) 855-7875,1-Day,,1-Day,-111.859080516892,33.327983322794
-111.823594214271,33.3062288247155,336,Circle K - OPEN 24 HOURS,1010 E. Chandler,Chandler,85225,,(480) 857-9876,1-Day,,1-Day,-111.823594214271,33.3062288247155
-111.805742239361,33.3353355569314,337,Circle K - OPEN 24 HOURS,755 W. Warner ,Gilbert,85233,,(480) 899-0877,1-Day,,1-Day,-111.805742239361,33.3353355569314
-111.963135253065,33.3723795923071,338,Guadalupe Market,8207 S. Avenida Del Yaqui,Tempe,85283,,(480) 839-2759,"1-Day, 7-Day, 31-Day",,"1-Day, 31-Day",-111.963135253065,33.3723795923071
-112.133795384837,33.6118350401188,339,Circle K - OPEN 24 HOURS,13828 N. 35th Avenue,Phoenix,85023,,(602) 547-3268,1-Day,,1-Day,-112.133795384837,33.6118350401188
-111.864994755492,33.3060531888709,340,Circle K - OPEN 24 HOURS,1262 W. Chandler Blvd,Chandler,85224,,(480) 963-4524,1-Day,,1-Day,-111.864994755492,33.3060531888709
-111.888193292357,33.5825626053964,341,Circle K - OPEN 24 HOURS,8890 E. Shea Blvd,Scottsdale,85260,,(480) 614-9871,1-Day,,1-Day,-111.888193292357,33.5825626053964
-112.151229534469,33.5963234556386,342,Circle K - OPEN 24 HOURS,4301 W. Cactus,Phoenix,85029,,(602) 843-8902,1-Day,,1-Day,-112.151229534469,33.5963234556386
-111.666445649637,33.4224489683309,343,Mesa Star Chevron,7956 E. University Dr.,Mesa,85207,,(480) 380-1717,"1-Day, 7-Day, 31-Day",,"1-Day, 7-Day, 31-Day",-111.666445649637,33.4224489683309
-112.167810687442,33.5818975797876,344,Circle K - OPEN 24 HOURS,5049 W. Peoria,Glendale,85302,,(623) 934-2842,1-Day,,1-Day,-112.167810687442,33.5818975797876
-111.821796440866,33.4514664681687,345,Circle 7 Mart Valor,415 E McKellips Road,Mesa,85203,,(480) 833-2744,"1-Day, 7-Day, 31-Day",,"1-Day, 7-Day, 31-Day",-111.821796440866,33.4514664681687
-112.134263332347,33.5819826911316,346,Circle K - OPEN 24 HOURS,3502 W. Peoria,Phoenix,85029,,(602) 843-3011,1-Day,,1-Day,-112.134263332347,33.5819826911316
-111.805257597221,33.4218399991817,347,SK Food Mart Chevron - OPEN 24 HOURS,357 N. Stapley Dr.,Mesa,85203,,(480) 649-0577,"1-Day, 7-Day, 31-Day",,"1-Day, 7-Day, 31-Day",-111.805257597221,33.4218399991817
-112.057516350442,33.4946909749882,348,Super Plus 98,1133 E. Indian School,Phoenix,85014,,(602) 279-3437,"1-Day, 7-Day, 31-Day",,"1-Day, 7-Day, 31-Day",-112.057516350442,33.4946909749882
-111.667418104532,33.3793111437984,349,Circle K - OPEN 24 HOURS,7610 E. Baseline Rd.,Mesa,85209,,(480) 986-7114,1-Day,,1-Day,-111.667418104532,33.3793111437984
-112.168580794767,33.3775784475023,350,Corner Store - OPEN 24 HOURS,5110 W. Baseline Road,Laveen,85339,,(602) 237-8572,"1-Day, 31-Day",,"1-Day, 31-Day",-112.168580794767,33.3775784475023
-112.012934909747,33.4512147321531,351,Circle K - OPEN 24 HOURS,1002 N. 32nd Street,Phoenix,85034,,(602) 275-5831,1-Day,,1-Day,-112.012934909747,33.4512147321531
-111.737409466224,33.4227910914883,352,Super Plus Chevron - OPEN 24 HOURS,4356 E University Drive,Mesa,85204,,(480) 325-2284,"1-Day, 7-Day, 31-Day",,"1-Day, 7-Day, 31-Day",-111.737409466224,33.4227910914883
-112.339717757925,33.4933400339061,353,Corner Store - OPEN 24 HOURS,13012 W. Indian School Road,Litchfield Park,85340,,(623) 535-6611,"1-Day, 31-Day",,"1-Day, 31-Day",-112.339717757925,33.4933400339061
-111.683999136369,33.4653335520393,354,Corner Store - OPEN 24 HOURS,2754 N. Power Road,Mesa,85215,,(480) 985-4346,"1-Day, 31-Day",,"1-Day, 31-Day",-111.683999136369,33.4653335520393
-112.07333355351,33.408081757818,355,Carniceria Rancho Grande,4227 S. Central Ave ,Phoenix,85040,,(602) 276-6007 ,"1-Day, 7-Day, 31-Day",,"1-Day, 7-Day, 31-Day",-112.07333355351,33.408081757818
-111.813469272333,33.4150857788528,356,Carniceria Rancho Grande,827 E Main St ,Mesa,85203,,(480) 969-4500 ,1-Day,,1-Day,-111.813469272333,33.4150857788528
-111.715265174374,33.451825284791,357,Corner Store,"5205 E. Mckellips
",Mesa,85215,,(480) 830-5474,"1-Day, 31-Day",,"1-Day, 31-Day",-111.715265174374,33.451825284791
-112.134463782543,33.4703547524113,358,Circle K - OPEN 24 HOURS,"2120 N. 35th Avenue
",Phoenix,85009,,(602) 484-4518,1-Day,,1-Day,-112.134463782543,33.4703547524113
-112.302253442545,33.4354384153058,359,Circle K - OPEN 24 HOURS,"11025 W. Buckeye Road
",Avondale,85323,,(623) 936-5706,1-Day,,1-Day,-112.302253442545,33.4354384153058
-112.099604251625,33.5821834517933,360,Circle K - OPEN 24 HOURS,"10625 N. 19th Avenue
",Phoenix,85029,,(602) 943-4246,1-Day,,1-Day,-112.099604251625,33.5821834517933
-112.126632212231,33.4949747546869,361,Circle K - OPEN 24 HOURS,"3122 West Indian School Road
",Phoenix,85017,,(602) 242-2417,1-Day,,1-Day,-112.126632212231,33.4949747546869
-112.099247967896,33.4652255821783,362,Circle K - OPEN 24 HOURS,"1834 W. Grant Avenue
",Phoenix,85007,,(602) 254-6493,1-Day,,1-Day,-112.099247967896,33.4652255821783
-111.754775666579,33.4155403187445,363,Circle K - OPEN 24 HOURS,"3550 E Main Street
",Mesa,85213,,(480) 854-2156,1-Day,,1-Day,-111.754775666579,33.4155403187445
-111.822926385638,33.4210869250332,364,Circle K - OPEN 24 HOURS,"310 N Mesa Drive
",Mesa,85201,,(480) 964-0036,1-Day,,1-Day,-111.822926385638,33.4210869250332
-112.030050784931,33.4658210842432,365,Circle K - OPEN 24 HOURS,"2402 E. McDowell
",Phoenix,85008,,(602) 275-4783,1-Day,,1-Day,-112.030050784931,33.4658210842432
-112.186119511402,33.4514814073555,366,Circle K - OPEN 24 HOURS,"5879 W. Van Buren
",Phoenix,85043,,(602) 269-3350,1-Day,,1-Day,-112.186119511402,33.4514814073555
-112.184675175555,33.4659439177851,367,Circle K - OPEN 24 HOURS,"5845 W. McDowell
",Phoenix,85035,,No phone number,1-Day,,1-Day,-112.184675175555,33.4659439177851
-112.186180238606,33.52404944627,368,Circle K - OPEN 24 HOURS,"5907 W. Bethany Home
",Glendale,85301,,(623) 939-0588,1-Day,,1-Day,-112.186180238606,33.52404944627
-112.110276439539,33.6546731278185,369,Circle K - OPEN 24 HOURS,"2439 W. Union Hills
",Phoenix,85027,,(602) 375-8879,1-Day,,1-Day,-112.110276439539,33.6546731278185
-112.237942311837,33.465512982338,370,Circle K - OPEN 24 HOURS,1611 N. 83rd Avenue,Phoenix,85035,,(623) 247-0569,1-Day,,1-Day,-112.237942311837,33.465512982338
-111.977470179228,33.6405995759288,371,Circle K - OPEN 24 HOURS,"4808 E. Bell
",Scottsdale,85254,,(602) 493-3862,1-Day,,1-Day,-111.977470179228,33.6405995759288
-112.099395341379,33.4066372953115,372,Circle K - OPEN 24 HOURS,"4305 S. 19th Avenue
",Phoenix,85041,,(602) 276-4109,1-Day,,1-Day,-112.099395341379,33.4066372953115
-112.013772149747,33.4070590127499,373,Circle K - OPEN 24 HOURS,3140 E. Broadway Road,Phoenix,85040,,(602) 276-0225,1-Day,,1-Day,-112.013772149747,33.4070590127499
-112.073248102621,33.3631742436875,374,Circle K - OPEN 24 HOURS,"9040 S. Central Avenue
",Phoenix,85041,,(602) 243-3987,1-Day,,1-Day,-112.073248102621,33.3631742436875
-111.911043688185,33.3200218567743,375,Circle K - OPEN 24 HOURS,3989 W. Ray Road,Chandler,85226,,(480) 786-4349,1-Day,,1-Day,-111.911043688185,33.3200218567743
-111.97784413252,33.6259042431373,376,Circle K - OPEN 24 HOURS,15262 N. Tatum Boulevard,Phoenix,85032,,(602) 482-2204,1-Day,,1-Day,-111.97784413252,33.6259042431373
-111.841472768387,33.299041106813,377,Circle K - OPEN 24 HOURS,295 S. Arizona Avenue,Chandler,85225,,(480) 786-9271,1-Day,,1-Day,-111.841472768387,33.299041106813
-111.791341406511,33.3064044759087,378,Circle K - OPEN 24 HOURS,13549 E. Williams field,Chandler,85224,,(480) 821-1697,1-Day,,1-Day,-111.791341406511,33.3064044759087
-111.684707159589,33.3938554939547,379,Circle K - OPEN 24 HOURS,1203 S. Power Road,Mesa,85206,,(480) 807-0489,1-Day,,1-Day,-111.684707159589,33.3938554939547
-111.841153269267,33.3636727764931,380,Circle K - OPEN 24 HOURS,751 N. Arizona Avenue,Gilbert,85233,,(480) 892-8922,1-Day,,1-Day,-111.841153269267,33.3636727764931
-111.873541417702,33.3785653065618,381,Circle K - OPEN 24 HOURS,1817 W. Baseline Road,Mesa,85202,,(480) 491-2045,1-Day,,1-Day,-111.873541417702,33.3785653065618
-111.908823122381,33.494952060972,382,Circle K - OPEN 24 HOURS,4101 N. Hayden Road,Scottsdale,85251,,(480) 947-4337,1-Day,,1-Day,-111.908823122381,33.494952060972
-111.753931546597,33.3798515875831,383,Circle K - OPEN 24 HOURS,1961 S. Val Vista,Mesa,85204,,(480) 813-5707,1-Day,,1-Day,-111.753931546597,33.3798515875831
-111.87702369044,33.3351590696077,384,Circle K - OPEN 24 HOURS,2020 W. Warner Road,Chandler,85224,,(480) 786-2014,1-Day,,1-Day,-111.87702369044,33.3351590696077
-111.960733259564,33.3782128807853,385,Circle K - OPEN 24 HOURS,1435 W. Baseline Road,Tempe,85283,,(480) 897-9338,1-Day,,1-Day,-111.960733259564,33.3782128807853
-111.977942687029,33.4800601525534,386,Circle K - OPEN 24 HOURS,4801 E. Thomas Road,Phoenix,85018,,(602) 957-5396,1-Day,,1-Day,-111.977942687029,33.4800601525534
-112.203821783212,33.581659729393,387,Circle K - OPEN 24 HOURS,6735 W Peoria Avenue,Peoria,85345,,(623) 487-3478,1-Day,,1-Day,-112.203821783212,33.581659729393
-111.876172240017,33.3059560795709,388,Circle K - OPEN 24 HOURS,1995 W. Chandler Boulevard,Chandler,85224,,(480) 786-8051,1-Day,,1-Day,-111.876172240017,33.3059560795709
-111.91192176737,33.3054254406033,389,Circle K - OPEN 24 HOURS ,4040 W. Chandler Boulevard,Chandler,85226,,(480) 753-4531,1-Day,,1-Day,-111.91192176737,33.3054254406033
-112.013633559314,33.6539417284752,390,Circle K - OPEN 24 HOURS,18452 N. 32nd Street,Phoenix,85032,,(602) 482-2055,1-Day,,1-Day,-112.013633559314,33.6539417284752
-111.928125925545,33.3199144744872,391,Circle K - OPEN 24 HOURS,1015 N. Rural Road,Chandler,85226,,(480) 820-2010,1-Day,,1-Day,-111.928125925545,33.3199144744872
-112.082730555283,33.4658542292499,392,Circle K - OPEN 24 HOURS,"702 W. McDowell
",Phoenix,85007,,(602) 252-4486,1-Day,,1-Day,-112.082730555283,33.4658542292499
-112.357099842844,33.5368556823812,393,Circle K - OPEN 24 HOURS,"13843 W. Glendale
",Glendale,85307,,(623) 935-0968,1-Day,,1-Day,-112.357099842844,33.5368556823812
-112.065506457597,33.6258473941889,394,Circle K - OPEN 24 HOURS,"15400 N. 7th Street
",Phoenix,85022,,(602) 942-4519,1-Day,,1-Day,-112.065506457597,33.6258473941889
-111.975813708034,33.3489588581746,395,Circle K - OPEN 24 HOURS,5105 E. Elliot Road,Phoenix,85044,,(602) 705-3257,1-Day,,1-Day,-111.975813708034,33.3489588581746
-112.073554348592,33.4368420772973,396,Circle K - OPEN 24 HOURS,"10 E. Buckeye
",Phoenix,85004,,(602) 252-3135,1-Day,,1-Day,-112.073554348592,33.4368420772973
-111.986971157185,33.4483241784482,397,Circle K - OPEN 24 HOURS,"4402 E. Washington
",Phoenix,85003,,(602) 220-9534,1-Day,,1-Day,-111.986971157185,33.4483241784482
-112.013057328059,33.4070139067501,398,Circle K - OPEN 24 HOURS,"3151 E. Broadway
",Phoenix,85040,,(602) 276-7316,1-Day,,1-Day,-112.013057328059,33.4070139067501
-112.280944171064,33.4937391335091,399,Circle K - OPEN 24 HOURS,10712 W Indian School Road,Phoenix,85037,,(623) 877-2090,1-Day,,1-Day,-112.280944171064,33.4937391335091
-112.134045599505,33.3777004979254,400,Circle K - OPEN 24 HOURS,"3508 W. Baseline
",Laveen,85339,,(602) 237-2728,1-Day,,1-Day,-112.134045599505,33.3777004979254
-112.220145648538,33.5958940589117,401,Circle K - OPEN 24 HOURS,"7460 W. Cactus
",Peoria,85381,,(623) 878-1491,1-Day,,1-Day,-112.220145648538,33.5958940589117
-112.09701844297,33.4513231681443,402,Circle K - OPEN 24 HOURS,"1732 W. Van Buren
",Phoenix,85007,,(602) 253-9815,1-Day,,1-Day,-112.09701844297,33.4513231681443
-112.073751003357,33.4760462784501,403,Circle K - OPEN 24 HOURS,"2535 N. Central Avenue
",Phoenix,85004,,(602) 252-4153,1-Day,,1-Day,-112.073751003357,33.4760462784501
-112.065361834467,33.4067335536193,404,Circle K - OPEN 24 HOURS,"630 E. Broadway
",Phoenix,85040,,(602) 268-6269,1-Day,,1-Day,-112.065361834467,33.4067335536193
-111.989700701575,33.5987772148785,405,Circle K - OPEN 24 HOURS,"4304 E. Cactus
",Phoenix,85032,,(602) 494-1519,1-Day,,1-Day,-111.989700701575,33.5987772148785
-112.081944805953,33.3790457600729,406,Circle K - OPEN 24 HOURS,"7440 S. 7th Avenue
",Phoenix,85041,,(602) 276-2679,1-Day,,1-Day,-112.081944805953,33.3790457600729
-112.048397074691,33.4068009243435,407,Circle K - OPEN 24 HOURS,"1540 E. Broadway
",Phoenix,85040,,(602) 276-7933,1-Day,,1-Day,-112.048397074691,33.4068009243435
-112.065113348749,33.4796332377563,408,Circle K - OPEN 24 HOURS,"2850 N. 7th Street
",Phoenix,85006,,(602) 280-1278,1-Day,,1-Day,-112.065113348749,33.4796332377563
-112.073713854937,33.5119572046809,409,Circle K - OPEN 24 HOURS,"5141 N. Central
",Phoenix,85012,,(602) 279-6341,1-Day,,1-Day,-112.073713854937,33.5119572046809
-111.988217795695,33.509539851768,410,Circle K - OPEN 24 HOURS,"4343 E. Camelback
",Phoenix,85018,,(602) 840-2639,1-Day,,1-Day,-111.988217795695,33.509539851768
-112.169200012103,33.4222118227316,411,Circle K - OPEN 24 HOURS,"5041 W. Lower Buckeye
",Phoenix,85031,,(602) 233-3235,1-Day,,1-Day,-112.169200012103,33.4222118227316
-111.935247108495,33.4656458225498,412,Circle K - OPEN 24 HOURS,"6744 E. McDowell
",Scottsdale,85257,,(480) 994-4806,1-Day,,1-Day,-111.935247108495,33.4656458225498
-111.841645200479,33.2953925155616,413,Circle K - OPEN 24 HOURS,498 S Arizona Avenue,Chandler,85225,,(480) 821-5895,1-Day,,1-Day,-111.841645200479,33.2953925155616
-111.905666955191,33.4948990420696,414,Circle K - OPEN 24 HOURS,"8140 E. Indian School
",Scottsdale,85251,,(480) 947-0971,1-Day,,1-Day,-111.905666955191,33.4948990420696
-112.134637216776,33.4224498263674,415,Circle K - OPEN 24 HOURS,3501 W. Lower Buckeye,Phoenix,85009,,(602) 484-4507,1-Day,,1-Day,-112.134637216776,33.4224498263674
-112.255796911159,33.450393350194,416,Circle K - OPEN 24 HOURS,9110 W. Van Buren,Tolleson,85353,,(623) 936-5516,1-Day,,1-Day,-112.255796911159,33.450393350194
-111.977862851246,33.6116323938569,417,Circle K - OPEN 24 HOURS,13801 N . Tatum,Phoenix,85032,,(602) 996-4023,1-Day,,1-Day,-111.977862851246,33.6116323938569
-112.065182111977,33.4588177972341,418,Circle K - OPEN 24 HOURS,1007 N. 7th Street,Phoenix,85006,,(602) 252-3248,1-Day,,1-Day,-112.065182111977,33.4588177972341
-111.841819449117,33.3497443599357,419,Circle K - OPEN 24 HOURS,3000 N Arizona Avenue,Chandler,85225,,(480) 497-8931,1-Day,,1-Day,-111.841819449117,33.3497443599357
-111.847373273816,33.4077152253537,420,Circle K - OPEN 24 HOURS,753 W. Broadway Road,Mesa,85210,,(480) 649-9011,1-Day,,1-Day,-111.847373273816,33.4077152253537
-112.10363240249,33.4512021479677,421,Circle K - OPEN 24 HOURS,2041 W. Van Buren,Phoenix,85009,,(602) 252-2315,1-Day,,1-Day,-112.10363240249,33.4512021479677
-112.202241544588,33.4803213202522,422,Circle K - OPEN 24 HOURS,6649 W. Thomas Road,Phoenix,85033,,(623) 849-4837,1-Day,,1-Day,-112.202241544588,33.4803213202522
-112.082456353085,33.4514365184346,423,Circle K - OPEN 24 HOURS,966 E. Van Buren,Phoenix,85003,,(602) 252-3183,1-Day,,1-Day,-112.082456353085,33.4514365184346
-111.855342147354,33.4149023976628,424,Circle K - OPEN 24 HOURS,1145 W Main Street,Mesa,85201,,(480) 644-1903,1-Day,,1-Day,-111.855342147354,33.4149023976628
-111.908888809146,33.4220110322757,425,Circle K - OPEN 24 HOURS,1802 E. University,Tempe,85281,,(480) 921-0537,1-Day,,1-Day,-111.908888809146,33.4220110322757
-112.117564855946,33.4368483501065,426,Circle K - OPEN 24 HOURS,2708 W. Buckeye,Phoenix,85009,,(602) 484-4505,1-Day,,1-Day,-112.117564855946,33.4368483501065
-112.048421279314,33.3927454683206,427,Circle K - OPEN 24 HOURS,1544 E. Southern,Phoenix,85040,,(602) 276-8269,1-Day,,1-Day,-112.048421279314,33.3927454683206
-111.979951983309,33.4510865507355,428,Circle K - OPEN 24 HOURS,1945 E. Van Buren,Phoenix,85034,,(602) 253-9445,1-Day,,1-Day,-111.979951983309,33.4510865507355
-112.219166232738,33.465706733918,429,Circle K - OPEN 24 HOURS,7424 W. McDowell,Phoenix,85035,,(623) 849-4205,1-Day,,1-Day,-112.219166232738,33.465706733918
-112.047512967853,33.4946754813404,430,Circle K - OPEN 24 HOURS,1601 E. Indian School,Phoenix,85016,,(602) 279-3507,1-Day,,1-Day,-112.047512967853,33.4946754813404
-112.030974257048,33.6550515092051,431,Circle K - OPEN 24 HOURS,3196 E. Union Hills,Phoenix,85024,,(602) 569-9871,1-Day,,1-Day,-112.030974257048,33.6550515092051
-112.134224783698,33.5227722292869,432,Circle K - OPEN 24 HOURS,5849 N. 35th Avenue,Phoenix,85017,,(602) 973-6413,1-Day,,1-Day,-112.134224783698,33.5227722292869
-112.110118571366,33.6109792095485,433,Circle K - OPEN 24 HOURS,2524 W. Thunderbird,Phoenix,85023,,(602) 504-0547,1-Day,,1-Day,-112.110118571366,33.6109792095485
-112.203342647655,33.465939803336,434,Circle K - OPEN 24 HOURS,1601 N. 67th Avenue,Phoenix,85035,,(623) 849-4974,1-Day,,1-Day,-112.203342647655,33.465939803336
-111.995967954104,33.611962450779,435,Circle K - OPEN 24 HOURS,13802 N. 40th Street,Phoenix,85032,,(602) 482-1363,1-Day,,1-Day,-111.995967954104,33.611962450779
-112.237682339906,33.507701766561,436,Circle K - OPEN 24 HOURS,4849 N. 83rd Avenue,Phoenix,85033,,(623) 848-6774,1-Day,,1-Day,-112.237682339906,33.507701766561
-111.996089279617,33.6265964059832,437,Circle K - OPEN 24 HOURS,15410 N. 40th Street,Phoenix,85032,,(602) 482-1280,1-Day,,1-Day,-111.996089279617,33.6265964059832
-112.047645093815,33.448339299779,438,Circle K - OPEN 24 HOURS,1602 E. Washington,Phoenix,85006,,(602) 254-8105,1-Day,,1-Day,-112.047645093815,33.448339299779
-111.892125798794,33.414818813743,439,Circle K - OPEN 24 HOURS,2196 E. Apache,Tempe,85281,,(480) 968-9677,1-Day,,1-Day,-111.892125798794,33.414818813743
-111.987872300512,33.4948733443806,440,Circle K - OPEN 24 HOURS,4349 E. Indian School,Phoenix,85018,,(602) 224-9435,1-Day,,1-Day,-111.987872300512,33.4948733443806
-111.946095240756,33.3636302273861,441,Circle K - OPEN 24 HOURS,505 W. Guadalupe,Tempe,85283,,(480) 839-0421,1-Day,,1-Day,-111.946095240756,33.3636302273861
-112.091517090239,33.4949798969431,442,Circle K - OPEN 24 HOURS,1502 W. Indian School,Phoenix,85015,,(602) 279-6758,1-Day,,1-Day,-112.091517090239,33.4949798969431
-111.90873827106,33.4657839782872,443,Circle K - OPEN 24 HOURS,8001 E. McDowell,Scottsdale,85257,,(480) 941-4559,1-Day,,1-Day,-111.90873827106,33.4657839782872
-111.986861293123,33.4876101743939,444,Circle K - OPEN 24 HOURS,"4402 E. Osborn
",Phoenix,85018,,(602) 952-1948,1-Day,,1-Day,-111.986861293123,33.4876101743939
-112.130937555025,33.6546272081778,445,Circle K - OPEN 24 HOURS,4005 E. Union Hills,Phoenix,85027,,(602) 992-0842,1-Day,,1-Day,-112.130937555025,33.6546272081778
-112.220376240121,33.5814190565225,446,Circle K - OPEN 24 HOURS,"7510 W. Peoria
",Peoria,85345,,(623) 979-7006,1-Day,,1-Day,-112.220376240121,33.5814190565225
-112.185333699405,33.4950890886168,447,Circle K - OPEN 24 HOURS,5850 W. Indian School,Glendale,85301,,(623) 247-0825,1-Day,,1-Day,-112.185333699405,33.4950890886168
-111.939880556836,33.3928298598322,448,Circle K - OPEN 24 HOURS,"15 W. Southern
",Tempe,85282,,(480) 804-0643,1-Day,,1-Day,-111.939880556836,33.3928298598322
-112.029918270516,33.393227016619,449,Circle K - OPEN 24 HOURS,"2402 E. Southern
",Phoenix,85040,,(602) 276-1550,1-Day,,1-Day,-112.029918270516,33.393227016619
-112.168906800618,33.5094942183737,450,Circle K - OPEN 24 HOURS,"5102 W. Camelback Road.
",Glendale,85301,,(623) 930-4924,1-Day,,1-Day,-112.168906800618,33.5094942183737
-112.151501071187,33.5119615886996,451,Circle K - OPEN 24 HOURS,5127 N. 43rd Avenue,Phoenix,85019,,(602) 841-5446,1-Day,,1-Day,-112.151501071187,33.5119615886996
-111.856179178815,33.429430144412,452,Circle K - OPEN 24 HOURS,1154 W 8th Street,Mesa,85201,,(480) 649-8769,1-Day,,1-Day,-111.856179178815,33.429430144412
-112.099973683214,33.4879387482467,453,Circle K - OPEN 24 HOURS,"3404 N. 19th Avenue
",Phoenix,85015,,(602) 279-6057,1-Day,,1-Day,-112.099973683214,33.4879387482467
-112.030901385501,33.6535757361954,454,Circle K - OPEN 24 HOURS,18444 N. Cave Creek,Phoenix,85032,,(602) 404-5342,1-Day,,1-Day,-112.030901385501,33.6535757361954
-112.349349637298,33.42922334873,455,Circle K - OPEN 24 HOURS,3 E. Main Street,Avondale,85323,,(623) 932-1764,1-Day,,1-Day,-112.349349637298,33.42922334873
-112.073278890641,33.3923081191235,456,Circle K - OPEN 24 HOURS,7601 S. Central Avenue,Phoenix,85040,,(602) 268-7239,1-Day,,1-Day,-112.073278890641,33.3923081191235
-111.960875691232,33.407444703072,457,Circle K - OPEN 24 HOURS,"1406 W. Broadway
",Tempe,85282,,(480) 968-0929,1-Day,,1-Day,-111.960875691232,33.407444703072
-112.099714556748,33.5965269892577,458,Circle K - OPEN 24 HOURS,1901 W. Cactus,Phoenix,85020,,(602) 997-1127,1-Day,,1-Day,-112.099714556748,33.5965269892577
-112.218562599983,33.4802506752572,459,Circle K - OPEN 24 HOURS,7402 W. Thomas Road,Phoenix,85033,,(623) 873-4177,1-Day,,1-Day,-112.218562599983,33.4802506752572
-112.030096547653,33.494819537877,460,Circle K - OPEN 24 HOURS,"2401 E. Indian School
",Phoenix,85016,,(602) 468-0534,1-Day,,1-Day,-112.030096547653,33.494819537877
-112.134499987162,33.4587477235605,461,Circle K - OPEN 24 HOURS,1002 N. 35th Avenue,Phoenix,85009,,(602) 484-4503,1-Day,,1-Day,-112.134499987162,33.4587477235605
-112.004417211848,33.4951966231251,462,Circle K - OPEN 24 HOURS,"3554 E. Indian School
",Phoenix,85018,,(602) 957-3987,1-Day,,1-Day,-112.004417211848,33.4951966231251
-112.341469511329,33.5367475011528,463,Circle K - OPEN 24 HOURS,13110 West Glendale Avenue,Glendale,85307,,(623) 935-3467,1-Day,,1-Day,-112.341469511329,33.5367475011528
-112.099208368697,33.3936280178506,464,Circle K - OPEN 24 HOURS,5850 S. 19th Avenue,Phoenix,85041,,(602) 268-5741,,,1-Day,-112.099208368697,33.3936280178506
-112.056290981986,33.5298031787924,465,Circle K - OPEN 24 HOURS,6322 N. 12th Street,Phoenix,85014,,(602) 274-5027,1-Day,,1-Day,-112.056290981986,33.5298031787924
-112.031797224184,33.6695253049205,466,Circle K - OPEN 24 HOURS,2359 E. Beardsley,Phoenix,85024,,(602) 569-0144,1-Day,,1-Day,-112.031797224184,33.6695253049205
-111.911213043176,33.3638513638235,467,Circle K - OPEN 24 HOURS,6349 S. McClintock,Tempe,85283,,(480) 345-0593,1-Day,,1-Day,-111.911213043176,33.3638513638235
-112.134502270178,33.460812565289,468,Circle K - OPEN 24 HOURS,1146 N. 35th Avenue,Phoenix,85009,,(602) 352-1328,1-Day,,1-Day,-112.134502270178,33.460812565289
-112.051441444468,33.5827218306939,469,Circle K - OPEN 24 HOURS,10612 N. Cave Creek,Phoenix,85020,,(602) 943-8621,1-Day,,1-Day,-112.051441444468,33.5827218306939
-112.082448725233,33.5239392475626,470,Circle K - OPEN 24 HOURS,"6002 N. 7th Avenue
",Phoenix,85013,,(602) 246-4910,1-Day,,1-Day,-112.082448725233,33.5239392475626
-111.996884072878,33.3780943719883,471,Circle K - OPEN 24 HOURS,4004 E. Baseline,Phoenix,85040,,(602) 437-2357,1-Day,,1-Day,-111.996884072878,33.3780943719883
-112.091423607067,33.4658005643507,472,Circle K - OPEN 24 HOURS,"1501 W. McDowell
",Phoenix,85007,,(602) 253-1598,1-Day,,1-Day,-112.091423607067,33.4658005643507
-111.952803160413,33.3781847718386,473,Circle K - OPEN 24 HOURS,939 W. Baseline,Tempe,85283,,(480) 839-2570,1-Day,,1-Day,-111.952803160413,33.3781847718386
-112.220438843548,33.5354465191897,474,Circle K - OPEN 24 HOURS,6937 N. 75th Avenue,Glendale,85303,,(623) 934-9051,1-Day,,1-Day,-112.220438843548,33.5354465191897
-111.874640948583,33.4075530535783,475,Circle K - OPEN 24 HOURS,2005 W Broadway,Mesa,85202,,(480) 964-7602,1-Day,,1-Day,-111.874640948583,33.4075530535783
-112.116254082494,33.4511145355593,476,Circle K - OPEN 24 HOURS,"2640 W. Van Buren
",Phoenix,85009,,(602) 272-1342,1-Day,,1-Day,-112.116254082494,33.4511145355593
-111.97830043707,33.4079503373751,477,Circle K - OPEN 24 HOURS,4252 S. 48th Street,Phoenix,85040,,(602) 438-9061,1-Day,,1-Day,-111.97830043707,33.4079503373751
-112.184290904367,33.5675420249644,478,Circle K - OPEN 24 HOURS,5848 W. Olive Avenue,Glendale,85302,,(623) 937-1860,1-Day,,1-Day,-112.184290904367,33.5675420249644
-112.238203222397,33.4651412083042,479,Circle K - OPEN 24 HOURS,8303 W. McDowell,Tolleson,85353,,(623) 936-5403,1-Day,,1-Day,-112.238203222397,33.4651412083042
-112.013389318317,33.6265209411536,480,Circle K - OPEN 24 HOURS,15412 N. 32nd Street,Phoenix,85032,,(602) 923-7642,1-Day,,1-Day,-112.013389318317,33.6265209411536
-111.874720077867,33.3930822260722,481,Circle K - OPEN 24 HOURS,"2012 W Southern
",Mesa,85202,,(480) 962-9661,1-Day,,1-Day,-111.874720077867,33.3930822260722
-111.908825887872,33.4803511441341,482,Circle K - OPEN 24 HOURS,"8001 E. Thomas
",Scottsdale,85251,,(480) 947-2094,1-Day,,1-Day,-111.908825887872,33.4803511441341
-112.097515084704,33.6547108341041,483,Circle K - OPEN 24 HOURS,1802 W. Union Hills,Phoenix,85023,,(602) 869-7501,1-Day,,1-Day,-112.097515084704,33.6547108341041
-111.788432977271,33.3935541383629,484,Circle K - OPEN 24 HOURS,1953 E Southern Avenue,Mesa,85204,,(480) 507-7834,1-Day,,1-Day,-111.788432977271,33.3935541383629
-111.687131103452,33.3377394263855,485,Circle K - OPEN 24 HOURS,4353 S. Power Road,Mesa,85212,,(480) 507-0743,1-Day,,1-Day,-111.687131103452,33.3377394263855
-111.876606063623,33.3619913508706,486,Circle K - OPEN 24 HOURS,2808 S. Dobson Road,Mesa,85202,,(480) 775-6258,1-Day,,1-Day,-111.876606063623,33.3619913508706
-112.065225545707,33.4367937850866,487,Circle K - OPEN 24 HOURS,"699 E. Buckeye
",Phoenix,85004,,(602) 252-3127,1-Day,,1-Day,-112.065225545707,33.4367937850866
-111.892954253663,33.4220565774598,488,Circle K - OPEN 24 HOURS,2174 E. University,Tempe,85281,,(480) 967-2911,1-Day,,1-Day,-111.892954253663,33.4220565774598
-112.109443064822,33.480694698822,489,Circle K - OPEN 24 HOURS,"2344 W. Thomas Road
",Phoenix,85015,,(602) 258-4130,1-Day,,1-Day,-112.109443064822,33.480694698822
-111.964671496727,33.3782254120975,491,Circle K - OPEN 24 HOURS,1619 W. Baseline,Tempe,85283,,(480) 775-7460,1-Day,,1-Day,-111.964671496727,33.3782254120975
-111.926252840388,33.4167414701151,492,Circle K - OPEN 24 HOURS,"1101 S. Rural Road
",Tempe,85281,,(480) 804-0675,1-Day,,1-Day,-111.926252840388,33.4167414701151
-111.952363434045,33.4074176822606,493,Circle K - OPEN 24 HOURS,"904 W. Broadway
",Tempe,85282,,(480) 967-2868,1-Day,,1-Day,-111.952363434045,33.4074176822606
-112.047581294118,33.4588042659616,494,Circle K - OPEN 24 HOURS,"1001 N. 16th Street
",Phoenix,85006,,(602) 252-2344,1-Day,,1-Day,-112.047581294118,33.4588042659616
-111.928485225706,33.3637227378807,495,Circle K - OPEN 24 HOURS,"905 E. Guadalupe
",Tempe,85283,,(480) 839-5548,1-Day,,1-Day,-111.928485225706,33.3637227378807
-112.056259351323,33.5038733247428,496,Circle K - OPEN 24 HOURS,"4601 N. 12th Street
",Phoenix,85014,,(602) 274-5212,1-Day,,1-Day,-112.056259351323,33.5038733247428
-111.960297891798,33.3928500707596,497,Circle K - OPEN 24 HOURS,"1323 W. Southern
",Tempe,85282,,(480) 966-7572,1-Day,,1-Day,-111.960297891798,33.3928500707596
-111.813912741711,33.3933253585546,498,Circle K - OPEN 24 HOURS,"809 E Southern
",Mesa,85204,,(480) 926-7791,1-Day,,1-Day,-111.813912741711,33.3933253585546
-112.099923773657,33.5024036390229,499,Circle K - OPEN 24 HOURS,"4502 N. 19th Avenue
",Phoenix,85015,,(602) 242-0642,1-Day,,1-Day,-112.099923773657,33.5024036390229
-111.825105828213,33.3061583572638,500,Circle K - OPEN 24 HOURS,"955 E. Chandler Blvd
",Chandler,85225,,(480) 821-6786,1-Day,,1-Day,-111.825105828213,33.3061583572638
-111.858518653272,33.3060065801362,501,Circle K - OPEN 24 HOURS,"975 W. Chandler Blvd
",Chandler,85225,,(480) 814-9280,1-Day,,1-Day,-111.858518653272,33.3060065801362
-111.95929177467,33.4219604473383,502,Circle K - OPEN 24 HOURS,"1330 W. University Drive
",Tempe,85281,,(480) 829-6235,1-Day,1-Day,,-111.95929177467,33.4219604473383
-111.824020141923,33.407835476968,503,Circle K - OPEN 24 HOURS,"330 E. Broadway
",Mesa,85210,,(480) 655-0256,1-Day,,1-Day,-111.824020141923,33.407835476968
-111.683881030717,33.4951237314649,504,Circle K - OPEN 24 HOURS,"2005 N. Bush Highway
",Mesa,85215,,(480) 985-5131,1-Day,,1-Day,-111.683881030717,33.4951237314649
-112.255290913214,33.4652170064786,505,Circle K - OPEN 24 HOURS,1609 N. 91st Avenue,Phoenix,85037,,(623) 936-5193,1-Day,,1-Day,-112.255290913214,33.4652170064786
-112.063420643708,33.406620609478,506,Circle K - OPEN 24 HOURS,"4401 S. 7th Avenue
",Phoenix,85040,,(602) 268-5718,1-Day,,1-Day,-112.063420643708,33.406620609478
-112.196534357019,33.5311695482918,507,Circle K - OPEN 24 HOURS,"6305 W. Maryland
",Glendale,85301,,(623) 934-3823,1-Day,,1-Day,-112.196534357019,33.5311695482918
-112.073373297109,33.3994536648846,508,Circle K - OPEN 24 HOURS,"5202 S. Central
",Phoenix,85040,,(602) 268-5485,1-Day,,1-Day,-112.073373297109,33.3994536648846
-111.977138133119,33.3053269528285,509,Circle K - OPEN 24 HOURS,4950 E. Chandler Blvd.,Phoenix,85048,,(480) 496-7123,1-Day,,1-Day,-111.977138133119,33.3053269528285
-111.873522435374,33.4221033658866,510,Circle K - OPEN 24 HOURS,"1955 W. University Drive
",Mesa,85201,,480-962-0830,1-Day,,1-Day,-111.873522435374,33.4221033658866
-111.99547526729,33.4072598197671,511,Circle K - OPEN 24 HOURS,"3955 E. Broadway
",Phoenix,85040,,(602) 437-0385,1-Day,,1-Day,-111.99547526729,33.4072598197671
-112.081651619102,33.4587054920809,512,Circle K - OPEN 24 HOURS,"614 W. Roosevelt
",Phoenix,85003,,(602) 254-1201,1-Day,,1-Day,-112.081651619102,33.4587054920809
-111.806195036616,33.4224283733727,513,Circle K - OPEN 24 HOURS,"1160 E. University Drive
",Mesa,85203,,(480) 649-6343,1-Day,,1-Day,-111.806195036616,33.4224283733727
-112.23577262447,33.5795306259553,514,Circle K - OPEN 24 HOURS,"12707 NW Grand Avenue
",Peoria,85345,,(623) 583-1281,1-Day,,1-Day,-112.23577262447,33.5795306259553
-111.772095051699,33.3791171970821,515,Circle K - OPEN 24 HOURS,2760 E. Baseline Rd.,Mesa,85204,,(480) 632-1652,1-Day,,1-Day,-111.772095051699,33.3791171970821
-111.83985180424,33.4440823101977,516,Circle K - OPEN 24 HOURS,"1550 N. Country Club
",Mesa,85201,,(480) 964-5797,1-Day,,1-Day,-111.83985180424,33.4440823101977
-111.84002886384,33.4005009744357,517,Circle K - OPEN 24 HOURS,801 S. Country Club Drive,Mesa,85210,,(480) 969-5459,1-Day,,1-Day,-111.84002886384,33.4005009744357
-112.119664547799,33.5094856494307,518,Circle K - OPEN 24 HOURS,2810 W. Camelback,Phoenix,85017,,(602) 249-0547,1-Day,,1-Day,-112.119664547799,33.5094856494307
-112.25446971264,33.5808173027215,519,Circle K - OPEN 24 HOURS,9049 W. Peoria,Peoria,85345,,(623) 979-3621,1-Day,,1-Day,-112.25446971264,33.5808173027215
-111.911662257779,33.3200660513178,520,Empire Petroleum,4020 W. Ray Rd.,Chandler,85226,"Please contact location to verify hours and supply available.
",(480) 839-0520,1-Day,,1-Day,-111.911662257779,33.3200660513178
-111.992078217577,33.3198966813569,521,Empire Petroleum,4305 E. Ray Rd.,Phoenix,85044,"Please contact location to verify hours and supply available.
",(480) 706-4071,1-Day,,1-Day,-111.992078217577,33.3198966813569
-111.926130401244,33.4799413400829,522,Corner Store - OPEN 24 HOURS,2865 N. Scottsdale Rd.,Scottsdale,85257,"Please contact location to verify hours and supply available.
",(480) 947-0374,1-Day,,1-Day,-111.926130401244,33.4799413400829
-112.099649479894,33.6547000454037,523,Empire Petroleum,2409 W. Union Hills,Phoenix,85023,"Please contact location to verify hours and supply available.
",(602) 548-0997,1-Day,,1-Day,-112.099649479894,33.6547000454037
-112.064641390233,33.6076017582077,524,Empire Petroleum,719 E. Thunderbird Rd.,Phoenix,85022,"Please contact location to verify hours and supply available.
",(602) 504-0230,1-Day,,1-Day,-112.064641390233,33.6076017582077
-112.030827739116,33.6696950696624,525,Empire Petroleum,20205 N. Cave Creek,Phoenix,85024,"Please contact location to verify hours and supply available.
",(602) 482-0304,1-Day,,1-Day,-112.030827739116,33.6696950696624
-112.202258769116,33.6250274577496,526,Corner Store - OPEN 24 HOURS,6691 W. Greenway Rd.,Glendale,85306,"Please contact location to verify hours and supply available.
",(623) 334-1510,1-Day,,1-Day,-112.202258769116,33.6250274577496
-111.636180220833,33.378826215792,527,Corner Store - OPEN 24 HOURS,2011 S. Ellsworth Rd.,Mesa,85209,"Please contact location to verify hours and supply available.
",(480) 986-4100,1-Day,,1-Day,-111.636180220833,33.378826215792
-111.755547674932,33.3075594139683,528,Empire Petroleum,2367 S. Val Vista ,Gilbert,85295,"Please contact location to verify hours and supply available.
",(480) 782-1465,1-Day,,1-Day,-111.755547674932,33.3075594139683
-112.168033231425,33.436750616685,529,Corner Store - OPEN 24 HOURS,5049 W. Buckeye Rd.,Phoenix,85043,"Please contact location to verify hours and supply available.
",(602) 278-5088,1-Day,,1-Day,-112.168033231425,33.436750616685
-111.995996687459,33.4657134471977,530,Corner Store - OPEN 24 HOURS,3980 E. McDowell Rd.,Phoenix,85008,"Please contact location to verify hours and supply available.
",(602) 231-0811,1-Day,,1-Day,-111.995996687459,33.4657134471977
-111.755785218265,33.364682320215,531,Corner Store - OPEN 24 HOURS,1611 E. Guadalupe,Gilbert,85234,"Please contact location to verify hours and supply available.
",(480) 507-5500,1-Day,,1-Day,-111.755785218265,33.364682320215
-112.184859851148,33.465998063768,532,Corner Store - OPEN 24 HOURS,5850 W. McDowell Rd.,Phoenix,85035,"Please contact location to verify hours and supply available.
",(602) 272-8184,1-Day,,1-Day,-112.184859851148,33.465998063768
-111.719925170382,33.4228118922482,533,Corner Store - OPEN 24 HOURS,5158 E. University,Mesa,85205,"Please contact location to verify hours and supply available.
",(480) 985-0775,1-Day,,1-Day,-111.719925170382,33.4228118922482
-112.185891043729,33.5963542291958,534,Empire Petroleum,5905 W. Cactus Ave.,Glendale,85304,"Please contact location to verify hours and supply available.
",(623) 412-9808,1-Day,,1-Day,-112.185891043729,33.5963542291958
-112.203049488543,33.5671362909864,535,Empire Petroleum,6701 W. Olive Ave.,Peoria,85345,"Please contact location to verify hours and supply available.
",(623) 435-6550,1-Day,,1-Day,-112.203049488543,33.5671362909864
-112.012645792047,33.4657088608349,536,Food City 148,3205 E. McDowell Rd.,Phoenix,85008,"Please contact location to verify hours and supply available.
",(602) 275-9303,"1-Day, 7-Day, 15-Day",,"1-Day, 7-Day, 15-Day, 31-Day",-112.012645792047,33.4657088608349
-112.117262182221,33.6659862049623,537,7-Eleven - OPEN 24 HOURS,19848 N. 27th Ave.,Phoenix,85027,"Please contact location to verify hours and supply available.

, Please contact location to verify hours and supply available.

",(623) 869-8704,1-Day,,1-Day,-112.117262182221,33.6659862049623
-111.755611411191,33.3357840408319,538,7-Eleven - OPEN 24 HOURS,785 S. Val Vista Dr.,Gilbert,85296,"Please contact location to verify hours and supply available.

, Please contact location to verify hours and supply available.

",(480) 503-3566,1-Day,,1-Day,-111.755611411191,33.3357840408319
-111.980198011816,33.3052511602441,539,7-Eleven - OPEN 24 HOURS,4803 E. Chandler Blvd.,Phoenix,85048,"Please contact location to verify hours and supply available.

, Please contact location to verify hours and supply available.

",(480) 783-9811,1-Day,,1-Day,-111.980198011816,33.3052511602441
-111.9454021068,33.3345737880297,540,7-Eleven - OPEN 24 HOURS,485 W. Warner Rd.,Tempe,85284,"Please contact location to verify hours and supply available.

, Please contact location to verify hours and supply available.

",(480) 785-1947,1-Day,,1-Day,-111.9454021068,33.3345737880297
-111.912902110034,33.4219684609934,541,7-Eleven - OPEN 24 HOURS,1795 E. University Dr.,Tempe,85281,"Please contact location to verify hours and supply available.

, Please contact location to verify hours and supply available.

",(480) 736-2940,1-Day,,1-Day,-111.912902110034,33.4219684609934
-112.273869306091,33.4938026561737,542,7-Eleven - OPEN 24 HOURS,9910 W. Indian School Rd.,Phoenix,85037,"Please contact location to verify hours and supply available.

, Please contact location to verify hours and supply available.

",(623) 877-8344,1-Day,,1-Day,-112.273869306091,33.4938026561737
-111.876540320649,33.3351122351333,543,7-Eleven - OPEN 24 HOURS,2025 W. Warner Rd.,Chandler,85224,"Please contact location to verify hours and supply available.

, Please contact location to verify hours and supply available.

",(480) 899-6611,1-Day,,1-Day,-111.876540320649,33.3351122351333
-112.203192280711,33.5084429166081,544,7-Eleven - OPEN 24 HOURS,4840 N. 67th Ave.,Phoenix,85033,"Please contact location to verify hours and supply available.

, Please contact location to verify hours and supply available.

",(623) 846-5777,1-Day,,1-Day,-112.203192280711,33.5084429166081
-111.979400872452,33.4511359428605,545,7-Eleven - OPEN 24 HOURS,4748 E. Van Buren,Phoenix,85008,"Please contact location to verify hours and supply available.

, Please contact location to verify hours and supply available.

",(602) 275-2326,1-Day,,1-Day,-111.979400872452,33.4511359428605
-111.789972951777,33.3709484150226,546,7-Eleven - OPEN 24 HOURS,1157 N. Gilbert Rd.,Gilbert,85234,,(480) 926-4068,1-Day,,1-Day,-111.789972951777,33.3709484150226
-111.874556598045,33.3984427526388,547,7-Eleven - OPEN 24 HOURS,815 S. Dobson Rd.,Mesa,85202,"Please contact location to verify hours and supply available.

, Please contact location to verify hours and supply available.

",(480) 898-1077,1-Day,,1-Day,-111.874556598045,33.3984427526388
-111.787937158134,33.4154142118561,548,7-Eleven - OPEN 24 HOURS,2010 E. Main St.,Mesa,85213,"Please contact location to verify hours and supply available.

, Please contact location to verify hours and supply available.

",(480) 844-2624,1-Day,,1-Day,-111.787937158134,33.4154142118561
-111.788269013898,33.4080215990441,549,7-Eleven - OPEN 24 HOURS,411 S. Gilbert Rd.,Mesa,85204,"OPEN 24 HOURS - Please contact location to verify supply available.

, OPEN 24 HOURS - Please contact location to verify supply available.

",(480) 964-6015,1-Day,,1-Day,-111.788269013898,33.4080215990441
-111.917438907471,33.40752915506,550,7-Eleven - OPEN 24 HOURS,1310 E. Broadway,Tempe,85282,"Please contact location to verify hours and supply available.

, Please contact location to verify hours and supply available.

",(480) 966-5510,1-Day,,1-Day,-111.917438907471,33.40752915506
-112.203051540135,33.5671903645204,551,7-Eleven - OPEN 24 HOURS,6720 W. Olive,Peoria,85345,"Please contact location to verify supply available., OPEN 24 HOURS",(623) 878-4515,1-Day,,1-Day,-112.203051540135,33.5671903645204
-111.978359344256,33.3940817662523,552,7-Eleven - OPEN 24 HOURS,7442 S. 48th St.,Phoenix,85040,"Please contact location to verify hours and supply available.

, Please contact location to verify hours and supply available.

",(602) 470-9760,1-Day,,1-Day,-111.978359344256,33.3940817662523
-112.185296071431,33.4805572088293,553,7-Eleven - OPEN 24 HOURS,5850 W. Thomas Rd.,Phoenix,85031,"Please contact location to verify hours and supply available.

, Please contact location to verify hours and supply available.

",(623) 245-0519,1-Day,,1-Day,-112.185296071431,33.4805572088293
-112.012992516213,33.5824409429779,554,7-Eleven - OPEN 24 HOURS,3201 E. Shea Blvd.,Phoenix,85028,"Please contact location to verify hours and supply available.

, Please contact location to verify hours and supply available.

",(602) 953-8003,1-Day,,1-Day,-112.012992516213,33.5824409429779
-112.098636205356,33.5386478564583,555,7-Eleven - OPEN 24 HOURS,1850 W. Glendale Ave.,Phoenix,85021,"Please contact location to verify hours and supply available.

, Please contact location to verify hours and supply available.

",(602) 995-3493,1-Day,,1-Day,-112.098636205356,33.5386478564583
-111.900371986161,33.4658658224232,556,7-Eleven - OPEN 24 HOURS,8402 E. McDowell Rd.,Scottsdale,85257,"Please contact location to verify hours and supply available.

, Please contact location to verify hours and supply available.

",(480) 949-9534,1-Day,,1-Day,-111.900371986161,33.4658658224232
-112.030121976153,33.46576585137,557,7-Eleven - OPEN 24 HOURS,2401 E. McDowell Rd.,Phoenix,85008,"Please contact location to verify hours and supply available.

, Please contact location to verify hours and supply available.

",(602) 275-6708,1-Day,,1-Day,-112.030121976153,33.46576585137
-112.062198314704,33.6403431190593,558,7-Eleven - OPEN 24 HOURS,850 E. Bell Rd.,Phoenix,85022,"Please contact location to verify hours and supply available.

, Please contact location to verify hours and supply available.

",(602) 867-3724,1-Day,,1-Day,-112.062198314704,33.6403431190593
-112.031775046004,33.3777889842636,559,Corner Store - OPEN 24 HOURS,2350 E. Baseline Rd.,Phoenix,85040,"Please contact location to verify hours and supply available.
",(602) 268-5008,1-Day,,1-Day,-112.031775046004,33.3777889842636
-112.151963504048,33.4659961388711,560,7-Eleven - OPEN 24 HOURS,4302 W. McDowell Rd.,Phoenix,85035,"Please contact location to verify hours and supply available.

, Please contact location to verify hours and supply available.

",(602) 233-9181,1-Day,,1-Day,-112.151963504048,33.4659961388711
-111.939349501038,33.3796244454816,561,7-Eleven - OPEN 24 HOURS,5125 S. Mill Ave.,Tempe,85282,"Please contact location to verify hours and supply available.

, Please contact location to verify hours and supply available.

",(480) 838-4527,1-Day,,1-Day,-111.939349501038,33.3796244454816
-112.047244472717,33.3927232379016,562,7-Eleven - OPEN 24 HOURS,1601 E. Southern Ave.,Phoenix,85040,"Please contact location to verify hours and supply available.

, Please contact location to verify hours and supply available.

",(602) 268-7631,1-Day,,1-Day,-112.047244472717,33.3927232379016
-111.997897678198,33.5098924232071,563,7-Eleven - OPEN 24 HOURS,3912 E. Camelback Rd.,Phoenix,85018,"Please contact location to verify hours and supply available.

, Please contact location to verify hours and supply available.

",(602) 955-3271,1-Day,,1-Day,-111.997897678198,33.5098924232071
-112.117019416076,33.4950345256211,564,7-Eleven - OPEN 24 HOURS,4101 N. 27th Ave.,Phoenix,85017,"Please contact location to verify hours and supply available.

, Please contact location to verify hours and supply available.

",(602) 279-4793,1-Day,,1-Day,-112.117019416076,33.4950345256211
-111.995620107819,33.48045874928,565,7-Eleven - OPEN 24 HOURS,3948 E. Thomas Rd.,Phoenix,85018,"Please contact location to verify hours and supply available.

, Please contact location to verify hours and supply available.

",(602) 952-9844,1-Day,,1-Day,-111.995620107819,33.48045874928
-111.859384023954,33.3642528206687,566,7-Eleven - OPEN 24 HOURS,1210 W. Guadalupe ,Mesa,85202,"Please contact location to verify hours and supply available.

, Please contact location to verify hours and supply available.

",(480) 839-9753,1-Day,,1-Day,-111.859384023954,33.3642528206687
-112.120068189172,33.5957726063296,567,7-Eleven - OPEN 24 HOURS,12033 N. 28th Dr.,Phoenix,85029,"Please contact location to verify hours and supply available.

, Please contact location to verify hours and supply available.

",(602) 993-1587,1-Day,,1-Day,-112.120068189172,33.5957726063296
-112.130201631194,33.6396871816983,568,7-Eleven - OPEN 24 HOURS,3306 W. Bell Rd.,Phoenix,85053,"Please contact location to verify hours and supply available.

, Please contact location to verify hours and supply available.

",(602) 993-9688,1-Day,,1-Day,-112.130201631194,33.6396871816983
-112.030166286718,33.4796289303596,569,7-Eleven - OPEN 24 HOURS,2843 N. 24th St.,Phoenix,85008,"Please contact location to verify hours and supply available.

, Please contact location to verify hours and supply available.

",(602) 957-2509,1-Day,,1-Day,-112.030166286718,33.4796289303596
-111.97936805229,33.4656872385286,570,7-Eleven - OPEN 24 HOURS,4748 E. McDowell Rd.,Phoenix,85008,"Please contact location to verify hours and supply available.

, Please contact location to verify hours and supply available.

",(602) 275-8452,1-Day,,1-Day,-111.97936805229,33.4656872385286
-112.082061405635,33.4948942188086,571,7-Eleven - OPEN 24 HOURS,646 W. Indian School Rd.,Phoenix,85013,"Please contact location to verify hours and supply available.

, Please contact location to verify hours and supply available.

",(602) 279-4998,1-Day,,1-Day,-112.082061405635,33.4948942188086
-112.186552349212,33.4659436901199,572,7-Eleven - OPEN 24 HOURS,5901 W. McDowell Rd.,Phoenix,85035,"Please contact location to verify hours and supply available.

, Please contact location to verify hours and supply available.

",(623) 247-7555,1-Day,,1-Day,-112.186552349212,33.4659436901199
-111.849556499881,33.37880509887,573,7-Eleven - OPEN 24 HOURS,810 W. Baseline Rd.,Mesa,85210,"Please contact location to verify hours and supply available.

, Please contact location to verify hours and supply available.

",(480) 839-2101,1-Day,,1-Day,-111.849556499881,33.37880509887
-112.039976441294,33.4947928985812,574,7-Eleven - OPEN 24 HOURS,1950 E. Indian School Rd.,Phoenix,85016,"Please contact location to verify hours and supply available.

, Please contact location to verify hours and supply available.

",(602) 274-1066,1-Day,,1-Day,-112.039976441294,33.4947928985812
-112.116462944912,33.5385351740991,575,7-Eleven - OPEN 24 HOURS,2651 W. Glendale,Phoenix,85051,"Please contact location to verify hours and supply available.

, Please contact location to verify hours and supply available.

",(602) 249-2234,1-Day,,1-Day,-112.116462944912,33.5385351740991
-112.220428119546,33.5082682760906,576,7-Eleven - OPEN 24 HOURS,4831 N. 75th Ave.,Phoenix,85033,"Please contact location to verify hours and supply available.

, Please contact location to verify hours and supply available.

",(623) 846-3898,1-Day,,1-Day,-112.220428119546,33.5082682760906
-112.189362124442,33.5674308135618,577,7-Eleven - OPEN 24 HOURS,5925 W. Olive,Glendale,85302,"Please contact location to verify hours and supply available.

, Please contact location to verify hours and supply available.

",(623) 931-0781,1-Day,,1-Day,-112.189362124442,33.5674308135618
-111.90912470728,33.418068743024,578,7-Eleven - OPEN 24 HOURS,1006 S. McClintock,Tempe,85281,"Please contact location to verify hours and supply available.

, Please contact location to verify hours and supply available.

",(480) 967-7312,1-Day,,1-Day,-111.90912470728,33.418068743024
-112.030203675187,33.5026524552588,579,7-Eleven - OPEN 24 HOURS,4511 N. 24th St.,Phoenix,85016,"Please contact location to verify hours and supply available.

, Please contact location to verify hours and supply available.

",(602) 954-8997,1-Day,,1-Day,-112.030203675187,33.5026524552588
-111.806564974737,33.3498361030942,580,7-Eleven - OPEN 24 HOURS,785 W. Elliot Rd.,Gilbert,85296,Please contact location to verify hours and supply available.,(480) 813-2514,1-Day,,1-Day,-111.806564974737,33.3498361030942
-112.771655520481,33.9621977160273,581,Safeway 1584,1999 W. Wickenburg Way ,Wickenburg,85390,Please contact store for hours of operation.,(928) 684-2999,"1-Day, 7-Day, 31-Day",,1-Day,-112.771655520481,33.9621977160273
-112.189456861434,33.5240601050509,582,7-Eleven - OPEN 24 HOURS,6010 W. Bethany Home Rd.,Glendale,85301,"Please contact location to verify hours and supply available.
",(623) 937-1901,1-Day,,1-Day,-112.189456861434,33.5240601050509
-112.151400924319,33.523942937586,583,PLS Check Cashers - OPEN 24 HOURS,4252 W. Bethany Home Rd.,Phoenix,85019,"Se Habla Espanol. Open 24 hours, 7 days a week, 365 days a year., Please contact location to verify supply available.
",602-589-5200,"1-Day, 7-Day, 31-Day",,"1-Day, 7-Day, 31-Day",-112.151400924319,33.523942937586
-112.121152390639,33.4512199989561,584,Arizona Check Cashiers,2846 W. Van Buren,Phoenix,85009,Mon-Thur 9:00am - 7:00pm,602-272-5995,"1-Day, 7-Day, 31-Day",,"1-Day, 7-Day, 31-Day",-112.121152390639,33.4512199989561
-112.109758703293,33.625336619973,585,7-Eleven - OPEN 24 HOURS,2424 W. Greenway,Phoenix,85023,"Please contact location to verify hours and supply available.
",(602) 993-1980,1-Day,,1-Day,-112.109758703293,33.625336619973
-112.073347249646,33.3936874065913,586,PLS Check Cashers - OPEN 24 HOURS,5808 S. Central Ave.,Phoenix,85040,"Se Habla Espanol. Open 24 hours, 7 days a week, 365 days a year., Please contact location to verify hours and supply available.
",602-243-5900,"1-Day, 7-Day, 31-Day",,"1-Day, 7-Day, 31-Day",-112.073347249646,33.3936874065913
-112.117090811054,33.5094886956294,587,PLS Check Cashers - OPEN 24 HOURS,2702 W. Camelback Rd.,Phoenix,85017,"Se Habla Espanol. Open 24 hours, 7 days a week, 365 days a year., Please contact location to verify hours and supply available.
",602-841-3600,"1-Day, 7-Day, 31-Day",,"1-Day, 7-Day, 31-Day",-112.117090811054,33.5094886956294
-111.864424922801,33.4077046722739,588,7-Eleven - OPEN 24 HOURS,815 S. Alma School Rd.,Mesa,85202,Please contact location to verify hours and supply available.,(480) 833-8626,1-Day,,1-Day,-111.864424922801,33.4077046722739
-112.20176114175,33.5093954269756,589,PLS Check Cashers - OPEN 24 HOURS,6630 W. Camelback Rd.,Glendale,85301,"Se Habla Espanol. Open 24 hours, 7 days a week, 365 days a year., Please contact location to verify hours and supply available.
",623-245-0900,"1-Day, 7-Day, 31-Day",,"1-Day, 7-Day, 31-Day",-112.20176114175,33.5093954269756
-111.999742221349,33.4804650123389,590,PLS Check Cashers - OPEN 24 HOURS,3800 E. Thomas Rd.,Phoenix,85018,"Se Habla Espanol. Open 24 hours, 7 days a week, 365 days a year., Please contact location to verify hours and supply available.
",602-954-1555,"1-Day, 7-Day, 31-Day",,"1-Day, 7-Day, 31-Day",-111.999742221349,33.4804650123389
-112.048847902358,33.4801935503724,591,PLS Check Cashers - OPEN 24 HOURS,1545 E. Thomas Rd.,Phoenix,85014,"Se Habla Espanol. Open 24 hours, 7 days a week, 365 days a year., Please contact location to verify hours and supply available.
",602-294-0252,"1-Day, 7-Day, 31-Day","1-Day, 31-Day","1-Day, 7-Day, 31-Day",-112.048847902358,33.4801935503724
-112.184846998549,33.4805588576005,592,PLS Check Cashers - OPEN 24 HOURS,5828 W. Thomas Rd.,Phoenix,85031,"Se Habla Espanol. Open 24 hours, 7 days a week, 365 days a year., Please contact location to verify hours and supply available.
",623-849-3505,"1-Day, 7-Day, 31-Day","1-Day, 31-Day","1-Day, 7-Day, 31-Day",-112.184846998549,33.4805588576005
-111.84158404508,33.3166428454941,593,7-Eleven - OPEN 24 HOURS,774 N. Arizona Ave.,Chandler,85224,Please contact location to verify hours and supply available.,(480) 963-6956,1-Day,,1-Day,-111.84158404508,33.3166428454941
-111.806359572701,33.4079325598383,594,PLS Check Cashers - OPEN 24 HOURS,1152 E. Broadway Rd.,Mesa,85204,"Se Habla Espanol. Open 24 hours, 7 days a week, 365 days a year., Please contact location to verify hours and supply available.
",480-610-0080,"1-Day, 7-Day, 31-Day","1-Day, 31-Day","1-Day, 7-Day, 31-Day",-111.806359572701,33.4079325598383
-112.219547312569,33.4802355922954,595,PLS Check Cashers - OPEN 24 HOURS,7450 W. Thomas Rd.,Phoenix,85033,"Se Habla Espanol. Open 24 hours, 7 days a week, 365 days a year., Please contact location to verify hours and supply available.
",623-846-2435,"1-Day, 7-Day, 31-Day","1-Day, 31-Day","1-Day, 7-Day, 31-Day",-112.219547312569,33.4802355922954
-111.684324174794,33.4267913957544,596,East Mesa Service Center,6935 E. Decatur St,Mesa,85207,"Closed Fridays and weekends, Mon - Thurs
7 a.m. - 6 p.m.",(480) 644-2221,"1-Day, 31-Day","1-Day, 31-Day","1-Day, 31-Day",-111.684324174794,33.4267913957544
-112.073579601829,33.4067405386559,597,City of Phoenix - Ed Pastor Transit Center,10 W. Broadway,Phoenix,85041," No personal checks accepted., Mon - Fri
8 a.m. - 4 p.m.
Closed 12 p.m. to 12:30 p.m. for lunch
Closed weekends and holidays.",(602) 534-5053 (8 a.m. - 5 p.m.),"1-Day, 7-Day, 15-Day, 31-Day","1-Day, 31-Day","1-Day, 7-Day, 15-Day, 31-Day",-112.073579601829,33.4067405386559
-111.941372662834,33.4255224931972,598,Tempe Transportation Center,200 E. Fifth St.,Tempe,85281,"No Checks Accepted. Photo site for Valley Metro Reduced-Fare Identification Cards., Monday through Friday, 8 a.m. - 5 p.m.
Closed weekends and holidays.",(480) 858-2350,"1-Day, 7-Day, 15-Day, 31-Day","1-Day, 31-Day","1-Day, 7-Day, 15-Day, 31-Day",-111.941372662834,33.4255224931972
-112.117342856525,33.4510501074346,599,PLS Check Cashers - OPEN 24 HOURS,2695 W. Van Buren St.,Phoenix,85009,"Se Habla Espanol. Open 24 hours, 7 days a week, 365 days a year., Please contact location to verify hours and supply available.
",602-288-1212,"1-Day, 7-Day, 31-Day","1-Day, 31-Day","1-Day, 7-Day, 31-Day",-112.117342856525,33.4510501074346
-112.149424867707,33.5963781952568,600,Fry's 127,4204 W. Cactus,Phoenix,85029,"Daily
8 a.m. - 8 p.m. ",(602) 439-9034,1-Day,,1-Day,-112.149424867707,33.5963781952568
-112.183817428117,33.6107292479597,601,Fry's 6,5771 W. Thunderbird,Glendale,85306,"Daily
8 a.m. - 8 p.m.",(602) 978-9488,1-Day,,1-Day,-112.183817428117,33.6107292479597
-111.840092713961,33.3930434631607,602,PLS Check Cashers - OPEN 24 HOURS,"1210 S. Country Club
",Mesa,85210,"Se Habla Espanol. Open 24 hours, 7 days a week, 365 days a year., Please contact location to verify hours and supply available.
",480-603-1550,"1-Day, 7-Day, 31-Day","1-Day, 31-Day","1-Day, 7-Day, 31-Day",-111.840092713961,33.3930434631607
-111.984676595634,33.4801911322155,603,Fry's 135,4505 E. Thomas Road,Phoenix,85018,"Daily
8 a.m. - 8 p.m.",(602) 952-1288,1-Day,,1-Day,-111.984676595634,33.4801911322155
-112.11716072491,33.6108182587516,604,Fry's 40,3421 W Thunderbird Rd,Phoenix,85023,"Daily 
8 a.m. - 8 p.m.",(602) 375-0186,1-Day,,1-Day,-112.11716072491,33.6108182587516
-111.916820546401,33.4949294917133,605,Fry's 25,7628 E. Indian School Rd,Scottsdale,85251,"Daily 
8 a.m. - 8 p.m.",(480) 994-0145,1-Day,,1-Day,-111.916820546401,33.4949294917133
-111.926281279979,33.3930477921234,606,Fry's 124,3255 S. Rural Rd,Tempe,85282,"Daily 
8 a.m. - 8 p.m.",(480) 829-7799,1-Day,,1-Day,-111.926281279979,33.3930477921234
-112.035888028367,33.4658089543534,607,Food City 12,2124 E. McDowell Rd.,Phoenix,85006,"Daily 
8 a.m. - 7 p.m.",(602) 267-7201,"1-Day, 7-Day, 15-Day, 31-Day",,"1-Day, 7-Day, 31-Day",-112.035888028367,33.4658089543534
-112.152206984278,33.6392822013605,608,Fry's 28,4315 W. Bell Road,Glendale,85308,"Daily 
8 a.m. - 8 p.m.",(602) 978-2590,1-Day,,1-Day,-112.152206984278,33.6392822013605
-111.702928073255,33.4518384431825,609,Fry's 23,5941 E. McKellips,Mesa,85215,"Daily 
8 a.m. - 8 p.m.",(480) 830-8949,1-Day,,1-Day,-111.702928073255,33.4518384431825
-112.013198696837,33.6263550789743,610,Food City 104,"3202 E. Greenway
",Phoenix,85032,"Daily 
9 a.m. - 8 p.m.",(602) 253-0087,"1-Day, 7-Day, 15-Day, 31-Day",,"1-Day, 7-Day, 15-Day, 31-Day",-112.013198696837,33.6263550789743
-111.859213393516,33.3496948235718,611,Fry's 37,981 W. Elliot Road,Chandler,85224,"Daily 
8 a.m. - 8 p.m.",(480) 821-2296,1-Day,,1-Day,-111.859213393516,33.3496948235718
-112.065865570266,33.3777716579867,612,Fry's 46,520 E. Baseline Rd,Phoenix,85042,"Daily
8 a.m. - 8 p.m.",(602) 243-3012,1-Day,,1-Day,-112.065865570266,33.3777716579867
-111.875027030252,33.320605943284,613,Fry's 51,1950 W. Ray Road,Chandler,85224,"Daily 
8 a.m. - 8 p.m. ",(480) 814-7732,1-Day,,1-Day,-111.875027030252,33.320605943284
-112.101027221501,33.495055201028,614,Food City 95,"1950 W. Indian School Rd
",Phoenix,85015,"Daily 
9 a.m. - 8 p.m.",(602) 222-2500,"1-Day, 7-Day, 15-Day, 31-Day",,"1-Day, 7-Day, 31-Day",-112.101027221501,33.495055201028
-112.115627589992,33.6398652191795,615,Fry's 617,2727 W. Bell Rd,Phoenix,85023,"Daily
8 a.m. - 8 p.m.",(602) 896-2500,1-Day,,1-Day,-112.115627589992,33.6398652191795
-111.687722920011,33.3809283471938,616,Fry's 55,1915 S. Power Rd,Mesa,85206,"Daily 
8 a.m. - 8 p.m.",(480) 924-5159,1-Day,,1-Day,-111.687722920011,33.3809283471938
-112.083372246232,33.5093961426359,617,Fry's 128,744 W Camelback Rd,Phoenix,85013,"Daily
8 a.m. - 8 p.m.",(602) 279-9001,1-Day,,1-Day,-112.083372246232,33.5093961426359
-112.201518673955,33.4948161046646,618,Fry's 126,6601 W. Indian School Rd,Phoenix,85033,"Daily 
8 a.m. - 8 p.m.",(623) 846-0622,"1-Day, 31-Day",,"1-Day, 31-Day",-112.201518673955,33.4948161046646
-112.253875924846,33.5662722515169,619,Fry's 56,9043 W. Olive,Peoria,85345,"Daily 
8 a.m. - 8 p.m.
",(623) 979-8880,1-Day,,1-Day,-112.253875924846,33.5662722515169
-112.038909681193,33.506108714772,620,Fry's 129,4724 N. 20th St,Phoenix,85016,"Daily 
8 a.m. - 8 p.m.",(602) 263-0766,1-Day,,1-Day,-112.038909681193,33.506108714772
-112.099769644269,33.6524434932597,621,Fry's 12,18420 N. 19th Ave,Phoenix,85023,"Daily
8 a.m. - 9 p.m.",(602) 993-5960,1-Day,,1-Day,-112.099769644269,33.6524434932597
-112.135066921911,33.5385536966108,622,Food City 105,"3514 W. Glendale Ave
",Phoenix,85051,"Mon. - Sat.
9 a.m. - 8 p.m.
Sun.
11 a.m. - 5 p.m.",(602) 420-9925,"1-Day, 7-Day, 15-Day, 31-Day",,"1-Day, 7-Day, 31-Day",-112.135066921911,33.5385536966108
-112.121117917486,33.4512190080275,623,Socorro Check Cashing,2844 W. Van Buren St,Phoenix,85009,"Mon - Fri 
10 a.m. - 7 p.m.
Closed Sun, Mon - Fri 
10 a.m. - 7 p.m.
Closed Sun",602-455-6599 ,"1-Day, 7-Day, 31-Day",,"1-Day, 7-Day, 31-Day",-112.121117917486,33.4512190080275
-111.831424879965,33.4162873017559,624,Mesa City Hall,55 N. Center,Mesa,85201,"Closed Fridays and weekends. Mon - Thurs 
730 a.m. - 6 p.m. 
",(480) 644-2221,"1-Day, 7-Day, 31-Day","1-Day, 31-Day","1-Day, 7-Day, 31-Day",-111.831424879965,33.4162873017559
-112.134462895066,33.5819281238702,625,Fry's 641,3511 W. Peoria,Phoenix,85029,"Daily 
8 a.m. - 8 p.m.",(602) 866-5420,1-Day,,1-Day,-112.134462895066,33.5819281238702
-112.169300461521,33.5675314276297,626,Fry's 26,5116 W. Olive St.,Glendale,85302,"Daily
8 a.m. - 8 p.m.",(623) 934-1862,1-Day,,1-Day,-112.169300461521,33.5675314276297
-112.238372597596,33.494264649171,627,Fry's 619,8325 W. Indian School,Phoenix,85037,"Daily 
8 a.m. - 8 p.m.",(623) 245-7320,1-Day,,1-Day,-112.238372597596,33.494264649171
-112.18676939183,33.6689925561062,628,Fry's 60,20220 N. 59th Ave,Glendale,85308,"Daily 
8 a.m. - 8 p.m.",(623) 825-3111,,,1-Day,-112.18676939183,33.6689925561062
-111.995299838491,33.611840408673,629,Fry's 121,4025 E. Thunderbird,Phoenix,85032,"Daily 
8 a.m. - 8 p.m.",(602) 953-1615,1-Day,,1-Day,-111.995299838491,33.611840408673
-112.083425037643,33.3921874177486,630,Food City 162,"845 W. Southern Ave 
",Phoenix,85041,"No Checks Accepted, Daily 
9 a.m. - 8 p.m. ",(602) 305-3660,"1-Day, 7-Day, 15-Day, 31-Day",,"1-Day, 7-Day, 15-Day, 31-Day",-112.083425037643,33.3921874177486
-111.912685329025,33.4658296396912,631,Fry's 5,7770 E. McDowell Rd,Scottsdale,85257,"Daily 
8 a.m. -  8 p.m.",(480) 941-4088,1-Day,,1-Day,-111.912685329025,33.4658296396912
-111.843311307863,33.3787971207843,632,Fry's 62,554 W. Baseline Rd,Mesa,85210,"Daily
8 a.m. - 8 p.m.",(480) 969-9299,1-Day,,1-Day,-111.843311307863,33.3787971207843
-111.909613764775,33.3637388169443,633,Fry's 22,1835 E Guadalupe Rd,Tempe,85283,"Daily
8 a.m. - 8 p.m.",(480) 838-7023,1-Day,,1-Day,-111.909613764775,33.3637388169443
-111.943799027932,33.6259225506777,634,Fry's 120,6321 E. Greenway Rd,Scottsdale,85254,"Daily
8 a.m. - 8 p.m.",(480) 368-8930,1-Day,,1-Day,-111.943799027932,33.6259225506777
-111.978037961942,33.3782098677119,635,Fry's 43,2700 W. Baseline,Tempe,85283,"Daily 
8 a.m.  - 8 p.m.",(480) 438-1756,1-Day,,1-Day,-111.978037961942,33.3782098677119
-112.153901765535,33.5530795099711,636,Fry's 136,4329 W. Northern,Glendale,85301,"Daily
8 a.m. - 8 p.m.",623-931-8445,1-Day,,1-Day,-112.153901765535,33.5530795099711
-112.15017207135,33.4659907778749,637,Fry's 610,4230 W. McDowell Rd.,Phoenix,85009,"Daily
8 a.m. - 8 p.m.",(602) 415-5700,1-Day,,1-Day,-112.15017207135,33.4659907778749
-112.01595996726,33.4804841994233,638,Fry's 2,3036 E. Thomas Rd,Phoenix,85016,"Daily 
8 a.m. - 8 p.m.",(602) 468-9155,1-Day,,1-Day,-112.01595996726,33.4804841994233
-111.924432289108,33.3199872622253,639,Fry's 24,4949 W. Ray Road,Chandler,85226,"Daily 
8 a.m. - 8 p.m.",(480) 940-7488,1-Day,,1-Day,-111.924432289108,33.3199872622253
-112.207182297443,33.5237830447979,640,Fry's 11,6710 W. Bethany Home Rd,Glendale,85303,"Daily
8 a.m. - 8 p.m.",(623) 934-0348,1-Day,,1-Day,-112.207182297443,33.5237830447979
-111.787267050183,33.3310937781519,641,Town of Gilbert Municipal Building II,90 E. Civic Center Drive,Gilbert,85296,"CLOSED FRIDAY<br>Fares are sold in the Utilities Department, Mon - Fri
8 a.m. - 5 p.m. ",(480) 503-6753 option 5 on phone menu ,"1-Day, 7-Day, 31-Day","1-Day, 31-Day","1-Day, 7-Day, 31-Day",-111.787267050183,33.3310937781519
-111.808643825898,33.3353254739939,642,Fry's 52,855 W. Warner Road,Gilbert,85233,"Daily 
8 a.m. - 8 p.m.",(480) 813-7388,1-Day,,1-Day,-111.808643825898,33.3353254739939
-112.155482680546,33.5239099372597,643,Fry's 10,4353 W. Bethany Home Rd,Glendale,85301,"Daily
8 a.m. - 8 p.m.",(623) 934-5324,1-Day,,1-Day,-112.155482680546,33.5239099372597
-112.069552821123,33.5676676104581,644,City of Phoenix - Sunnyslope Transit Center,8927 N. 3rd St. ,Phoenix,85020,"No personal checks accepted., Mon - Fri 
8 a.m. - 4 p.m. 
Closed 12 p.m. - 1230 p.m. Mon - Fri for lunch
Closed weekends and holidays.",(602) 534-5053 (8 a.m. - 5 p.m.),"1-Day, 7-Day, 15-Day, 31-Day","1-Day, 31-Day","1-Day, 7-Day, 15-Day, 31-Day",-112.069552821123,33.5676676104581
-112.258089310653,33.6525930649549,645,Fry's 114,9245 W. Union Hills,Peoria,85382,"Daily
8 a.m. - 8 p.m.",(623) 972-7902,1-Day,,1-Day,-112.258089310653,33.6525930649549
-112.124501028436,33.5736585958067,646,City of Phoenix - Metrocenter Transit Center,9451 N. Metro Parkway West,Phoenix,85051,"No personal checks accepted., Mon - Fri 
8 a.m. - 4 p.m.
Closed 12 p.m. - 12:30 p.m. Mon - Fri for lunch
Closed weekends and holidays.",(602) 534-5053 (8 a.m. - 5 p.m.),"1-Day, 7-Day, 15-Day, 31-Day","1-Day, 31-Day","1-Day, 7-Day, 15-Day, 31-Day",-112.124501028436,33.5736585958067
-112.218587112836,33.5958704382505,647,Fry's 45,7455 W. Cactus Rd,Peoria,85345,"Daily
8 a.m. - 8 p.m. ",(623) 486-0120,1-Day,,1-Day,-112.218587112836,33.5958704382505
-112.074441002599,33.4520546962217,648,City of Phoenix - Central Station,300 N. Central Ave  ,Phoenix,85004,"No personal checks accepted.<br /><br />, Mon - Fri
8 a.m. - 5 p.m.
Closed weekends and holidays.",(602) 534-5053 (8 a.m. - 5 p.m.),"1-Day, 7-Day, 15-Day, 31-Day","1-Day, 31-Day","1-Day, 7-Day, 15-Day, 31-Day",-112.074441002599,33.4520546962217
-111.668103200093,33.3939104956619,649,Empire Petroleum,7542 E Southern Ave,Mesa,85209,,(480) 832-1049,1-Day,,1-Day,-111.668103200093,33.3939104956619
-111.681450502772,33.379786315531,650,Empire Petroleum,7060 E. Baseline Rd,Mesa,85208,,(480) 641-3287,1-Day,,1-Day,-111.681450502772,33.379786315531
-111.571705702602,33.4081525003191,651,Circle K - OPEN 24 HOURS,2360 W Broadway Ave,Apache Junction,85120,,(480) 983-2813,1-Day,,1-Day,-111.571705702602,33.4081525003191
