Column1,X,Y,StopID,Location,Juris,Type_,Long,Lat,State,Zipcode,City,StreetAddress,AUTO_UNIQUE_ID_2020-07-28_czc5230_bus_4,UpdatedReverseGeocoding,TimeTaken,TransactionId,Source,ErrorMessage,Version,ComputedAPN,ComputedStreetAddress,ComputedCity,ComputedState,ComputedZip,ComputedZipPlus4
4500,-112.0994721,33.58265442,2033,19TH AVE & PEORIA AVE,Phoenix,,-112.0994721,33.58265442,AZ, , , ,1,1,265.6239,,AggieReverseGeocoder,,4.01,15913044A,1826 W PEORIA AVE,Glendale,AZ,85029,5038
4501,-112.0995322,33.63822299,2034,19TH AVE & PHELPS RD,Phoenix,,-112.0995322,33.63822299,AZ, , , ,2,1,578.1307,,AggieReverseGeocoder,,4.01,20813954,1825 W BELL RD,Phoenix,AZ,85023,3415
4502,-112.0997083,33.67699598,2035,19TH AVE & ROSE GARDEN LN,Phoenix,,-112.0997083,33.67699598,AZ, , , ,3,1,343.7516,,AggieReverseGeocoder,,4.01,20925001A,21111 N 19TH AVE,Cave Creek,AZ,85027,2708
4503,-112.099586,33.528004,2036,19TH AVE & ROSE LN,Phoenix,,-112.099586,33.528004,AZ, , , ,4,1,671.8829,,AggieReverseGeocoder,,4.01,15618342B,1825 W MARLETTE AVE,Paradise Valley,AZ,85015,2039
4504,-112.0994802,33.59335709,2037,19TH AVE & SUNNYSIDE DR,Phoenix,,-112.0994802,33.59335709,AZ, , , ,5,1,265.6271,,AggieReverseGeocoder,,4.01,15904003D,11801 N 19TH AVE,Glendale,AZ,85029,3541
4505,-112.0997827,33.48098953,2038,19TH AVE & THOMAS RD,Phoenix,,-112.0997827,33.48098953,AZ, , , ,6,1,281.2481,,AggieReverseGeocoder,,4.01,11033076,1840 W THOMAS RD,Paradise Valley,AZ,85015,6108
4506,-112.0995076,33.6117976,2039,19TH AVE & THUNDERBIRD RD,Phoenix,,-112.0995076,33.6117976,AZ, , , ,7,1,265.6257,,AggieReverseGeocoder,,4.01,20816001E,13801 N 19TH AVE,Phoenix,AZ,85023,6105
4507,-112.0995479,33.62978002,2040,19TH AVE & TIERRA BUENA LN,Phoenix,,-112.0995479,33.62978002,AZ, , , ,8,1,578.1301,,AggieReverseGeocoder,,4.01,20814814,15818 N 19TH AVE,Phoenix,AZ,85023,4308
4508,-112.0994769,33.53493997,2041,19TH AVE & TUCKEY LN,Phoenix,,-112.0994769,33.53493997,AZ, , , ,9,1,1625.0016,,AggieReverseGeocoder,,4.01,15645007,6619 N 19TH AVE,Paradise Valley,AZ,85015,1631
4509,-112.0995497,33.65515209,2042,19TH AVE & UNION HILLS DR,Phoenix,,-112.0995497,33.65515209,AZ, , , ,10,1,562.4994,,AggieReverseGeocoder,,4.01,20913003G,1850 W UNION HILLS DR,Cave Creek,AZ,85027,5343
4510,-112.0996547,33.66237325,2043,19TH AVE & UTOPIA RD,Phoenix,,-112.0996547,33.66237325,AZ, , , ,11,1,562.5052,,AggieReverseGeocoder,,4.01,20919202,1840 W UTOPIA RD,Cave Creek,AZ,85027,4523
4511,-112.100006,33.451697,2044,19TH AVE & VAN BUREN ST,Phoenix,,-112.100006,33.451697,AZ, , , ,12,1,859.3765,,AggieReverseGeocoder,,4.01,11124003,317 N 19TH AVE,Avondale,AZ,85009,3836
4512,-112.0994527,33.57548794,2045,19TH AVE & MOUNTAIN VIEW RD,Phoenix,,-112.0994527,33.57548794,AZ, , , ,13,1,875.0006,,AggieReverseGeocoder,,4.01,15838101D,9835 N 19TH AVE,Phoenix,AZ,85021,1905
4513,-112.0996445,33.65874074,2046,19TH AVE & WESCOTT DR,Phoenix,,-112.0996445,33.65874074,AZ, , , ,14,1,562.5014,,AggieReverseGeocoder,,4.01,20913599,1845 W TARO LN,Cave Creek,AZ,85027,5347
4514,-112.0995868,33.64410195,2047,19TH AVE -- BELL RD & VILLAGE DR,Phoenix,,-112.0995868,33.64410195,AZ, , , ,15,1,593.7824,,AggieReverseGeocoder,,4.01,20808004C,17425 N 19TH AVE,Phoenix,AZ,85023,2416
4515,-112.0995244,33.61536474,2048,19TH AVE -- THUNDERBIRD RD & EVANS DR,Phoenix,,-112.0995244,33.61536474,AZ, , , ,16,1,609.3779,,AggieReverseGeocoder,,4.01,20816598,14203 N 19TH AVE,Phoenix,AZ,85023,6785
4516,-112.099544,33.564296,2049,19TH AVE & ALICE AVE,Phoenix,,-112.099544,33.564296,AZ, , , ,17,1,937.5542,,AggieReverseGeocoder,,4.01,15837092,1831 W LAWRENCE LN,Phoenix,AZ,85021,4337
4517,-112.0994966,33.5696388,2052,19TH AVE & SUNNYSLOPE LN,Phoenix,,-112.0994966,33.5696388,AZ, , , ,18,1,953.105,,AggieReverseGeocoder,,4.01,15820085,1849 W SUNNYSLOPE LN,Phoenix,AZ,85021,2056
4518,-112.099805,33.454498,2055,19TH AVE & FILLMORE ST,Phoenix,,-112.099805,33.454498,AZ, , , ,19,1,296.8745,,AggieReverseGeocoder,,4.01,11124072,429 N 19TH AVE,Avondale,AZ,85009,3845
4519,-112.0994896,33.60407278,2056,19TH AVE & SWEETWATER AVE,Phoenix,,-112.0994896,33.60407278,AZ, , , ,20,1,906.2517,,AggieReverseGeocoder,,4.01,15903467,1839 W WOOD DR,Glendale,AZ,85029,1655
4520,-112.108507,33.669798,2062,23RD AVE & BEARDSLEY RD,Phoenix,,-112.108507,33.669798,AZ, , , ,21,1,296.8747,,AggieReverseGeocoder,,4.01,20918004A,2222 W BEARDSLEY RD,Cave Creek,AZ,85027,3458
4521,-112.108553,33.666703,2064,23RD AVE & MARCO POLO RD,Phoenix,,-112.108553,33.666703,AZ, , , ,22,1,281.2502,,AggieReverseGeocoder,,4.01,20917200,2242 W MARCO POLO RD,Cave Creek,AZ,85027,4150
4522,-112.0300958,33.45182906,2065,24TH ST & VAN BUREN ST,Phoenix,,-112.0300958,33.45182906,AZ, , , ,23,1,921.8761,,AggieReverseGeocoder,,4.01,12169003A,2500 E VAN BUREN ST,Tempe,AZ,85008,6037
4523,-112.030079,33.52021,2066,24TH ST & MONTEBELLO AVE,Phoenix,,-112.030079,33.52021,AZ, , , ,24,1,640.6281,,AggieReverseGeocoder,,4.01,16412721,2401 E MONTEBELLO AVE,Avondale,AZ,85016,2811
4524,-112.0300913,33.45427374,2067,24TH ST & TAYLOR ST,Phoenix,,-112.0300913,33.45427374,AZ, , , ,25,1,921.8758,,AggieReverseGeocoder,,4.01,12169003A,2500 E VAN BUREN ST,Tempe,AZ,85008,6037
4525,-112.030095,33.50984429,2069,24TH ST & CAMELBACK RD,Phoenix,,-112.030095,33.50984429,AZ, , , ,26,1,640.6264,,AggieReverseGeocoder,,4.01,16414001W,2502 E CAMELBACK RD,Avondale,AZ,85016,4254
4526,-112.0301181,33.502497,2070,24TH ST & CAMPBELL AVE,Phoenix,,-112.0301181,33.502497,AZ, , , ,27,1,671.8742,,AggieReverseGeocoder,,4.01,16316176,4501 N 24TH ST,Avondale,AZ,85016,5201
4527,-112.030007,33.485199,2071,24TH ST & CHEERY LYNN RD,Phoenix,,-112.030007,33.485199,AZ, , , ,28,1,281.249,,AggieReverseGeocoder,,4.01,11915100,3221 N 24TH ST,Avondale,AZ,85016,7358
4528,-112.030006,33.491498,2073,24TH ST & CLARENDON AVE,Phoenix,,-112.030006,33.491498,AZ, , , ,29,1,296.8782,,AggieReverseGeocoder,,4.01,11904098,3801 N 24TH ST,Avondale,AZ,85016,6512
4529,-112.0301082,33.498699,2075,24TH ST & GLENROSA AVE,Phoenix,,-112.0301082,33.498699,AZ, , , ,30,1,687.4996,,AggieReverseGeocoder,,4.01,16307074,4311 N 24TH ST,Avondale,AZ,85016,6225
4530,-112.0301022,33.505998,2076,24TH ST & HIGHLAND AVE,Phoenix,,-112.0301022,33.505998,AZ, , , ,31,1,671.8754,,AggieReverseGeocoder,,4.01,16317085A,4701 N 24TH ST,Avondale,AZ,85016,4851
4531,-112.0300366,33.49516628,2077,24TH ST & INDIAN SCHOOL RD,Phoenix,,-112.0300366,33.49516628,AZ, , , ,32,1,640.6258,,AggieReverseGeocoder,,4.01,16306100,4111 N 24TH ST,Avondale,AZ,85016,6222
4532,-112.0300696,33.46616345,2078,24TH ST & MCDOWELL RD,Phoenix,,-112.0300696,33.46616345,AZ, , , ,33,1,906.2503,,AggieReverseGeocoder,,4.01,12039042F,2400 E MCDOWELL RD,Tempe,AZ,85008,3529
4533,-112.0300815,33.51698247,2079,24TH ST & MISSOURI AVE,Phoenix,,-112.0300815,33.51698247,AZ, , , ,34,1,656.2524,,AggieReverseGeocoder,,4.01,16412165,2401 E MARSHALL AVE,Avondale,AZ,85016,2809
4534,-112.030005,33.473499,2081,24TH ST & OAK ST,Phoenix,,-112.030005,33.473499,AZ, , , ,35,1,281.2488,,AggieReverseGeocoder,,4.01,12036072,2313 N 24TH ST,Tempe,AZ,85008,1801
4535,-112.030004,33.487999,2082,24TH ST & OSBORN RD,Phoenix,,-112.030004,33.487999,AZ, , , ,36,1,265.6248,,AggieReverseGeocoder,,4.01,11905025A,3413 N 24TH ST,Avondale,AZ,85016,6605
4536,-112.0300766,33.45696651,2083,24TH ST & PIERCE ST,Phoenix,,-112.0300766,33.45696651,AZ, , , ,37,1,906.2505,,AggieReverseGeocoder,,4.01,12169002D,2601 E ROOSEVELT ST,Tempe,AZ,85008,4973
4537,-112.030004,33.482799,2084,24TH ST & PINCHOT AVE,Phoenix,,-112.030004,33.482799,AZ, , , ,38,1,281.2516,,AggieReverseGeocoder,,4.01,11916048,3001 N 24TH ST,Avondale,AZ,85016,7815
4538,-112.0300837,33.45889206,2085,24TH ST & ROOSEVELT ST,Phoenix,,-112.0300837,33.45889206,AZ, , , ,39,1,906.2563,,AggieReverseGeocoder,,4.01,12179123,1005 N 24TH ST,Tempe,AZ,85008,4905
4539,-112.030005,33.475997,2088,24TH ST & YALE ST,Phoenix,,-112.030005,33.475997,AZ, , , ,40,1,296.8718,,AggieReverseGeocoder,,4.01,12036093,2402 E YALE ST,Tempe,AZ,85008,1823
4540,-112.0282179,33.5293813,2089,24TH ST -- ARIZONA BILTMORE CIR & LINCOLN DR,Phoenix,,-112.0282179,33.5293813,AZ, , , ,41,1,625.0021,,AggieReverseGeocoder,,4.01,16410002H,2423 E LINCOLN DR,Avondale,AZ,85016,1215
4541,-112.030077,33.51341,2090,24TH ST & COLTER ST,Phoenix,,-112.030077,33.51341,AZ, , , ,42,1,656.2753,,AggieReverseGeocoder,,4.01,16412302A,5235 N 25TH ST,Avondale,AZ,85016,3661
4542,-112.0298299,33.52521288,2091,24TH ST & ARIZONA BILTMORE CIR,Phoenix,,-112.0298299,33.52521288,AZ, , , ,43,1,656.2028,,AggieReverseGeocoder,,4.01,16412782A,6001 N 24TH ST,Avondale,AZ,85016,2040
4543,-112.0301164,33.46325361,2092,24TH ST & WILLETTA ST,Phoenix,,-112.0301164,33.46325361,AZ, , , ,44,1,937.5017,,AggieReverseGeocoder,,4.01,12178155,1333 N 24TH ST,Tempe,AZ,85008,4665
4544,-112.030155,33.470036,2093,24TH ST & HUBBELL ST,Phoenix,,-112.030155,33.470036,AZ, , , ,45,1,953.1263,,AggieReverseGeocoder,,4.01,12037127,2021 N 24TH ST,Tempe,AZ,85008,2711
4545,-112.116804,33.490998,2099,27TH AVE & WELDON AVE,Phoenix,,-112.116804,33.490998,AZ, , , ,46,1,828.1257,,AggieReverseGeocoder,,4.01,11001002,3811 N 27TH AVE,Phoenix,AZ,85017,4705
4546,-112.1167947,33.52457047,2100,27TH AVE & BETHANY HOME RD,Phoenix,,-112.1167947,33.52457047,AZ, , , ,47,1,875.0005,,AggieReverseGeocoder,,4.01,15604007D,6011 N 27TH AVE,Phoenix,AZ,85017,1710
4547,-112.1168397,33.50976488,2101,27TH AVE & CAMELBACK RD,Phoenix,,-112.1168397,33.50976488,AZ, , , ,48,1,296.8766,,AggieReverseGeocoder,,4.01,15327001,2646 W CAMELBACK RD,Phoenix,AZ,85017,3210
4548,-112.1169342,33.50256428,2102,27TH AVE & CAMPBELL AVE,Phoenix,,-112.1169342,33.50256428,AZ, , , ,49,1,859.377,,AggieReverseGeocoder,,4.01,15412005B,4501 N 27TH AVE,Phoenix,AZ,85017,3702
4549,-112.116705,33.528997,2103,27TH AVE & CLAREMONT ST,Phoenix,,-112.116705,33.528997,AZ, , , ,50,1,281.2488,,AggieReverseGeocoder,,4.01,15603005H,6241 N 27TH AVE,Phoenix,AZ,85017,1813
4550,-112.116807,33.513499,2104,27TH AVE & COLTER ST,Phoenix,,-112.116807,33.513499,AZ, , , ,51,1,296.8764,,AggieReverseGeocoder,,4.01,15320025A,5201 N 27TH AVE,Phoenix,AZ,85017,2934
4551,-112.1169351,33.48423772,2105,27TH AVE & EARLL DR,Phoenix,,-112.1169351,33.48423772,AZ, , , ,52,1,796.8742,,AggieReverseGeocoder,,4.01,11038032,3108 N 26TH DR,Phoenix,AZ,85017,5122
4552,-112.1169483,33.47381308,2106,27TH AVE & ENCANTO BLVD,Phoenix,,-112.1169483,33.47381308,AZ, , , ,53,1,781.2518,,AggieReverseGeocoder,,4.01,11048022,2301 N 27TH AVE,Avondale,AZ,85009,1712
4553,-112.1167389,33.53898794,2107,27TH AVE & GLENDALE AVE,Phoenix,,-112.1167389,33.53898794,AZ, , , ,54,1,1000.0016,,AggieReverseGeocoder,,4.01,15732070E,7015 N 27TH AVE,Glendale,AZ,85051,8401
4554,-112.1168475,33.49894332,2108,27TH AVE & GLENROSA AVE,Phoenix,,-112.1168475,33.49894332,AZ, , , ,55,1,312.5019,,AggieReverseGeocoder,,4.01,15418026B,2650 W GLENROSA AVE,Phoenix,AZ,85017,4387
4555,-112.116806,33.506199,2109,27TH AVE & HIGHLAND AVE,Phoenix,,-112.116806,33.506199,AZ, , , ,56,1,296.8725,,AggieReverseGeocoder,,4.01,15404129,2646 W HIGHLAND AVE,Phoenix,AZ,85017,3665
4556,-112.1168862,33.49540354,2110,27TH AVE & INDIAN SCHOOL RD,Phoenix,,-112.1168862,33.49540354,AZ, , , ,57,1,859.3745,,AggieReverseGeocoder,,4.01,15427002D,4101 N 27TH AVE,Phoenix,AZ,85017,4306
4557,-112.116806,33.531797,2111,27TH AVE & MARYLAND AVE,Phoenix,,-112.116806,33.531797,AZ, , , ,58,1,1187.5025,,AggieReverseGeocoder,,4.01,15602015E,6511 N 27TH AVE,Phoenix,AZ,85017,1243
4558,-112.1169877,33.46634573,2112,27TH AVE & MCDOWELL RD,Phoenix,,-112.1169877,33.46634573,AZ, , , ,59,1,796.8733,,AggieReverseGeocoder,,4.01,11059015F,1601 N 27TH AVE,Avondale,AZ,85009,2615
4559,-112.116805,33.517198,2113,27TH AVE & MISSOURI AVE,Phoenix,,-112.116805,33.517198,AZ, , , ,60,1,281.2556,,AggieReverseGeocoder,,4.01,15312001,2646 W MISSOURI AVE,Phoenix,AZ,85017,2705
4560,-112.116807,33.520699,2114,27TH AVE & MONTEBELLO AVE,Phoenix,,-112.116807,33.520699,AZ, , , ,61,1,859.3762,,AggieReverseGeocoder,,4.01,15305069,5725 N 27TH AVE,Phoenix,AZ,85017,2657
4561,-112.1168189,33.54244347,2115,27TH AVE & MYRTLE AVE,Phoenix,,-112.1168189,33.54244347,AZ, , , ,62,1,1062.4995,,AggieReverseGeocoder,,4.01,15731001,7204 N 26TH LN,Glendale,AZ,85051,6711
4562,-112.116807,33.553498,2116,27TH AVE & NORTHERN AVE,Phoenix,,-112.116807,33.553498,AZ, , , ,63,1,296.874,,AggieReverseGeocoder,,4.01,15804010A,2626 W NORTHERN AVE,Glendale,AZ,85051,
4563,-112.116807,33.546198,2117,27TH AVE & ORANGEWOOD AVE,Phoenix,,-112.116807,33.546198,AZ, , , ,64,1,312.4991,,AggieReverseGeocoder,,4.01,15730082,7509 N 27TH AVE,Glendale,AZ,85051,7506
4564,-112.1169437,33.48822027,2118,27TH AVE & OSBORN RD,Phoenix,,-112.1169437,33.48822027,AZ, , , ,65,1,828.1224,,AggieReverseGeocoder,,4.01,11020003A,2602 W OSBORN RD,Phoenix,AZ,85017,5114
4565,-112.117005,33.469997,2119,27TH AVE & PALM LN,Phoenix,,-112.117005,33.469997,AZ, , , ,66,1,812.5023,,AggieReverseGeocoder,,4.01,10815012C,2706 W PALM LN,Avondale,AZ,85009,2603
4566,-112.116804,33.480999,2120,27TH AVE & THOMAS RD,Phoenix,,-112.116804,33.480999,AZ, , , ,67,1,828.127,,AggieReverseGeocoder,,4.01,11039029,2934 N 26TH DR,Phoenix,AZ,85017,5120
4567,-112.117307,33.451497,2121,27TH AVE & VAN BUREN ST,Phoenix,,-112.117307,33.451497,AZ, , , ,68,1,234.3742,,AggieReverseGeocoder,,4.01,10928011,2640 W VAN BUREN ST,Avondale,AZ,85009,4406
4568,-112.1170126,33.47735928,2122,27TH AVE & VIRGINIA AVE,Phoenix,,-112.1170126,33.47735928,AZ, , , ,69,1,828.1294,,AggieReverseGeocoder,,4.01,11048023,2525 N 27TH AVE,Avondale,AZ,85009,1710
4569,-112.1170972,33.46276295,2123,27TH AVE & I-10 FWY,Phoenix,,-112.1170972,33.46276295,AZ, , , ,70,1,828.1224,,AggieReverseGeocoder,,4.01,10905012C,1305 N 27TH AVE,Avondale,AZ,85009,3604
4570,-112.117306,33.449697,2124,27TH AVE & ADAMS ST,Phoenix,,-112.117306,33.449697,AZ, , , ,71,1,234.3751,,AggieReverseGeocoder,,4.01,10934036B,147 N 27TH AVE,Avondale,AZ,85009,5000
4571,-112.116805,33.549697,2125,27TH AVE & BELMONT AVE,Phoenix,,-112.116805,33.549697,AZ, , , ,72,1,312.5012,,AggieReverseGeocoder,,4.01,15729158,7707 N 27TH AVE,Glendale,AZ,85051,6603
4572,-112.117207,33.455197,2126,27TH AVE & FILLMORE ST,Phoenix,,-112.117207,33.455197,AZ, , , ,73,1,812.5014,,AggieReverseGeocoder,,4.01,10920080A,610 N 27TH AVE,Avondale,AZ,85009,4449
4573,-112.116806,33.557197,2127,27TH AVE & GRISWOLD RD,Phoenix,,-112.116806,33.557197,AZ, , , ,74,1,312.5,,AggieReverseGeocoder,,4.01,15804005A,8245 N 27TH AVE,Glendale,AZ,85051,6360
4574,-112.117207,33.459297,2128,27TH AVE & ROOSEVELT ST,Phoenix,,-112.117207,33.459297,AZ, , , ,75,1,828.1291,,AggieReverseGeocoder,,4.01,10906069B,1330 N 27TH AVE,Avondale,AZ,85009,3623
4575,-112.116806,33.5346157,2129,27TH AVE & OCOTILLO RD,Phoenix,,-112.116806,33.5346157,AZ, , , ,76,1,1625.0023,,AggieReverseGeocoder,,4.01,15602060,6643 N 27TH AVE,Phoenix,AZ,85017,1222
4576,-112.117957,33.630378,2130,28TH AVE & KATHLEEN RD,Phoenix,,-112.117957,33.630378,AZ, , , ,77,1,1000.0026,,AggieReverseGeocoder,,4.01,20742256,16001 N 28TH AVE,Phoenix,AZ,85053,4050
4577,-112.1181542,33.62756521,2131,28TH AVE & 29TH AVE,Phoenix,,-112.1181542,33.62756521,AZ, , , ,78,1,1015.6564,,AggieReverseGeocoder,,4.01,20742257,15601 N 28TH AVE,Phoenix,AZ,85053,4061
4578,-112.118636,33.6355,2132,28TH AVE & KELTON LN,Phoenix,,-112.118636,33.6355,AZ, , , ,79,1,999.979,,AggieReverseGeocoder,,4.01,20742262,16404 N BLACK CANYON HWY,Phoenix,AZ,85053,4058
4579,-112.120007,33.596798,2133,28TH DR & CACTUS RD,Phoenix,,-112.120007,33.596798,AZ, , , ,80,1,703.1297,,AggieReverseGeocoder,,4.01,14921001Q,12201 N 28TH DR,Glendale,AZ,85029,2430
4580,-112.119506,33.600298,2134,28TH DR & LARKSPUR DR,Phoenix,,-112.119506,33.600298,AZ, , , ,81,1,750.0017,,AggieReverseGeocoder,,4.01,14921013B,12602 N 28TH DR,Glendale,AZ,85029,1337
4581,-112.119949,33.594308,2135,28TH DR & LAUREL LN,Phoenix,,-112.119949,33.594308,AZ, , , ,82,1,687.502,,AggieReverseGeocoder,,4.01,14917141A,11839 N 28TH DR,Glendale,AZ,85029,3313
4582,-112.122006,33.582298,2136,28TH DR & PEORIA AVE,Phoenix,,-112.122006,33.582298,AZ, , , ,83,1,671.8747,,AggieReverseGeocoder,,4.01,14917153B,2860 W PEORIA AVE,Glendale,AZ,85029,5218
4583,-112.1190677,33.59088525,2137,28TH DR & 11439 N,Phoenix,,-112.1190677,33.59088525,AZ, , , ,84,1,296.8745,,AggieReverseGeocoder,,4.01,14963288A,11459 N 28TH DR,Glendale,AZ,85029,4350
4584,-112.119656,33.602304,2138,28TH DR & WINDROSE DR,Phoenix,,-112.119656,33.602304,AZ, , , ,85,1,656.276,,AggieReverseGeocoder,,4.01,14921014J,12815 N 28TH DR,Glendale,AZ,85029,1318
4585,-112.12199,33.585291,2139,NBD 28TH DR FS MERCER LN,Phoenix,,-112.12199,33.585291,AZ, , , ,86,1,687.4767,,AggieReverseGeocoder,,4.01,14917613,11006 N 28TH AVE,Glendale,AZ,85029,4419
4586,-112.121006,33.637499,2151,29TH AVE & PHELPS RD,Phoenix,,-112.121006,33.637499,AZ, , , ,87,1,921.8775,,AggieReverseGeocoder,,4.01,20739989,2834 W KELTON LN,Phoenix,AZ,85053,3028
4587,-112.120205,33.620997,2152,29TH AVE & BANFF LN,Phoenix,,-112.120205,33.620997,AZ, , , ,88,1,312.4993,,AggieReverseGeocoder,,4.01,20736069,14827 N 29TH AVE,Phoenix,AZ,85053,4920
4588,-112.120652,33.619501,2153,29TH AVE & COUNTRY GABLES DR,Phoenix,,-112.120652,33.619501,AZ, , , ,89,1,937.5034,,AggieReverseGeocoder,,4.01,20736034E,2828 W COUNTRY GABLES DR,Phoenix,AZ,85053,4904
4589,-112.120798,33.568789,2154,29TH AVE & DUNLAP AVE,Phoenix,,-112.120798,33.568789,AZ, , , ,90,1,671.8754,,AggieReverseGeocoder,,4.01,14913005Y,2820 W DUNLAP AVE,Glendale,AZ,85051,3426
4590,-112.1202273,33.6256381,2157,29TH AVE & GREENWAY RD,Phoenix,,-112.1202273,33.6256381,AZ, , , ,91,1,953.126,,AggieReverseGeocoder,,4.01,20742205B,15401 N 29TH AVE,Phoenix,AZ,85053,4001
4591,-112.1250054,33.60710989,2160,31ST AVE & WILLOW AVE,Phoenix,,-112.1250054,33.60710989,AZ, , , ,92,1,296.8589,,AggieReverseGeocoder,,4.01,14923020,3045 W THUNDERBIRD RD,Phoenix,AZ,85053,5821
4592,-112.125007,33.617798,2161,31ST AVE & ACOMA DR,Phoenix,,-112.125007,33.617798,AZ, , , ,93,1,312.4989,,AggieReverseGeocoder,,4.01,20707155,3054 W ACOMA DR,Phoenix,AZ,85053,5706
4593,-112.125006,33.614797,2166,31ST AVE & HEARN RD,Phoenix,,-112.125006,33.614797,AZ, , , ,94,1,328.1284,,AggieReverseGeocoder,,4.01,20707031,3054 W HEARN RD,Phoenix,AZ,85053,5724
4594,-112.125207,33.603998,2169,31ST AVE & SWEETWATER AVE,Phoenix,,-112.125207,33.603998,AZ, , , ,95,1,718.7471,,AggieReverseGeocoder,,4.01,14923010,2902 W SWEETWATER AVE,Glendale,AZ,85029,1398
4595,-112.125005,33.611697,2171,31ST AVE & CALAVAR RD,Phoenix,,-112.125005,33.611697,AZ, , , ,96,1,312.4999,,AggieReverseGeocoder,,4.01,20707009,13817 N 31ST AVE,Phoenix,AZ,85053,5747
4596,-112.012809,33.46296524,2173,32ND ST & BELLEVIEW ST,Phoenix,,-112.012809,33.46296524,AZ, , , ,97,1,671.8734,,AggieReverseGeocoder,,4.01,12173036,1326 N 32ND ST,Tempe,AZ,85008,4803
4597,-112.012964,33.579204,2174,32ND ST & CHERYL DR,Phoenix,,-112.012964,33.579204,AZ, , , ,98,1,656.251,,AggieReverseGeocoder,,4.01,16502006K,10211 N 32ND ST,New River,AZ,85028,3828
4598,-112.0127848,33.45471814,2175,NB N 32ND ST NS E FILLMORE ST,Phoenix,,-112.0127848,33.45471814,AZ, , , ,99,1,625.003,,AggieReverseGeocoder,,4.01,12117029A,519 N 32ND PL,Tempe,AZ,85008,6212
4599,-112.013206,33.619197,2176,32ND ST & ACOMA DR,Phoenix,,-112.013206,33.619197,AZ, , , ,100,1,671.8755,,AggieReverseGeocoder,,4.01,21469143A,14604 N 32ND PL,Phoenix,AZ,85032,5101
4600,-112.013436,33.63750343,2177,32ND ST & AIRE LIBRE AVE,Phoenix,,-112.013436,33.63750343,AZ, , , ,101,1,906.2499,,AggieReverseGeocoder,,4.01,21432010C,16402 N 32ND PL,Phoenix,AZ,85032,3105
4601,-112.0132855,33.64100816,2178,32ND ST & BELL RD,Phoenix,,-112.0132855,33.64100816,AZ, , , ,102,1,906.2496,,AggieReverseGeocoder,,4.01,21401237E,3202 E BELL RD,Phoenix,AZ,85032,2727
4602,-112.0129748,33.59741371,2179,32ND ST & CACTUS RD,Phoenix,,-112.0129748,33.59741371,AZ, , , ,103,1,687.5005,,AggieReverseGeocoder,,4.01,16601019,3202 E CACTUS RD,Phoenix,AZ,85032,7233
4603,-112.013454,33.644498,2180,32ND ST & CAMPO BELLO DR,Phoenix,,-112.013454,33.644498,AZ, , , ,104,1,906.2501,,AggieReverseGeocoder,,4.01,21401523,3202 E CAMPO BELLO DR,Phoenix,AZ,85032,2062
4604,-112.013026,33.590205,2181,32ND ST & CHOLLA ST,Phoenix,,-112.013026,33.590205,AZ, , , ,105,1,656.2513,,AggieReverseGeocoder,,4.01,16633549,11624 N 32ND PL,New River,AZ,85028,2001
4605,-112.012805,33.491999,2182,32ND ST & CLARENDON AVE,Phoenix,,-112.012805,33.491999,AZ, , , ,106,1,843.7509,,AggieReverseGeocoder,,4.01,12734131,3202 E CLARENDON AVE,Maricopa,AZ,85018,5708
4606,-112.012807,33.48458263,2183,32ND ST & EARLL DR,Phoenix,,-112.012807,33.48458263,AZ, , , ,107,1,671.8757,,AggieReverseGeocoder,,4.01,12732043,3101 N 32ND ST,Maricopa,AZ,85018,6201
4607,-112.013177,33.608201,2184,32ND ST & EMILE ZOLA AVE,Phoenix,,-112.013177,33.608201,AZ, , , ,108,1,687.501,,AggieReverseGeocoder,,4.01,16651001,3202 E EMILE ZOLA AVE,Phoenix,AZ,85032,6119
4608,-112.012806,33.499197,2185,32ND ST & GLENROSA AVE,Phoenix,,-112.012806,33.499197,AZ, , , ,109,1,296.8729,,AggieReverseGeocoder,,4.01,17028147,3200 E GLENROSA AVE,Maricopa,AZ,85018,3911
4609,-112.0131533,33.62691787,2186,32ND ST & GREENWAY RD,Phoenix,,-112.0131533,33.62691787,AZ, , , ,110,1,671.8758,,AggieReverseGeocoder,,4.01,21435227,3212 E GREENWAY RD,Phoenix,AZ,85032,4543
4610,-112.013498,33.648794,2187,32ND ST & GROVERS AVE,Phoenix,,-112.013498,33.648794,AZ, , , ,111,1,906.2521,,AggieReverseGeocoder,,4.01,21401881C,17811 N 32ND ST,Phoenix,AZ,85032,1201
4611,-112.0131849,33.61581174,2188,32ND ST & HEARN RD,Phoenix,,-112.0131849,33.61581174,AZ, , , ,112,1,671.8776,,AggieReverseGeocoder,,4.01,21461001,14201 N 32ND ST,Phoenix,AZ,85032,5024
4612,-112.012871,33.495503,2189,32ND ST & INDIAN SCHOOL RD,Phoenix,,-112.012871,33.495503,AZ, , , ,113,1,843.7754,,AggieReverseGeocoder,,4.01,17029082A,3208 E INDIAN SCHOOL RD,Maricopa,AZ,85018,5012
4613,-112.0128027,33.46617292,2190,32ND ST & MCDOWELL RD,Phoenix,,-112.0128027,33.46617292,AZ, , , ,114,1,656.2319,,AggieReverseGeocoder,,4.01,12019131N,3202 E MCDOWELL RD,Tempe,AZ,85008,3842
4614,-112.013266,33.623004,2192,32ND ST & NISBET RD,Phoenix,,-112.013266,33.623004,AZ, , , ,115,1,687.4996,,AggieReverseGeocoder,,4.01,21463264,3210 E NISBET RD,Phoenix,AZ,85032,4504
4615,-112.012706,33.473697,2193,32ND ST & OAK ST,Phoenix,,-112.012706,33.473697,AZ, , , ,116,1,281.2507,,AggieReverseGeocoder,,4.01,12005109D,2315 N 32ND ST,Tempe,AZ,85008,2101
4616,-112.012804,33.48818063,2194,32ND ST & OSBORN RD,Phoenix,,-112.012804,33.48818063,AZ, , , ,117,1,281.2512,,AggieReverseGeocoder,,4.01,12733072,3401 N 32ND ST,Maricopa,AZ,85018,5606
4617,-112.012816,33.469564,2195,32ND ST & PALM LN,Phoenix,,-112.012816,33.469564,AZ, , , ,118,1,656.2498,,AggieReverseGeocoder,,4.01,12016178A,3202 E PALM LN,Tempe,AZ,85008,2940
4618,-112.013396,33.634,2196,32ND ST & PARADISE LN,Phoenix,,-112.013396,33.634,AZ, , , ,119,1,687.5005,,AggieReverseGeocoder,,4.01,21432399,16415 N 33RD WAY,Phoenix,AZ,85032,3114
4619,-112.01285,33.458812,2197,32ND ST & ROOSEVELT ST,Phoenix,,-112.01285,33.458812,AZ, , , ,120,1,640.6272,,AggieReverseGeocoder,,4.01,12108010N,1003 N 32ND ST,Tempe,AZ,85008,5105
4620,-112.013147,33.6047,2199,32ND ST & SWEETWATER AVE,Phoenix,,-112.013147,33.6047,AZ, , , ,121,1,671.8753,,AggieReverseGeocoder,,4.01,16648152,3201 E CAPTAIN DREYFUS AVE,Phoenix,AZ,85032,6145
4621,-112.0127573,33.48092385,2200,32ND ST & THOMAS RD,Phoenix,,-112.0127573,33.48092385,AZ, , , ,122,1,656.253,,AggieReverseGeocoder,,4.01,12731184,3210 E THOMAS RD,Maricopa,AZ,85018,7301
4622,-112.013175,33.611997,2201,32ND ST & THUNDERBIRD RD,Phoenix,,-112.013175,33.611997,AZ, , , ,123,1,671.878,,AggieReverseGeocoder,,4.01,21461207C,13801 N 32ND ST,Phoenix,AZ,85032,5605
4623,-112.013333,33.630298,2202,32ND ST & TIERRA BUENA LN,Phoenix,,-112.013333,33.630298,AZ, , , ,124,1,687.5007,,AggieReverseGeocoder,,4.01,21435020B,15801 N 32ND ST,Phoenix,AZ,85032,803
4624,-112.0127767,33.45176166,2203,NB N 32ND ST FS E VAN BUREN ST,Phoenix,,-112.0127767,33.45176166,AZ, , , ,125,1,640.6273,,AggieReverseGeocoder,,4.01,12117002B,3202 E VAN BUREN ST,Tempe,AZ,85008,6811
4625,-112.012706,33.476297,2204,32ND ST & YALE ST,Phoenix,,-112.012706,33.476297,AZ, , , ,126,1,281.2512,,AggieReverseGeocoder,,4.01,12005050,2529 N 32ND ST,Tempe,AZ,85008,2104
4626,-112.013109,33.600701,2207,32ND ST & LARKSPUR DR,Phoenix,,-112.013109,33.600701,AZ, , , ,127,1,687.5017,,AggieReverseGeocoder,,4.01,16601848,3201 E LARKSPUR DR,Phoenix,AZ,85032,7244
4627,-112.012973,33.581295,2208,32ND ST & SHEA BLVD,Phoenix,,-112.012973,33.581295,AZ, , , ,128,1,687.5009,,AggieReverseGeocoder,,4.01,16502062,10433 N 32ND ST,New River,AZ,85028,3824
4628,-112.1341503,33.51350941,2211,35TH AVE & COLTER ST,Phoenix,,-112.1341503,33.51350941,AZ, , , ,129,1,546.8763,,AggieReverseGeocoder,,4.01,14516010,5212 N 35TH AVE,Phoenix,AZ,85017,3025
4629,-112.133678,33.380698,2212,35TH AVE & MINTON RD,Phoenix,,-112.133678,33.380698,AZ, , , ,130,1,328.1289,,AggieReverseGeocoder,,4.01,10589015K,7210 S 35TH AVE,Gila Crossing,AZ,85339,1900
4630,-112.133463,33.39973,2213,35TH AVE & ROESER RD,Phoenix,,-112.133463,33.39973,AZ, , , ,131,1,328.1255,,AggieReverseGeocoder,,4.01,10568007D,2836 W BROADWAY RD,Phoenix,AZ,85041,1904
4631,-112.1341047,33.49692417,2214,35TH AVE & MONTEROSA AVE,Phoenix,,-112.1341047,33.49692417,AZ, , , ,132,1,515.6232,,AggieReverseGeocoder,,4.01,15423078,4201 N 35TH AVE,Phoenix,AZ,85017,3878
4632,-112.133757,33.606812,2215,35TH AVE & WILLOW AVE,Phoenix,,-112.133757,33.606812,AZ, , , ,133,1,687.5016,,AggieReverseGeocoder,,4.01,14924001P,13201 N 35TH AVE,Glendale,AZ,85029,1222
4633,-112.133807,33.635999,2216,35TH AVE & AIRE AVE,Phoenix,,-112.133807,33.635999,AZ, , , ,134,1,703.1259,,AggieReverseGeocoder,,4.01,20739088,3438 W AIRE LIBRE AVE,Phoenix,AZ,85053,2924
4634,-112.134005,33.564199,2217,35TH AVE & ALICE AVE,Phoenix,,-112.134005,33.564199,AZ, , , ,135,1,296.8783,,AggieReverseGeocoder,,4.01,15010198,3435 W TANGERINE LN,Glendale,AZ,85051,3843
4635,-112.133707,33.3781855,2218,35TH AVE & BASELINE RD,Phoenix,,-112.133707,33.3781855,AZ, , , ,136,1,328.1272,,AggieReverseGeocoder,,4.01,10589938,3508 W BASELINE RD,Gila Crossing,AZ,85339,1808
4636,-112.1341772,33.64003347,2219,35TH AVE & BELL RD,Phoenix,,-112.1341772,33.64003347,AZ, , , ,137,1,296.8758,,AggieReverseGeocoder,,4.01,20703004N,3470 W BELL RD,Phoenix,AZ,85053,2926
4637,-112.1341059,33.52487276,2220,35TH AVE & BETHANY HOME RD,Phoenix,,-112.1341059,33.52487276,AZ, , , ,138,1,1187.5017,,AggieReverseGeocoder,,4.01,15218003N,6135 N 35TH AVE,Phoenix,AZ,85017,1950
4638,-112.133507,33.632998,2221,35TH AVE & BEVERLY LN,Phoenix,,-112.133507,33.632998,AZ, , , ,139,1,718.7496,,AggieReverseGeocoder,,4.01,20739570,3419 W GRANDVIEW RD,Phoenix,AZ,85053,2929
4639,-112.133822,33.59889796,2222,35TH AVE & BLOOMFIELD RD,Phoenix,,-112.133822,33.59889796,AZ, , , ,140,1,718.7527,,AggieReverseGeocoder,,4.01,14945079,3440 W BLOOMFIELD RD,Glendale,AZ,85029,2219
4640,-112.1340883,33.56085792,2223,35TH AVE & BUTLER DR,Phoenix,,-112.1340883,33.56085792,AZ, , , ,141,1,1093.752,,AggieReverseGeocoder,,4.01,15018065,3433 W SELDON LN,Glendale,AZ,85051,9037
4641,-112.1337863,33.59698244,2224,35TH AVE & CACTUS RD,Phoenix,,-112.1337863,33.59698244,AZ, , , ,142,1,1062.5042,,AggieReverseGeocoder,,4.01,14945033,3443 W WETHERSFIELD RD,Glendale,AZ,85029,2251
4642,-112.1339662,33.50985033,2225,35TH AVE & CAMELBACK RD,Phoenix,,-112.1339662,33.50985033,AZ, , , ,143,1,250.0002,,AggieReverseGeocoder,,4.01,15317005D,3446 W CAMELBACK RD,Phoenix,AZ,85017,3000
4643,-112.134087,33.50256028,2226,35TH AVE & CAMPBELL AVE,Phoenix,,-112.134087,33.50256028,AZ, , , ,144,1,531.2546,,AggieReverseGeocoder,,4.01,15409001E,3402 W CAMPBELL AVE,Phoenix,AZ,85017,3855
4644,-112.134272,33.643311,2227,35TH AVE & CAMPO BELLO DR,Phoenix,,-112.134272,33.643311,AZ, , , ,145,1,890.6243,,AggieReverseGeocoder,,4.01,20703071,17402 N 34TH LN,Phoenix,AZ,85053,6658
4645,-112.1339859,33.57899914,2228,35TH AVE & CHERYL DR,Phoenix,,-112.1339859,33.57899914,AZ, , , ,146,1,1078.1275,,AggieReverseGeocoder,,4.01,14915392D,10209 N 35TH AVE,Glendale,AZ,85051,9589
4646,-112.1339232,33.58960019,2229,35TH AVE & CHOLLA ST,Phoenix,,-112.1339232,33.58960019,AZ, , , ,147,1,1046.8741,,AggieReverseGeocoder,,4.01,14951136A,11415 N 35TH AVE,Glendale,AZ,85029,3264
4647,-112.134206,33.492499,2230,35TH AVE & CLARENDON AVE,Phoenix,,-112.134206,33.492499,AZ, , , ,148,1,531.2543,,AggieReverseGeocoder,,4.01,10802026,3801 N 35TH AVE,Phoenix,AZ,85017,4412
4648,-112.133507,33.622497,2231,35TH AVE & COUNTRY GABLES DR,Phoenix,,-112.133507,33.622497,AZ, , , ,149,1,687.4987,,AggieReverseGeocoder,,4.01,20709116,3450 W COUNTRY GABLES DR,Phoenix,AZ,85053,4732
4649,-112.1340912,33.56800817,2232,35TH AVE & DUNLAP AVE,Phoenix,,-112.1340912,33.56800817,AZ, , , ,150,1,1046.8751,,AggieReverseGeocoder,,4.01,14914004G,9023 N 35TH AVE,Glendale,AZ,85051,3407
4650,-112.1342467,33.4844813,2233,35TH AVE & EARLL DR,Phoenix,,-112.1342467,33.4844813,AZ, , , ,151,1,515.6257,,AggieReverseGeocoder,,4.01,10803023,3113 N 35TH AVE,Phoenix,AZ,85017,5255
4651,-112.134125,33.5574634,2234,35TH AVE & EL CAMINO DR,Phoenix,,-112.134125,33.5574634,AZ, , , ,152,1,1078.1257,,AggieReverseGeocoder,,4.01,15009293,8208 N 34TH DR,Glendale,AZ,85051,5937
4652,-112.134005,33.506497,2235,35TH AVE & ELM ST,Phoenix,,-112.134005,33.506497,AZ, , , ,153,1,234.374,,AggieReverseGeocoder,,4.01,15408127,4717 N 35TH AVE,Phoenix,AZ,85017,3034
4653,-112.134306,33.473497,2236,35TH AVE & ENCANTO BLVD,Phoenix,,-112.134306,33.473497,AZ, , , ,154,1,531.2483,,AggieReverseGeocoder,,4.01,10809065,2305 N 35TH AVE,Avondale,AZ,85009,1417
4654,-112.134005,33.570998,2237,35TH AVE & EVA ST,Phoenix,,-112.134005,33.570998,AZ, , , ,155,1,312.5006,,AggieReverseGeocoder,,4.01,14914003C,3030 W DUNLAP AVE,Glendale,AZ,85051,3429
4655,-112.134206,33.455699,2238,35TH AVE & FILLMORE ST,Phoenix,,-112.134206,33.455699,AZ, , , ,156,1,234.374,,AggieReverseGeocoder,,4.01,10923001,3333 W ROOSEVELT ST,Avondale,AZ,85009,3403
4656,-112.1341187,33.53908041,2239,35TH AVE & GLENDALE AVE,Phoenix,,-112.1341187,33.53908041,AZ, , , ,157,1,1609.3873,,AggieReverseGeocoder,,4.01,15121131,3430 W GLENDALE AVE,Glendale,AZ,85051,8323
4657,-112.134159,33.498799,2240,35TH AVE & GLENROSA AVE,Phoenix,,-112.134159,33.498799,AZ, , , ,158,1,546.8691,,AggieReverseGeocoder,,4.01,15422110,3442 W GLENROSA AVE,Phoenix,AZ,85017,3837
4658,-112.1334594,33.62590409,2241,35TH AVE & GREENWAY RD,Phoenix,,-112.1334594,33.62590409,AZ, , , ,159,1,687.5014,,AggieReverseGeocoder,,4.01,20739998D,3450 W GREENWAY RD,Phoenix,AZ,85053,3825
4659,-112.1336588,33.61482922,2242,35TH AVE & HEARN RD,Phoenix,,-112.1336588,33.61482922,AZ, , , ,160,1,703.1247,,AggieReverseGeocoder,,4.01,20708394,3460 W HEARN RD,Phoenix,AZ,85053,5689
4660,-112.1340098,33.57561863,2243,35TH AVE & MALAPAI DR,Phoenix,,-112.1340098,33.57561863,AZ, , , ,161,1,1031.2549,,AggieReverseGeocoder,,4.01,14915006,9832 N 34TH LN,Glendale,AZ,85051,1275
4661,-112.1343289,33.46633704,2244,35TH AVE & MCDOWELL RD,Phoenix,,-112.1343289,33.46633704,AZ, , , ,162,1,234.3839,,AggieReverseGeocoder,,4.01,10825026,3444 W MCDOWELL RD,Avondale,AZ,85009,2317
4662,-112.1340258,33.517199,2245,35TH AVE & MISSOURI AVE,Phoenix,,-112.1340258,33.517199,AZ, , , ,163,1,234.376,,AggieReverseGeocoder,,4.01,15316105,3450 W MISSOURI AVE,Phoenix,AZ,85017,2335
4663,-112.134171,33.520549,2246,35TH AVE & MONTEBELLO AVE,Phoenix,,-112.134171,33.520549,AZ, , , ,164,1,843.7499,,AggieReverseGeocoder,,4.01,15301008,3446 W MONTEBELLO AVE,Phoenix,AZ,85017,1903
4664,-112.1341872,33.54256183,2247,35TH AVE & MYRTLE AVE,Phoenix,,-112.1341872,33.54256183,AZ, , , ,165,1,1078.1266,,AggieReverseGeocoder,,4.01,15116075C,7203 N 35TH AVE,Glendale,AZ,85051,7420
4665,-112.1340335,33.55369476,2248,35TH AVE & NORTHERN AVE,Phoenix,,-112.1340335,33.55369476,AZ, , , ,166,1,328.1257,,AggieReverseGeocoder,,4.01,15009001M,8001 N 35TH AVE,Glendale,AZ,85051,5867
4666,-112.1341725,33.53504706,2249,35TH AVE & OCOTILLO RD,Phoenix,,-112.1341725,33.53504706,AZ, , , ,167,1,1640.6273,,AggieReverseGeocoder,,4.01,15221095,3456 W OCOTILLO RD,Phoenix,AZ,85017,1058
4667,-112.1341763,33.54631241,2250,35TH AVE & ORANGEWOOD AVE,Phoenix,,-112.1341763,33.54631241,AZ, , , ,168,1,1078.1285,,AggieReverseGeocoder,,4.01,15109007,7509 N 35TH AVE,Glendale,AZ,85051,7480
4668,-112.1342045,33.48799153,2251,35TH AVE & OSBORN RD,Phoenix,,-112.1342045,33.48799153,AZ, , , ,169,1,531.2496,,AggieReverseGeocoder,,4.01,10802054A,3401 N 35TH AVE,Phoenix,AZ,85017,4405
4669,-112.134306,33.469699,2252,35TH AVE & PALM LN,Phoenix,,-112.134306,33.469699,AZ, , , ,170,1,250.002,,AggieReverseGeocoder,,4.01,10818145,2001 N 35TH AVE,Avondale,AZ,85009,2352
4670,-112.1339441,33.58240479,2253,35TH AVE & PEORIA AVE,Phoenix,,-112.1339441,33.58240479,AZ, , , ,171,1,1046.8748,,AggieReverseGeocoder,,4.01,14918002D,10609 N 35TH AVE,Glendale,AZ,85029,4260
4671,-112.134306,33.458999,2254,35TH AVE & ROOSEVELT ST,Phoenix,,-112.134306,33.458999,AZ, , , ,172,1,234.3769,,AggieReverseGeocoder,,4.01,10912002,3402 W ROOSEVELT ST,Avondale,AZ,85009,3300
4672,-112.1341387,33.52812801,2255,35TH AVE & ROSE LN,Phoenix,,-112.1341387,33.52812801,AZ, , , ,173,1,1453.1266,,AggieReverseGeocoder,,4.01,15205007G,6211 N 35TH AVE,Phoenix,AZ,85017,1415
4673,-112.133505,33.392797,2256,35TH AVE & SOUTHERN AVE,Phoenix,,-112.133505,33.392797,AZ, , , ,174,1,312.5033,,AggieReverseGeocoder,,4.01,10568528,3404 W SOUTHERN AVE,Phoenix,AZ,85041,4306
4674,-112.1338734,33.59307556,2257,35TH AVE & SUNNYSIDE DR,Phoenix,,-112.1338734,33.59307556,AZ, , , ,175,1,1015.6252,,AggieReverseGeocoder,,4.01,14950157,3442 W SUNNYSIDE DR,Glendale,AZ,85029,3235
4675,-112.1337311,33.60407954,2258,35TH AVE & SWEETWATER AVE,Phoenix,,-112.1337311,33.60407954,AZ, , , ,176,1,734.3773,,AggieReverseGeocoder,,4.01,14924001K,13001 N 35TH AVE,Glendale,AZ,85029,1266
4676,-112.1341721,33.48079531,2259,35TH AVE & THOMAS RD,Phoenix,,-112.1341721,33.48079531,AZ, , , ,177,1,531.2504,,AggieReverseGeocoder,,4.01,10803004B,3440 W THOMAS RD,Phoenix,AZ,85017,5606
4677,-112.1336066,33.61124197,2260,35TH AVE & THUNDERBIRD RD,Phoenix,,-112.1336066,33.61124197,AZ, , , ,178,1,765.6252,,AggieReverseGeocoder,,4.01,20708001N,3460 W THUNDERBIRD RD,Phoenix,AZ,85053,5645
4678,-112.133507,33.628999,2261,35TH AVE & TIERRA BUENA LN,Phoenix,,-112.133507,33.628999,AZ, , , ,179,1,687.5032,,AggieReverseGeocoder,,4.01,20742016,15825 N 35TH AVE,Phoenix,AZ,85053,3821
4679,-112.134305,33.654997,2262,35TH AVE & UNION HILLS DR,Phoenix,,-112.134305,33.654997,AZ, , , ,180,1,796.8756,,AggieReverseGeocoder,,4.01,20611003J,3440 W UNION HILLS DR,Cave Creek,AZ,85027,4815
4680,-112.1343389,33.45207423,2263,35TH AVE & VAN BUREN ST,Phoenix,,-112.1343389,33.45207423,AZ, , , ,181,1,750.0014,,AggieReverseGeocoder,,4.01,10924001F,3320 W VAN BUREN ST,Avondale,AZ,85009,4710
4681,-112.134207,33.477298,2264,35TH AVE & VIRGINIA AVE,Phoenix,,-112.134207,33.477298,AZ, , , ,182,1,234.3742,,AggieReverseGeocoder,,4.01,10810130C,2601 N 35TH AVE,Avondale,AZ,85009,1301
4682,-112.134357,33.447901,2265,35TH AVE & WASHINGTON ST,Phoenix,,-112.134357,33.447901,AZ, , , ,183,1,218.7522,,AggieReverseGeocoder,,4.01,10938024E,1 N 35TH AVE,Avondale,AZ,85009,4752
4683,-112.1341654,33.549497,2266,35TH AVE & FRIER DR,Phoenix,,-112.1341654,33.549497,AZ, , , ,184,1,1109.3771,,AggieReverseGeocoder,,4.01,15127067,3443 W BELMONT AVE,Glendale,AZ,85051,6540
4684,-112.134417,33.46175,2267,35TH AVE & MORELAND ST,Phoenix,,-112.134417,33.46175,AZ, , , ,185,1,531.2416,,AggieReverseGeocoder,,4.01,10912001,1201 N 35TH AVE,Avondale,AZ,85009,3323
4685,-112.133507,33.39645707,2268,35TH AVE & SUNLAND AVE,Phoenix,,-112.133507,33.39645707,AZ, , , ,186,1,328.1274,,AggieReverseGeocoder,,4.01,10568407,3442 W SUNLAND AVE,Phoenix,AZ,85041,3499
4686,-112.1336406,33.61819658,2270,35TH AVE & ACOMA DR,Phoenix,,-112.1336406,33.61819658,AZ, , , ,187,1,703.127,,AggieReverseGeocoder,,4.01,20709006,3449 W MANDALAY LN,Phoenix,AZ,85053,4735
4687,-112.134306,33.647799,2271,35TH AVE & GROVERS AVE,Phoenix,,-112.134306,33.647799,AZ, , , ,188,1,890.6251,,AggieReverseGeocoder,,4.01,20702305,3453 W LIBBY ST,Phoenix,AZ,85053,1621
4688,-112.134306,33.657998,2272,35TH AVE & KIMBERLY WY,Phoenix,,-112.134306,33.657998,AZ, , , ,189,1,187.5002,,AggieReverseGeocoder,,4.01,20611731,3425 W WESCOTT DR,Cave Creek,AZ,85027,6142
4689,-112.1341055,33.53173671,2273,35TH AVE & MARYLAND AVE,Phoenix,,-112.1341055,33.53173671,AZ, , , ,190,1,1531.2545,,AggieReverseGeocoder,,4.01,15222121,3451 W SIERRA VISTA DR,Phoenix,AZ,85017,1446
4690,-112.133949,33.58502481,2274,35TH AVE & DESERT COVE AVE,Phoenix,,-112.133949,33.58502481,AZ, , , ,191,1,1078.1238,,AggieReverseGeocoder,,4.01,14918002J,10815 N 35TH AVE,Glendale,AZ,85029,4258
4691,-112.134307,33.650498,2275,35TH AVE & VILLA RITA DR,Phoenix,,-112.134307,33.650498,AZ, , , ,192,1,734.3763,,AggieReverseGeocoder,,4.01,20702146,3456 W VILLA RITA DR,Phoenix,AZ,85053,1636
4692,-112.069446,33.569693,2296,3RD ST & EVA ST,Phoenix,,-112.069446,33.569693,AZ, , , ,193,1,906.2507,,AggieReverseGeocoder,,4.01,15947298A,250 E DUNLAP AVE,Phoenix,AZ,85020,2825
4693,-112.0692513,33.46157465,2297,3RD ST & MORELAND ST,Phoenix,,-112.0692513,33.46157465,AZ, , , ,194,1,968.7488,,AggieReverseGeocoder,,4.01,11138070,300 E MORELAND ST,Phoenix,AZ,85004,1879
4694,-112.06922,33.45907148,2298,3RD ST & ROOSEVELT ST,Phoenix,,-112.06922,33.45907148,AZ, , , ,195,1,953.1284,,AggieReverseGeocoder,,4.01,11138001A,1011 N 3RD ST,Phoenix,AZ,85004,1929
4695,-111.996006,33.637299,2299,40TH ST & EDNA AVE,Phoenix,,-111.996006,33.637299,AZ, , , ,196,1,968.7541,,AggieReverseGeocoder,,4.01,21521014,16627 N 40TH ST,Phoenix,AZ,85032,3305
4696,-111.995805,33.630197,2300,40TH ST & TIERRA BUENA LN,Phoenix,,-111.995805,33.630197,AZ, , , ,197,1,265.6258,,AggieReverseGeocoder,,4.01,21524008,15801 N 40TH ST,Phoenix,AZ,85032,4002
4697,-111.995805,33.619699,2301,40TH ST & ACOMA DR,Phoenix,,-111.995805,33.619699,AZ, , , ,198,1,250.0007,,AggieReverseGeocoder,,4.01,21571398A,4012 E ACOMA DR,Phoenix,AZ,85032,
4698,-111.995998,33.64109625,2302,40TH ST & BELL RD,Phoenix,,-111.995998,33.64109625,AZ, , , ,199,1,875.0021,,AggieReverseGeocoder,,4.01,21517750,4006 E BELL RD,Phoenix,AZ,85032,2232
4699,-111.996107,33.644508,2305,40TH ST & DANBURY DR,Phoenix,,-111.996107,33.644508,AZ, , , ,200,1,875.0034,,AggieReverseGeocoder,,4.01,21517011,17402 N 40TH PL,Phoenix,AZ,85032,2201
4700,-111.995806,33.626998,2306,40TH ST & GREENWAY RD,Phoenix,,-111.995806,33.626998,AZ, , , ,201,1,875.0019,,AggieReverseGeocoder,,4.01,21526035A,4022 E GREENWAY RD,Phoenix,AZ,85032,4797
4701,-111.996006,33.648298,2307,40TH ST & GROVERS AVE,Phoenix,,-111.996006,33.648298,AZ, , , ,202,1,265.6243,,AggieReverseGeocoder,,4.01,21516064A,17805 N 40TH ST,Phoenix,AZ,85032,1767
4702,-111.995805,33.615697,2308,40TH ST & HEARN RD,Phoenix,,-111.995805,33.615697,AZ, , , ,203,1,265.6268,,AggieReverseGeocoder,,4.01,21572194,14202 N 40TH PL,Phoenix,AZ,85032,5407
4703,-111.996006,33.633699,2309,40TH ST & PARADISE LN,Phoenix,,-111.996006,33.633699,AZ, , , ,204,1,890.6255,,AggieReverseGeocoder,,4.01,21522009F,4010 E PARADISE LN,Phoenix,AZ,85032,3328
4704,-111.996157,33.6517,2310,40TH ST & ROBERT E LEE ST,Phoenix,,-111.996157,33.6517,AZ, , , ,205,1,890.6261,,AggieReverseGeocoder,,4.01,21515103,18239 N 40TH ST,Phoenix,AZ,85032,1460
4705,-111.995855,33.612311,2311,40TH ST & THUNDERBIRD RD,Phoenix,,-111.995855,33.612311,AZ, , , ,206,1,890.6282,,AggieReverseGeocoder,,4.01,21572270B,4002 E THUNDERBIRD RD,Phoenix,AZ,85032,5837
4706,-111.9958774,33.6231712,2312,40TH ST & BLANCHE DR,Phoenix,,-111.9958774,33.6231712,AZ, , , ,207,1,265.6284,,AggieReverseGeocoder,,4.01,21571133,4002 E NISBET RD,Phoenix,AZ,85032,4716
4707,-112.151306,33.558198,2313,43RD AVE & LAS PALMARITAS DR,Phoenix,,-112.151306,33.558198,AZ, , , ,208,1,312.4995,,AggieReverseGeocoder,,4.01,15013336,8234 N 42ND DR,Glendale,AZ,85051,4615
4708,-112.151396,33.528425,2315,43RD AVE & CLAREMONT ST,Phoenix,,-112.151396,33.528425,AZ, , , ,209,1,875.0021,,AggieReverseGeocoder,,4.01,15230056,4244 W CLAREMONT ST,Phoenix,AZ,85019,1422
4709,-112.151505,33.563798,2316,43RD AVE & ALICE AVE,Phoenix,,-112.151505,33.563798,AZ, , , ,210,1,718.7519,,AggieReverseGeocoder,,4.01,15014128,4238 W BARBARA AVE,Glendale,AZ,85051,3652
4710,-112.151005,33.618299,2317,43RD AVE & ACOMA DR,Phoenix,,-112.151005,33.618299,AZ, , , ,211,1,1031.2548,,AggieReverseGeocoder,,4.01,20713037,4226 W ACOMA DR,Phoenix,AZ,85053,5374
4711,-112.151507,33.639798,2318,43RD AVE & BELL RD,Phoenix,,-112.151507,33.639798,AZ, , , ,212,1,296.8739,,AggieReverseGeocoder,,4.01,20718003J,4280 W BELL RD,Phoenix,AZ,85308,4020
4712,-112.1513197,33.52464053,2319,43RD AVE & BETHANY HOME RD,Phoenix,,-112.1513197,33.52464053,AZ, , , ,213,1,890.6253,,AggieReverseGeocoder,,4.01,15220127A,6015 N 43RD AVE,Phoenix,AZ,85019,1638
4713,-112.151305,33.577499,2320,43RD AVE & BROWN ST,Phoenix,,-112.151305,33.577499,AZ, , , ,214,1,312.4998,,AggieReverseGeocoder,,4.01,14937110,10031 N 43RD AVE,Glendale,AZ,85051,1024
4714,-112.151006,33.596798,2321,43RD AVE & CACTUS RD,Phoenix,,-112.151006,33.596798,AZ, , , ,215,1,312.4993,,AggieReverseGeocoder,,4.01,14927002G,4202 W CACTUS RD,Glendale,AZ,85029,2924
4715,-112.151334,33.51004927,2322,43RD AVE & CAMELBACK RD,Phoenix,,-112.151334,33.51004927,AZ, , , ,216,1,218.7503,,AggieReverseGeocoder,,4.01,14508619G,4250 W CAMELBACK RD,Phoenix,AZ,85019,2861
4716,-112.151704,33.643499,2323,43RD AVE & CAMPO BELLO DR,Phoenix,,-112.151704,33.643499,AZ, , , ,217,1,1421.8785,,AggieReverseGeocoder,,4.01,20718431,17420 N 42ND LN,Phoenix,AZ,85308,2918
4717,-112.151305,33.589699,2324,43RD AVE & CHOLLA ST,Phoenix,,-112.151305,33.589699,AZ, , , ,218,1,1031.2512,,AggieReverseGeocoder,,4.01,14933525,4229 W LUPINE AVE,Glendale,AZ,85029,3041
4718,-112.151005,33.621797,2325,43RD AVE & COUNTRY GABLES DR,Phoenix,,-112.151005,33.621797,AZ, , , ,219,1,1000.0007,,AggieReverseGeocoder,,4.01,20713042,4226 W COUNTRY GABLES DR,Phoenix,AZ,85053,4560
4719,-112.151705,33.464198,2326,43RD AVE & CULVER ST,Phoenix,,-112.151705,33.464198,AZ, , , ,220,1,640.6267,,AggieReverseGeocoder,,4.01,10627002,1401 N 43RD AVE,Avondale,AZ,85009,3147
4720,-112.151305,33.585799,2327,43RD AVE & DESERT COVE AVE,Phoenix,,-112.151305,33.585799,AZ, , , ,221,1,312.4996,,AggieReverseGeocoder,,4.01,14934002,4236 W DESERT COVE AVE,Glendale,AZ,85029,3827
4721,-112.1514939,33.56843263,2328,43RD AVE & DUNLAP AVE,Phoenix,,-112.1514939,33.56843263,AZ, , , ,222,1,718.7511,,AggieReverseGeocoder,,4.01,14938512,9025 N 43RD AVE,Glendale,AZ,85051,3267
4722,-112.151464,33.484492,2329,43RD AVE & EARLL DR,Phoenix,,-112.151464,33.484492,AZ, , , ,223,1,234.3755,,AggieReverseGeocoder,,4.01,10716005C,3101 N 43RD AVE,Glendale,AZ,85031,3803
4723,-112.151507,33.473498,2330,43RD AVE & ENCANTO BLVD,Phoenix,,-112.151507,33.473498,AZ, , , ,224,1,187.5011,,AggieReverseGeocoder,,4.01,10833146,4244 W ENCANTO BLVD,Avondale,AZ,85009,1015
4724,-112.151707,33.455199,2331,43RD AVE & FILLMORE ST,Phoenix,,-112.151707,33.455199,AZ, , , ,225,1,624.9984,,AggieReverseGeocoder,,4.01,10602022B,601 N 43RD AVE,Avondale,AZ,85009,4012
4725,-112.151411,33.549697,2333,43RD AVE & FRIER DR,Phoenix,,-112.151411,33.549697,AZ, , , ,226,1,734.379,,AggieReverseGeocoder,,4.01,15106002E,7725 N 43RD AVE,Glendale,AZ,85051,5770
4726,-112.1513458,33.53899136,2334,43RD AVE & GLENDALE AVE,Phoenix,,-112.1513458,33.53899136,AZ, , , ,227,1,734.3768,,AggieReverseGeocoder,,4.01,15118003H,4240 W GLENDALE AVE,Glendale,AZ,85051,8138
4727,-112.151506,33.498797,2335,43RD AVE & GLENROSA AVE,Phoenix,,-112.151506,33.498797,AZ, , , ,228,1,703.1255,,AggieReverseGeocoder,,4.01,10702062B,4317 N 43RD AVE,Glendale,AZ,85031,2107
4728,-112.1509364,33.62577371,2336,43RD AVE & GREENWAY RD,Phoenix,,-112.1509364,33.62577371,AZ, , , ,229,1,1000.0028,,AggieReverseGeocoder,,4.01,20714005,4234 W GREENWAY RD,Phoenix,AZ,85053,3750
4729,-112.151498,33.555171,2337,43RD AVE & HARMONT DR,Phoenix,,-112.151498,33.555171,AZ, , , ,230,1,718.7525,,AggieReverseGeocoder,,4.01,15013489,8102 N 42ND LN,Glendale,AZ,85051,4603
4730,-112.134851,33.680121,8148,35TH AVE & LONE CACTUS DR,Phoenix,,-112.134851,33.680121,AZ, , , ,231,1,531.2514,,AggieReverseGeocoder,,4.01,20620081,3502 W QUAIL AVE,Phoenix,AZ,85308,2007
4731,-112.151518,33.571194,2338,43RD AVE & HATCHER RD,Phoenix,,-112.151518,33.571194,AZ, , , ,232,1,734.3761,,AggieReverseGeocoder,,4.01,14938182,4240 W HATCHER RD,Glendale,AZ,85051,3249
4732,-112.151006,33.614998,2339,43RD AVE & HEARN RD,Phoenix,,-112.151006,33.614998,AZ, , , ,233,1,1031.2519,,AggieReverseGeocoder,,4.01,20712073,4234 W HEARN RD,Phoenix,AZ,85053,5333
4733,-112.151459,33.505726,2340,43RD AVE & HIGHLAND AVE,Phoenix,,-112.151459,33.505726,AZ, , , ,234,1,703.1241,,AggieReverseGeocoder,,4.01,10702059D,4645 N 43RD AVE,Glendale,AZ,85031,1510
4734,-112.151636,33.470203,2341,43RD AVE & HUBBELL ST,Phoenix,,-112.151636,33.470203,AZ, , , ,235,1,687.5043,,AggieReverseGeocoder,,4.01,10821083,2020 N 42ND DR,Avondale,AZ,85009,2025
4735,-112.1303382,33.69841404,8130,PINNACLE PEAK RD & HANCE BLVD,Phoenix,,-112.1303382,33.69841404,AZ, , , ,236,1,468.7526,,AggieReverseGeocoder,,4.01,20602004,3248 W CASITAS DEL RIO DR,Cave Creek,AZ,85027,7014
4736,-112.1218318,33.70762984,8131,29TH AVE -- PINNACLE PEAK RD & HAPPY VALLEY RD,Phoenix,,-112.1218318,33.70762984,AZ, , , ,237,1,265.6232,,AggieReverseGeocoder,,4.01,21005931A,24250 N 23RD AVE,Phoenix,AZ,85085,1996
4737,-112.1217865,33.7104234,8132,29TH AVE & HAPPY VALLEY RD,Phoenix,,-112.1217865,33.7104234,AZ, , , ,238,1,265.6274,,AggieReverseGeocoder,,4.01,21004013,2440 W HAPPY VALLEY RD,Phoenix,AZ,85085,8500
4738,-112.134519,33.670838,8133,35TH AVE & BEARDSLEY RD,Phoenix,,-112.134519,33.670838,AZ, , , ,239,1,546.8746,,AggieReverseGeocoder,,4.01,20607754,20225 N 35TH AVE,Cave Creek,AZ,85027,3071
4739,-112.134484,33.666102,8134,35TH AVE & BEHREND DR,Phoenix,,-112.134484,33.666102,AZ, , , ,240,1,546.8773,,AggieReverseGeocoder,,4.01,20612150,19808 N 34TH DR,Cave Creek,AZ,85027,3815
4740,-112.1345538,33.684505,8135,35TH AVE & DEER VALLEY RD,Phoenix,,-112.1345538,33.684505,AZ, , , ,241,1,562.501,,AggieReverseGeocoder,,4.01,20603761,3440 W DEER VALLEY RD,Cave Creek,AZ,85027,2258
4741,-112.134602,33.675136,8136,35TH AVE & IRMA LN,Phoenix,,-112.134602,33.675136,AZ, , , ,242,1,546.8751,,AggieReverseGeocoder,,4.01,20606211,20810 N 34TH DR,Cave Creek,AZ,85027,3041
4742,-112.134577,33.6808,8137,35TH AVE & LONE CACTUS DR,Phoenix,,-112.134577,33.6808,AZ, , , ,243,1,562.5017,,AggieReverseGeocoder,,4.01,20606500,21418 N 34TH DR,Cave Creek,AZ,85027,2219
4743,-112.134573,33.679198,8138,35TH AVE & ROSE GARDEN LN,Phoenix,,-112.134573,33.679198,AZ, , , ,244,1,578.1258,,AggieReverseGeocoder,,4.01,20606293,21208 N 34TH DR,Cave Creek,AZ,85027,3043
4744,-112.1346703,33.69128318,8139,35TH AVE & WILLIAMS DR,Phoenix,,-112.1346703,33.69128318,AZ, , , ,245,1,546.8765,,AggieReverseGeocoder,,4.01,20602345,3434 W WILLIAMS DR,Cave Creek,AZ,85027,1036
4745,-112.134485,33.662653,8140,35TH AVE & YORKSHIRE DR,Phoenix,,-112.134485,33.662653,AZ, , , ,246,1,546.8861,,AggieReverseGeocoder,,4.01,20612001B,19845 N 33RD AVE,Cave Creek,AZ,85027,3805
4746,-112.1347019,33.69427886,8141,35TH AVE & PARKSIDE LN,Phoenix,,-112.1347019,33.69427886,AZ, , , ,247,1,515.6243,,AggieReverseGeocoder,,4.01,20602415,3435 W PINNACLE PEAK RD,Cave Creek,AZ,85027,1021
4747,-112.1217617,33.70114966,8142,29TH AVE & PINNACLE PEAK RD,Phoenix,,-112.1217617,33.70114966,AZ, , , ,248,1,281.2502,,AggieReverseGeocoder,,4.01,20602034,3104 W CASITAS DEL RIO DR,Cave Creek,AZ,85027,7010
4748,-112.1220122,33.71054951,8143,29TH AVE & HAPPY VALLEY RD,Phoenix,,-112.1220122,33.71054951,AZ, , , ,249,1,281.2517,,AggieReverseGeocoder,,4.01,21004014,25500 N NORTERRA DR,Phoenix,AZ,85085,8200
4749,-112.1219511,33.70723284,8144,29TH AVE -- HAPPY VALLEY RD & PINNACLE PEAK RD,Phoenix,,-112.1219511,33.70723284,AZ, , , ,250,1,281.2511,,AggieReverseGeocoder,,4.01,21005931A,24250 N 23RD AVE,Phoenix,AZ,85085,1996
4750,-112.134785,33.668053,8145,35TH AVE & BEARDSLEY RD,Phoenix,,-112.134785,33.668053,AZ, , , ,251,1,546.8766,,AggieReverseGeocoder,,4.01,20616006A,20012 N 35TH AVE,Phoenix,AZ,85308,2204
4751,-112.134751,33.665154,8146,35TH AVE & BEHREND DR,Phoenix,,-112.134751,33.665154,AZ, , , ,252,1,531.2524,,AggieReverseGeocoder,,4.01,20616007C,19640 N 35TH AVE,Phoenix,AZ,85308,2202
4752,-112.1349061,33.68338536,8147,35TH AVE & DEER VALLEY RD,Phoenix,,-112.1349061,33.68338536,AZ, , , ,253,1,562.5038,,AggieReverseGeocoder,,4.01,20620275A,21632 N 35TH AVE,Phoenix,AZ,85308,2061
4753,-112.1349809,33.69341128,8149,35TH AVE & PARKSIDE LN,Phoenix,,-112.1349809,33.69341128,AZ, , , ,254,1,546.8744,,AggieReverseGeocoder,,4.01,20602404,22816 N 34TH DR,Cave Creek,AZ,85027,7024
4754,-112.1350603,33.69795818,8150,35TH AVE & PINNACLE PEAK RD,Phoenix,,-112.1350603,33.69795818,AZ, , , ,255,1,531.2509,,AggieReverseGeocoder,,4.01,20602415,3435 W PINNACLE PEAK RD,Cave Creek,AZ,85027,1021
4755,-112.134797,33.678214,8151,35TH AVE & ROSE GARDEN LN,Phoenix,,-112.134797,33.678214,AZ, , , ,256,1,546.8756,,AggieReverseGeocoder,,4.01,20617185,3502 W ROSS AVE,Phoenix,AZ,85308,2143
4756,-112.1349492,33.69038396,8152,35TH AVE & WILLIAMS DR,Phoenix,,-112.1349492,33.69038396,AZ, , , ,257,1,546.8762,,AggieReverseGeocoder,,4.01,20602407,22614 N 33RD DR,Cave Creek,AZ,85027,1031
4757,-112.134817,33.673137,8153,35TH AVE & MOHAWK LN,Phoenix,,-112.134817,33.673137,AZ, , , ,258,1,562.5001,,AggieReverseGeocoder,,4.01,20617003,20602 N 35TH AVE,Phoenix,AZ,85308,2150
4758,-112.1094786,33.71306301,8154,HAPPY VALLEY RD & 23RD AVE,Phoenix,,-112.1094786,33.71306301,AZ, , , ,259,1,343.7509,,AggieReverseGeocoder,,4.01,21004013,2440 W HAPPY VALLEY RD,Phoenix,AZ,85085,8500
4759,-112.1224137,33.70091037,8155,PINNACLE PEAK RD & 29TH AVE,Phoenix,,-112.1224137,33.70091037,AZ, , , ,260,1,281.2481,,AggieReverseGeocoder,,4.01,20602034,3104 W CASITAS DEL RIO DR,Cave Creek,AZ,85027,7010
4760,-112.1313547,33.69846196,8156,PINNACLE PEAK RD & HANCE BLVD,Phoenix,,-112.1313547,33.69846196,AZ, , , ,261,1,484.3736,,AggieReverseGeocoder,,4.01,20602415,3435 W PINNACLE PEAK RD,Cave Creek,AZ,85027,1021
4761,-112.117052,33.647938,8157,27TH AVE & GROVERS AVE,Phoenix,,-112.117052,33.647938,AZ, , , ,262,1,1171.8757,,AggieReverseGeocoder,,4.01,20805003G,17803 N 27TH AVE,Phoenix,AZ,85053,1749
4762,-112.11706,33.650002,8158,27TH AVE & VILLA MARIA DR,Phoenix,,-112.11706,33.650002,AZ, , , ,263,1,1171.8797,,AggieReverseGeocoder,,4.01,20805584,18008 N BLACK CANYON HWY,Phoenix,AZ,85053,1770
4763,-112.030661,33.655661,8200,CAVE CREEK RD & UNION HILLS DR,Phoenix,,-112.030661,33.655661,AZ, , , ,264,1,296.8767,,AggieReverseGeocoder,,4.01,21319019B,18615 N CAVE CREEK RD,Phoenix,AZ,85024,3001
4764,-112.030662,33.658992,8201,CAVE CREEK RD & SIESTA LN,Phoenix,,-112.030662,33.658992,AZ, , , ,265,1,296.8741,,AggieReverseGeocoder,,4.01,21319117,19008 N 24TH PL,Phoenix,AZ,85050,2539
4765,-112.030496,33.662661,8202,CAVE CREEK RD & UTOPIA RD,Phoenix,,-112.030496,33.662661,AZ, , , ,266,1,296.8761,,AggieReverseGeocoder,,4.01,21318098R,19401 N CAVE CREEK RD,Phoenix,AZ,85024,1801
4766,-112.029969,33.667125,8203,CAVE CREEK RD & MARCO POLO RD,Phoenix,,-112.029969,33.667125,AZ, , , ,267,1,671.8765,,AggieReverseGeocoder,,4.01,21318004S,19842 N 26TH ST,Phoenix,AZ,85050,1304
4767,-112.030496,33.669993,8204,CAVE CREEK RD & BEARDSLEY RD,Phoenix,,-112.030496,33.669993,AZ, , , ,268,1,46.873,,AggieReverseGeocoder,,4.01,21311017P,20205 N CAVE CREEK RD,Phoenix,AZ,85024,4441
4768,-112.031161,33.676328,8205,CAVE CREEK RD & ROSE GARDEN LN,Phoenix,,-112.031161,33.676328,AZ, , , ,269,1,421.875,,AggieReverseGeocoder,,4.01,21308044,20833 N 23RD PL,Phoenix,AZ,85024,4426
4769,-112.03104,33.671328,8206,CAVE CREEK RD & SR 101 FWY,Phoenix,,-112.03104,33.671328,AZ, , , ,270,1,453.1268,,AggieReverseGeocoder,,4.01,21308017R,20350 N CAVE CREEK RD,Phoenix,AZ,85024,1283
4770,-112.030829,33.668825,8207,CAVE CREEK RD & BEARDSLEY RD,Phoenix,,-112.030829,33.668825,AZ, , , ,271,1,437.4995,,AggieReverseGeocoder,,4.01,21326445,20050 N CAVE CREEK RD,Phoenix,AZ,85024,5400
4771,-112.030238,33.666327,8208,CAVE CREEK RD & MARCO POLO RD,Phoenix,,-112.030238,33.666327,AZ, , , ,272,1,687.5038,,AggieReverseGeocoder,,4.01,21318001K,19824 N CAVE CREEK RD,Phoenix,AZ,85024,1226
4772,-112.030959,33.662229,8209,CAVE CREEK RD & UTOPIA RD,Phoenix,,-112.030959,33.662229,AZ, , , ,273,1,687.4977,,AggieReverseGeocoder,,4.01,21320452,19226 N CAVE CREEK RD,Phoenix,AZ,85024,2491
4773,-112.030995,33.657659,8210,CAVE CREEK RD & MORROW DR,Phoenix,,-112.030995,33.657659,AZ, , , ,274,1,703.128,,AggieReverseGeocoder,,4.01,21320072,18823 N 23RD PL,Phoenix,AZ,85024,2459
4774,-112.0127747,33.44875959,8211,NB N 32ND ST FS E WASHINGTON ST,Phoenix,,-112.0127747,33.44875959,AZ, , , ,275,1,812.4991,,AggieReverseGeocoder,,4.01,12118056B,3202 E WASHINGTON ST,Phoenix,AZ,85034,1602
4775,-112.012899,33.502827,8213,32ND ST & CAMPBELL AVE,Phoenix,,-112.012899,33.502827,AZ, , , ,276,1,859.3756,,AggieReverseGeocoder,,4.01,17021036A,4515 N 32ND ST,Maricopa,AZ,85018,3353
4776,-112.012828,33.506826,8214,32ND ST & HIGHLAND AVE,Phoenix,,-112.012828,33.506826,AZ, , , ,277,1,281.2502,,AggieReverseGeocoder,,4.01,17020045,4715 N 32ND ST,Maricopa,AZ,85018,3300
4777,-112.0130201,33.45069467,8217,SB N 32ND ST FS E VAN BUREN ST,Phoenix,,-112.0130201,33.45069467,AZ, , , ,278,1,640.6258,,AggieReverseGeocoder,,4.01,12166001C,3149 E VAN BUREN ST,Tempe,AZ,85008,6808
4778,-112.056494,33.636828,8220,GREENWAY PKWY & 12TH ST,Phoenix,,-112.056494,33.636828,AZ, , , ,279,1,671.8763,,AggieReverseGeocoder,,4.01,21416222,709 E SANDRA TER,Phoenix,AZ,85022,2630
4779,-112.051827,33.63616,8221,GREENWAY PKWY & 14TH ST,Phoenix,,-112.051827,33.63616,AZ, , , ,280,1,968.752,,AggieReverseGeocoder,,4.01,21415014U,1402 E SANDRA TER,Phoenix,AZ,85022,2704
4780,-112.047493,33.635994,8222,GREENWAY PKWY & 16TH ST,Phoenix,,-112.047493,33.635994,AZ, , , ,281,1,968.75,,AggieReverseGeocoder,,4.01,21420602,1614 E GRANDVIEW RD,Phoenix,AZ,85022,6296
4781,-112.043663,33.634159,8223,GREENWAY PKWY & 18TH ST,Phoenix,,-112.043663,33.634159,AZ, , , ,282,1,984.3788,,AggieReverseGeocoder,,4.01,21420113,1809 E SANDRA TER,Phoenix,AZ,85022,2871
4782,-112.075377,33.633358,8224,GREENWAY PKWY & 1ST DR,Phoenix,,-112.075377,33.633358,AZ, , , ,283,1,937.5024,,AggieReverseGeocoder,,4.01,20834670,127 W GRANDVIEW RD,Phoenix,AZ,85023,7482
4783,-112.038828,33.632493,8225,GREENWAY PKWY & 20TH ST,Phoenix,,-112.038828,33.632493,AZ, , , ,284,1,1031.2555,,AggieReverseGeocoder,,4.01,21441324,2012 E MONTE CRISTO AVE,Phoenix,AZ,85022,3454
4784,-112.068996,33.636827,8226,GREENWAY PKWY & 3RD ST,Phoenix,,-112.068996,33.636827,AZ, , , ,285,1,296.8732,,AggieReverseGeocoder,,4.01,20812005D,16220 N 7TH ST,Phoenix,AZ,85022,2600
4785,-111.942327,33.625661,8227,GREENWAY PKWY & 64TH ST,Phoenix,,-111.942327,33.625661,AZ, , , ,286,1,203.1261,,AggieReverseGeocoder,,4.01,21559930,6501 E GREENWAY PKWY,Phoenix,AZ,85254,2065
4786,-111.93866,33.624161,8228,GREENWAY PKWY & 66TH ST,Phoenix,,-111.93866,33.624161,AZ, , , ,287,1,484.374,,AggieReverseGeocoder,,4.01,21559125,7126 E ACOMA DR,Phoenix,AZ,85254,2742
4787,-112.0648402,33.63745744,8229,GREENWAY PKWY & 7TH ST,Phoenix,,-112.0648402,33.63745744,AZ, , , ,288,1,703.1258,,AggieReverseGeocoder,,4.01,21416004H,16625 N 7TH DR,Phoenix,AZ,85023,7911
4788,-112.060661,33.637326,8230,GREENWAY PKWY & 9TH ST,Phoenix,,-112.060661,33.637326,AZ, , , ,289,1,734.3761,,AggieReverseGeocoder,,4.01,21416004H,16625 N 7TH DR,Phoenix,AZ,85023,7911
4789,-112.029804,33.6316014,8231,GREENWAY PKWY & CAVE CREEK RD,Phoenix,,-112.029804,33.6316014,AZ, , , ,290,1,1031.2508,,AggieReverseGeocoder,,4.01,21440370,15827 N CAVE CREEK RD,Phoenix,AZ,85032,3534
4790,-111.929994,33.622494,8232,GREENWAY PKWY & KIERLAND BLVD,Phoenix,,-111.929994,33.622494,AZ, , , ,291,1,203.1273,,AggieReverseGeocoder,,4.01,21558012,7025 E GREENWAY PKWY,Phoenix,AZ,85254,2159
4791,-112.0253578,33.62816,8233,GREENWAY PKWY & WALT ANN LN,Phoenix,,-112.0253578,33.62816,AZ, , , ,292,1,656.2524,,AggieReverseGeocoder,,4.01,21440064,2627 E WALTANN LN,Phoenix,AZ,85032,3606
4792,-112.019163,33.62616,8234,GREENWAY RD & 29TH ST,Phoenix,,-112.019163,33.62616,AZ, , , ,293,1,359.3762,,AggieReverseGeocoder,,4.01,21457003,15230 N 30TH ST,Phoenix,AZ,85032,4404
4793,-112.0128048,33.626151,8235,GREENWAY RD & 32ND ST,Phoenix,,-112.0128048,33.626151,AZ, , , ,294,1,640.6518,,AggieReverseGeocoder,,4.01,21460006C,15249 N 32ND ST,Phoenix,AZ,85032,4489
4794,-112.0092023,33.62615323,8236,GREENWAY RD & 33RD PL,Phoenix,,-112.0092023,33.62615323,AZ, , , ,295,1,890.6039,,AggieReverseGeocoder,,4.01,21435232,3342 E GREENWAY RD,Phoenix,AZ,85032,4532
4795,-112.003995,33.62616,8237,GREENWAY RD & 36TH ST,Phoenix,,-112.003995,33.62616,AZ, , , ,296,1,281.2463,,AggieReverseGeocoder,,4.01,21463327,3618 E KAREN DR,Phoenix,AZ,85032,4614
4796,-111.9998981,33.62629243,8238,GREENWAY RD & 38TH ST,Phoenix,,-111.9998981,33.62629243,AZ, , , ,297,1,859.381,,AggieReverseGeocoder,,4.01,21463002F,3801 E GREENWAY RD,Phoenix,AZ,85032,4627
4797,-111.995328,33.626161,8239,GREENWAY RD & 40TH ST,Phoenix,,-111.995328,33.626161,AZ, , , ,298,1,250.0254,,AggieReverseGeocoder,,4.01,21571134B,4007 E GREENWAY RD,Phoenix,AZ,85032,4748
4798,-111.990328,33.626161,8240,GREENWAY RD & 42ND ST,Phoenix,,-111.990328,33.626161,AZ, , , ,299,1,874.9732,,AggieReverseGeocoder,,4.01,21571250,4208 E KAREN DR,Phoenix,AZ,85032,8109
4799,-111.985827,33.625993,8241,GREENWAY RD & 44TH ST,Phoenix,,-111.985827,33.625993,AZ, , , ,300,1,265.6265,,AggieReverseGeocoder,,4.01,21570012C,4415 E GREENWAY RD,Phoenix,AZ,85032,4823
4800,-111.981662,33.625993,8242,GREENWAY RD & 46TH ST,Phoenix,,-111.981662,33.625993,AZ, , , ,301,1,265.6259,,AggieReverseGeocoder,,4.01,21570059,4612 E KAREN DR,Phoenix,AZ,85032,4812
4801,-111.971996,33.625827,8243,GREENWAY RD & 50TH PL,Phoenix,,-111.971996,33.625827,AZ, , , ,302,1,265.6243,,AggieReverseGeocoder,,4.01,21567490,15240 N 51ST ST,Phoenix,AZ,85254,2217
4802,-111.968494,33.625826,8244,GREENWAY RD & 52ND ST,Phoenix,,-111.968494,33.625826,AZ, , , ,303,1,249.9987,,AggieReverseGeocoder,,4.01,21566185,5210 E KAREN DR,Phoenix,AZ,85254,2340
4803,-111.961996,33.625825,8245,GREENWAY RD & 54TH WY,Phoenix,,-111.961996,33.625825,AZ, , , ,304,1,406.2504,,AggieReverseGeocoder,,4.01,21566414,5508 E KAREN DR,Phoenix,AZ,85254,8208
4804,-111.95966,33.625826,8246,GREENWAY RD & 56TH ST,Phoenix,,-111.95966,33.625826,AZ, , , ,305,1,203.1257,,AggieReverseGeocoder,,4.01,21563002A,5601 E GREENWAY RD,Phoenix,AZ,85254,1818
4805,-111.954161,33.62566,8247,GREENWAY RD & 58TH PL,Phoenix,,-111.954161,33.62566,AZ, , , ,306,1,187.5026,,AggieReverseGeocoder,,4.01,21563002A,5601 E GREENWAY RD,Phoenix,AZ,85254,1818
4806,-111.950994,33.625826,8248,GREENWAY RD & 60TH ST,Phoenix,,-111.950994,33.625826,AZ, , , ,307,1,703.1266,,AggieReverseGeocoder,,4.01,21538184,6009 E BECK LN,Phoenix,AZ,85254,1918
4807,-111.94666,33.625827,8249,GREENWAY RD & 62ND ST,Phoenix,,-111.94666,33.625827,AZ, , , ,308,1,468.7491,,AggieReverseGeocoder,,4.01,21562009,6216 E KAREN DR,Phoenix,AZ,85254,2517
4808,-111.9767521,33.62594213,8250,GREENWAY RD & TATUM BLVD,Phoenix,,-111.9767521,33.62594213,AZ, , , ,309,1,593.7483,,AggieReverseGeocoder,,4.01,21567001F,4801 E GREENWAY RD,Phoenix,AZ,85254,1685
4809,-112.0860107,33.63178476,8251,GREENWAY PKWY & 11TH AVE,Phoenix,,-112.0860107,33.63178476,AZ, , , ,310,1,859.3777,,AggieReverseGeocoder,,4.01,20813278,1119 W LE MARCHE AVE,Phoenix,AZ,85023,4429
4810,-112.0897874,33.62672165,8252,GREENWAY PKWY & 14TH AVE,Phoenix,,-112.0897874,33.62672165,AZ, , , ,311,1,593.75,,AggieReverseGeocoder,,4.01,20813419,1330 W BECK LN,Phoenix,AZ,85023,4455
4811,-112.095994,33.625492,8253,GREENWAY PKWY & 17TH AVE,Phoenix,,-112.095994,33.625492,AZ, , , ,312,1,593.7837,,AggieReverseGeocoder,,4.01,20816547,1849 W GREENWAY RD,Phoenix,AZ,85023,3474
4812,-112.0989727,33.62542431,8254,GREENWAY PKWY & 19TH AVE,Phoenix,,-112.0989727,33.62542431,AZ, , , ,313,1,593.7238,,AggieReverseGeocoder,,4.01,20816547,1849 W GREENWAY RD,Phoenix,AZ,85023,3474
4813,-112.077853,33.632869,8255,GREENWAY PKWY & 3RD AVE,Phoenix,,-112.077853,33.632869,AZ, , , ,314,1,921.8746,,AggieReverseGeocoder,,4.01,20834280,329 W SUMERSET DR,Phoenix,AZ,85023,7425
4814,-112.08264,33.632852,8256,GREENWAY PKWY & 7TH AVE,Phoenix,,-112.08264,33.632852,AZ, , , ,315,1,265.6111,,AggieReverseGeocoder,,4.01,20812016B,16225 N 7TH AVE,Phoenix,AZ,85023,3558
4815,-112.0874353,33.62914102,8257,GREENWAY PKWY & TIERRA BUENA LN,Phoenix,,-112.0874353,33.62914102,AZ, , , ,316,1,859.3769,,AggieReverseGeocoder,,4.01,20813311,1121 W KATHLEEN RD,Phoenix,AZ,85023,4420
4816,-112.1073511,33.62524163,8258,GREENWAY RD & 23RD AVE,Phoenix,,-112.1073511,33.62524163,AZ, , , ,317,1,265.6226,,AggieReverseGeocoder,,4.01,20815009B,2221 W GREENWAY RD,Phoenix,AZ,85023,4312
4817,-112.1130919,33.6251858,8259,GREENWAY RD & 25TH AVE,Phoenix,,-112.1130919,33.6251858,AZ, , , ,318,1,890.6253,,AggieReverseGeocoder,,4.01,20815007U,2525 W GREENWAY RD,Phoenix,AZ,85023,4226
4818,-112.1199329,33.62516374,8260,GREENWAY RD & 29TH AVE,Phoenix,,-112.1199329,33.62516374,AZ, , , ,319,1,937.5025,,AggieReverseGeocoder,,4.01,20706032,2828 W CARIBBEAN LN,Phoenix,AZ,85053,4949
4819,-112.124495,33.624994,8261,GREENWAY RD & 31ST AVE,Phoenix,,-112.124495,33.624994,AZ, , , ,320,1,296.8765,,AggieReverseGeocoder,,4.01,20734147,3039 W GREENWAY RD,Phoenix,AZ,85053,4012
4820,-112.12843,33.62515492,8262,GREENWAY RD & 32ND DR,Phoenix,,-112.12843,33.62515492,AZ, , , ,321,1,671.874,,AggieReverseGeocoder,,4.01,20709075,3231 W GREENWAY RD,Phoenix,AZ,85053,3956
4821,-112.1330645,33.62509503,8263,GREENWAY RD & 35TH AVE,Phoenix,,-112.1330645,33.62509503,AZ, , , ,322,1,734.3754,,AggieReverseGeocoder,,4.01,20709005D,3449 W GREENWAY RD,Phoenix,AZ,85053,3807
4822,-112.137994,33.624993,8264,GREENWAY RD & 37TH DR,Phoenix,,-112.137994,33.624993,AZ, , , ,323,1,312.5007,,AggieReverseGeocoder,,4.01,20710620,3643 W GREENWAY RD,Phoenix,AZ,85053,3810
4823,-112.1418709,33.6250811,8265,GREENWAY RD & 39TH AVE,Phoenix,,-112.1418709,33.6250811,AZ, , , ,324,1,1015.6265,,AggieReverseGeocoder,,4.01,20710265,3855 W GREENWAY RD,Phoenix,AZ,85053,3773
4824,-112.1462287,33.62506905,8266,GREENWAY RD & 41ST AVE,Phoenix,,-112.1462287,33.62506905,AZ, , , ,325,1,1031.2533,,AggieReverseGeocoder,,4.01,20713078,15235 N 41ST AVE,Phoenix,AZ,85053,4525
4825,-112.1504524,33.62498977,8267,GREENWAY RD & 43RD AVE,Phoenix,,-112.1504524,33.62498977,AZ, , , ,326,1,1062.5015,,AggieReverseGeocoder,,4.01,20713117,4243 W GREENWAY RD,Phoenix,AZ,85053,3751
4826,-112.103661,33.625327,8268,GREENWAY RD -- 22ND AVE & 19TH AVE,Phoenix,,-112.103661,33.625327,AZ, , , ,327,1,265.6246,,AggieReverseGeocoder,,4.01,20815009B,2221 W GREENWAY RD,Phoenix,AZ,85023,4312
4827,-112.057494,33.637659,8272,GREENWAY PKWY & 12TH ST,Phoenix,,-112.057494,33.637659,AZ, , , ,328,1,671.8787,,AggieReverseGeocoder,,4.01,21415122,16601 N 12TH ST,Phoenix,AZ,85022,2714
4828,-112.052994,33.636494,8273,GREENWAY PKWY & 14TH ST,Phoenix,,-112.052994,33.636494,AZ, , , ,329,1,671.876,,AggieReverseGeocoder,,4.01,21415122,16601 N 12TH ST,Phoenix,AZ,85022,2714
4829,-112.048661,33.636493,8274,GREENWAY PKWY & 16TH ST,Phoenix,,-112.048661,33.636493,AZ, , , ,330,1,953.1267,,AggieReverseGeocoder,,4.01,21415120A,1500 E GREENWAY PKWY,Phoenix,AZ,85022,2725
4830,-112.044305,33.634744,8275,GREENWAY RD & 18TH ST,Phoenix,,-112.044305,33.634744,AZ, , , ,331,1,937.5006,,AggieReverseGeocoder,,4.01,21420290,1771 E GRANDVIEW RD,Phoenix,AZ,85022,6226
4831,-112.040159,33.633041,8276,GREENWAY PKWY & 20TH ST,Phoenix,,-112.040159,33.633041,AZ, , , ,332,1,937.5015,,AggieReverseGeocoder,,4.01,21420297,1938 E PARADISE LN,Phoenix,AZ,85022,3324
4832,-112.070329,33.636492,8277,GREENWAY PKWY & 3RD ST,Phoenix,,-112.070329,33.636492,AZ, , , ,333,1,890.6243,,AggieReverseGeocoder,,4.01,20812943B,288 E GREENWAY PKWY,Phoenix,AZ,85022,2398
4833,-112.0661821,33.63778617,8278,GREENWAY PKWY & 7TH ST,Phoenix,,-112.0661821,33.63778617,AZ, , , ,334,1,671.8753,,AggieReverseGeocoder,,4.01,20812005D,16220 N 7TH ST,Phoenix,AZ,85022,2600
4834,-112.03133,33.632159,8279,GREENWAY PKWY & CAVE CREEK RD,Phoenix,,-112.03133,33.632159,AZ, , , ,335,1,296.8754,,AggieReverseGeocoder,,4.01,21441004P,16026 N CAVE CREEK RD,Phoenix,AZ,85032,3582
4835,-111.939328,33.625158,8280,GREENWAY PKWY & CLUBGATE DR,Phoenix,,-111.939328,33.625158,AZ, , , ,336,1,468.7514,,AggieReverseGeocoder,,4.01,21559124C,15636 N CLUBGATE DR,Phoenix,AZ,85254,2012
4836,-111.9315415,33.622917,8281,GREENWAY PKWY & KIERLAND BLVD,Phoenix,,-111.9315415,33.622917,AZ, , , ,337,1,609.3772,,AggieReverseGeocoder,,4.01,21542374,6902 E GREENWAY PKWY,Phoenix,AZ,85254,8123
4837,-111.9265292,33.622876,8282,GREENWAY PKWY & SCOTTSDALE RD,Phoenix,,-111.9265292,33.622876,AZ, , , ,338,1,593.7546,,AggieReverseGeocoder,,4.01,21542368,7132 E GREENWAY PKWY,Phoenix,AZ,85254,2162
4838,-112.025329,33.628826,8283,GREENWAY PKWY & WALT ANN LN,Phoenix,,-112.025329,33.628826,AZ, , , ,339,1,687.4996,,AggieReverseGeocoder,,4.01,21440368B,2624 E GREENWAY PKWY,Phoenix,AZ,85032,3601
4839,-112.020517,33.62642,8284,GREENWAY RD & 29TH ST,Phoenix,,-112.020517,33.62642,AZ, , , ,340,1,671.8757,,AggieReverseGeocoder,,4.01,21438007V,2838 E GREENWAY RD,Phoenix,AZ,85032,4410
4840,-112.0141301,33.6264806,8285,GREENWAY RD & 32ND ST,Phoenix,,-112.0141301,33.6264806,AZ, , , ,341,1,625.0013,,AggieReverseGeocoder,,4.01,21437012D,15420 N 32ND ST,Phoenix,AZ,85032,3861
4841,-112.0090248,33.626492,8286,GREENWAY RD & 34TH ST,Phoenix,,-112.0090248,33.626492,AZ, , , ,342,1,265.6292,,AggieReverseGeocoder,,4.01,21435232,3342 E GREENWAY RD,Phoenix,AZ,85032,4532
4842,-112.005165,33.626431,8287,GREENWAY RD & 36TH ST,Phoenix,,-112.005165,33.626431,AZ, , , ,343,1,906.2267,,AggieReverseGeocoder,,4.01,21435073,3549 E BECK LN,Phoenix,AZ,85032,3917
4843,-112.000828,33.626492,8288,GREENWAY RD & 38TH ST,Phoenix,,-112.000828,33.626492,AZ, , , ,344,1,921.8758,,AggieReverseGeocoder,,4.01,21463343,3748 E KAREN DR,Phoenix,AZ,85032,4616
4844,-111.996663,33.626492,8289,GREENWAY RD & 40TH ST,Phoenix,,-111.996663,33.626492,AZ, , , ,345,1,1265.629,,AggieReverseGeocoder,,4.01,21434057A,15410 N 40TH ST,Phoenix,AZ,85032,4026
4845,-111.991163,33.626493,8290,GREENWAY RD & 42ND ST,Phoenix,,-111.991163,33.626493,AZ, , , ,346,1,265.6262,,AggieReverseGeocoder,,4.01,21526028,4138 E GREENWAY RD,Phoenix,AZ,85032,4747
4846,-111.987161,33.626328,8291,GREENWAY RD & 44TH ST,Phoenix,,-111.987161,33.626328,AZ, , , ,347,1,593.7504,,AggieReverseGeocoder,,4.01,21527021,4333 E BECK LN,Phoenix,AZ,85032,4123
4847,-111.982661,33.626248,8292,GREENWAY RD & 46TH ST,Phoenix,,-111.982661,33.626248,AZ, , , ,348,1,609.3721,,AggieReverseGeocoder,,4.01,21528147,15401 N 45TH WAY,Phoenix,AZ,85032,8408
4848,-111.972995,33.626159,8293,GREENWAY RD & 50TH PL,Phoenix,,-111.972995,33.626159,AZ, , , ,349,1,781.2485,,AggieReverseGeocoder,,4.01,21533643,15410 N 50TH PL,Phoenix,AZ,85254,1608
4849,-111.969493,33.626161,8294,GREENWAY RD & 52ND ST,Phoenix,,-111.969493,33.626161,AZ, , , ,350,1,796.8751,,AggieReverseGeocoder,,4.01,21533159,5155 E BECK LN,Phoenix,AZ,85254,1619
4850,-111.962995,33.626149,8295,GREENWAY RD & 54TH WY,Phoenix,,-111.962995,33.626149,AZ, , , ,351,1,781.2521,,AggieReverseGeocoder,,4.01,21534080,5447 E BECK LN,Phoenix,AZ,85254,1727
4851,-111.960817,33.626079,8296,GREENWAY RD & 56TH ST,Phoenix,,-111.960817,33.626079,AZ, , , ,352,1,734.3753,,AggieReverseGeocoder,,4.01,21534305,5527 E BECK LN,Phoenix,AZ,85254,1787
4852,-111.955166,33.626103,8297,GREENWAY RD & 58TH PL,Phoenix,,-111.955166,33.626103,AZ, , , ,353,1,718.7527,,AggieReverseGeocoder,,4.01,21537099,5817 E BECK LN,Phoenix,AZ,85254,1812
4853,-111.95218,33.626112,8298,GREENWAY RD & 60TH ST,Phoenix,,-111.95218,33.626112,AZ, , , ,354,1,718.7504,,AggieReverseGeocoder,,4.01,21537153,15401 N 59TH ST,Phoenix,AZ,85254,1808
4854,-111.947649,33.62614,8299,GREENWAY RD & 62ND ST,Phoenix,,-111.947649,33.62614,AZ, , , ,355,1,203.1244,,AggieReverseGeocoder,,4.01,21538147,15402 N 62ND ST,Phoenix,AZ,85254,1922
4855,-111.943329,33.625993,8300,GREENWAY RD & 64TH ST,Phoenix,,-111.943329,33.625993,AZ, , , ,356,1,468.75,,AggieReverseGeocoder,,4.01,21538001R,6324 E GREENWAY RD,Phoenix,AZ,85254,1911
4856,-111.9785133,33.62624023,8301,GREENWAY RD & TATUM BLVD,Phoenix,,-111.9785133,33.62624023,AZ, , , ,357,1,593.7511,,AggieReverseGeocoder,,4.01,21570010B,15262 N TATUM BLVD,Phoenix,AZ,85032,4815
4857,-112.0867399,33.63149793,8302,GREENWAY PKWY & 11TH AVE,Phoenix,,-112.0867399,33.63149793,AZ, , , ,358,1,859.4176,,AggieReverseGeocoder,,4.01,20813877,16036 N 11TH AVE,Phoenix,AZ,85023,8209
4858,-112.0906198,33.6267595,8303,GREENWAY PKWY & 14TH AVE,Phoenix,,-112.0906198,33.6267595,AZ, , , ,359,1,578.1264,,AggieReverseGeocoder,,4.01,20813794,1201 W WALTANN LN,Phoenix,AZ,85023,4495
4859,-112.095995,33.625827,8304,GREENWAY PKWY & 17TH AVE,Phoenix,,-112.095995,33.625827,AZ, , , ,360,1,265.6271,,AggieReverseGeocoder,,4.01,20813055,15402 N 17TH AVE,Phoenix,AZ,85023,3405
4860,-112.076005,33.633418,8305,GREENWAY PKWY & 1ST DR,Phoenix,,-112.076005,33.633418,AZ, , , ,361,1,875.0034,,AggieReverseGeocoder,,4.01,20834669,16202 N 1ST DR,Phoenix,AZ,85023,7480
4861,-112.078823,33.633109,8306,GREENWAY PKWY & 3RD AVE,Phoenix,,-112.078823,33.633109,AZ, , , ,362,1,859.3761,,AggieReverseGeocoder,,4.01,20834221,305 W BEVERLY LN,Phoenix,AZ,85023,3552
4862,-112.083327,33.632993,8307,GREENWAY PKWY & 7TH AVE,Phoenix,,-112.083327,33.632993,AZ, , , ,363,1,859.3766,,AggieReverseGeocoder,,4.01,20813631,16224 N 9TH PL,Phoenix,AZ,85022,2645
4863,-112.0880899,33.62852538,8308,GREENWAY PKWY & TIERRA BUENA LN,Phoenix,,-112.0880899,33.62852538,AZ, , , ,364,1,593.7501,,AggieReverseGeocoder,,4.01,20813794,1201 W WALTANN LN,Phoenix,AZ,85023,4495
4864,-112.100335,33.625726,8309,GREENWAY RD & 19TH AVE,Phoenix,,-112.100335,33.625726,AZ, , , ,365,1,609.376,,AggieReverseGeocoder,,4.01,20814011,1908 W GREENWAY RD,Phoenix,AZ,85023,4309
4865,-112.1083195,33.62542957,8310,WB W GREENWAY RD FS N 23RD AV N 23RD DR,Phoenix,,-112.1083195,33.62542957,AZ, , , ,366,1,265.6248,,AggieReverseGeocoder,,4.01,20814006A,2302 W GREENWAY RD,Phoenix,AZ,85023,4235
4866,-112.1139581,33.62539248,8311,WB W GREENWAY RD FS N 25TH AV N BLACK CANYON FWY,Phoenix,,-112.1139581,33.62539248,AZ, , , ,367,1,906.2534,,AggieReverseGeocoder,,4.01,20814001R,2510 W GREENWAY RD,Phoenix,AZ,85023,4223
4867,-112.1209095,33.62537837,8312,GREENWAY RD & 29TH AVE,Phoenix,,-112.1209095,33.62537837,AZ, , , ,368,1,937.4995,,AggieReverseGeocoder,,4.01,20739250,15401 N 30TH AVE,Phoenix,AZ,85053,4020
4868,-112.1239075,33.62536943,8313,GREENWAY RD & 31ST AVE,Phoenix,,-112.1239075,33.62536943,AZ, , , ,369,1,921.8774,,AggieReverseGeocoder,,4.01,20739237,3102 W GREENWAY RD,Phoenix,AZ,85053,3911
4869,-112.1297489,33.62536285,8314,GREENWAY RD & 32ND DR,Phoenix,,-112.1297489,33.62536285,AZ, , , ,370,1,703.1285,,AggieReverseGeocoder,,4.01,20744073,3250 W GREENWAY RD,Phoenix,AZ,85053,3915
4870,-112.1344618,33.625393,8315,GREENWAY RD & 35TH AVE,Phoenix,,-112.1344618,33.625393,AZ, , , ,371,1,687.5003,,AggieReverseGeocoder,,4.01,20715027C,3502 W GREENWAY RD,Phoenix,AZ,85053,3847
4871,-112.138839,33.625343,8316,GREENWAY RD & 37TH DR,Phoenix,,-112.138839,33.625343,AZ, , , ,372,1,312.5013,,AggieReverseGeocoder,,4.01,20715012A,3720 W GREENWAY RD,Phoenix,AZ,85053,3703
4872,-112.1429037,33.6252897,8317,GREENWAY RD & 39TH AVE,Phoenix,,-112.1429037,33.6252897,AZ, , , ,373,1,312.5014,,AggieReverseGeocoder,,4.01,20714004,3930 W GREENWAY RD,Phoenix,AZ,85053,3706
4873,-112.1471376,33.62526685,8318,GREENWAY RD & 41ST AVE,Phoenix,,-112.1471376,33.62526685,AZ, , , ,374,1,1015.6274,,AggieReverseGeocoder,,4.01,20714014,4102 W GREENWAY RD,Phoenix,AZ,85053,3708
4874,-112.1517316,33.62527722,8319,GREENWAY RD & 43RD AVE,Phoenix,,-112.1517316,33.62527722,AZ, , , ,375,1,1015.6358,,AggieReverseGeocoder,,4.01,20729086,4312 W GREENWAY RD,Glendale,AZ,85306,3618
4875,-112.15583,33.625248,8320,GREENWAY RD & 45TH CIR,Phoenix,,-112.15583,33.625248,AZ, , , ,376,1,1015.6216,,AggieReverseGeocoder,,4.01,20729014,4502 W GREENWAY RD,Glendale,AZ,85306,3622
4876,-112.160324,33.625261,8321,GREENWAY RD & 47TH AVE,Phoenix,,-112.160324,33.625261,AZ, , , ,377,1,1015.6253,,AggieReverseGeocoder,,4.01,20731084,4701 W GREENWAY RD,Glendale,AZ,85306,3517
4877,-112.1643324,33.62526098,8322,GREENWAY RD & 49TH AVE,Phoenix,,-112.1643324,33.62526098,AZ, , , ,378,1,687.5011,,AggieReverseGeocoder,,4.01,20728009B,4900 W GREENWAY RD,Glendale,AZ,85306,3522
4878,-112.103997,33.625568,8323,GREENWAY RD -- 19TH AVE & 22ND DR,Phoenix,,-112.103997,33.625568,AZ, , , ,379,1,890.6254,,AggieReverseGeocoder,,4.01,20814019A,2046 W GREENWAY RD,Phoenix,AZ,85023,4342
4879,-112.168281,33.625297,8326,51ST AVE & GREENWAY RD,Phoenix,,-112.168281,33.625297,AZ, , , ,380,1,687.5001,,AggieReverseGeocoder,,4.01,20728013C,5034 W GREENWAY RD,Glendale,AZ,85306,3524
4880,-112.099654,33.68440012,8363,19TH AVE & DEER VALLEY RD,Phoenix,,-112.099654,33.68440012,AZ, , , ,381,1,125.0038,,AggieReverseGeocoder,,4.01,20902136A,1550 W DEER VALLEY RD,Cave Creek,AZ,85027,2121
4881,-112.0997389,33.68783822,8364,19TH AVE & ADOBE DR,Phoenix,,-112.0997389,33.68783822,AZ, , , ,382,1,328.1255,,AggieReverseGeocoder,,4.01,20902009H,702 W DEER VALLEY RD,Cave Creek,AZ,85027,2152
4882,-112.0997591,33.69154523,8365,19TH AVE & WILLIAMS DR,Phoenix,,-112.0997591,33.69154523,AZ, , , ,383,1,406.2491,,AggieReverseGeocoder,,4.01,20902146,22601 N 19TH AVE,Cave Creek,AZ,85027,1326
4883,-112.0997609,33.69517073,8366,19TH AVE & PARKSIDE LN,Phoenix,,-112.0997609,33.69517073,AZ, , , ,384,1,343.7533,,AggieReverseGeocoder,,4.01,20902107,1838 W PARKSIDE LN,Cave Creek,AZ,85027,1369
4884,-112.100426,33.698414,8367,PINNACLE PEAK RD & 19TH AVE,Phoenix,,-112.100426,33.698414,AZ, , , ,385,1,359.375,,AggieReverseGeocoder,,4.01,21005933,1900 W PINNACLE PEAK RD,Cave Creek,AZ,85027,1264
4885,-112.1080248,33.70040503,8368,PINNACLE PEAK RD & 23RD AVE,Phoenix,,-112.1080248,33.70040503,AZ, , , ,386,1,281.2525,,AggieReverseGeocoder,,4.01,20903126,2225 W PINNACLE PEAK RD,Cave Creek,AZ,85027,
4886,-112.103913,33.698959,8369,PINNACLE PEAK RD & 21ST WY,Phoenix,,-112.103913,33.698959,AZ, , , ,387,1,343.7486,,AggieReverseGeocoder,,4.01,20903123,2075 W PINNACLE PEAK RD,Cave Creek,AZ,85027,1217
4887,-112.1001122,33.69775468,8370,19TH AVE & PINNACLE PEAK RD,Phoenix,,-112.1001122,33.69775468,AZ, , , ,388,1,343.7492,,AggieReverseGeocoder,,4.01,20903150C,1905 W PINNACLE PEAK RD,Cave Creek,AZ,85027,1254
4888,-112.100061,33.695375,8371,19TH AVE & PARKSIDE LN,Phoenix,,-112.100061,33.695375,AZ, , , ,389,1,359.3741,,AggieReverseGeocoder,,4.01,20903157,1903 W PARKSIDE LN,Cave Creek,AZ,85027,1236
4889,-112.1000531,33.69040326,8372,19TH AVE & WILLIAMS DR,Phoenix,,-112.1000531,33.69040326,AZ, , , ,390,1,343.7499,,AggieReverseGeocoder,,4.01,20905003J,22444 N 19TH AVE,Cave Creek,AZ,85027,2115
4890,-112.1000309,33.68699654,8373,19TH AVE & ADOBE DR,Phoenix,,-112.1000309,33.68699654,AZ, , , ,391,1,328.1314,,AggieReverseGeocoder,,4.01,20905012N,1911 W ADOBE DR,Cave Creek,AZ,85027,2006
4891,-111.926124,33.655301,8403,WB E MAYO BLVD FS N SCOTTSDALE RD,Phoenix,,-111.926124,33.655301,AZ, , , ,392,1,593.7495,,AggieReverseGeocoder,,4.01,21505001F,18777 N SCOTTSDALE RD,Phoenix,AZ,85255,9676
4892,-111.925611,33.65047285,8410,SCOTTSDALE RD & CHAUNCEY LN,Phoenix,,-111.925611,33.65047285,AZ, , , ,393,1,578.1258,,AggieReverseGeocoder,,4.01,21509015D,18012 N SCOTTSDALE RD,Phoenix,AZ,85054,6139
4893,-112.255328,33.483543,8412,91ST AVE & CHEERY LYNN RD,Phoenix,,-112.255328,33.483543,AZ, , , ,394,1,609.3782,,AggieReverseGeocoder,,4.01,10226015,9250 W THOMAS RD,Avondale,AZ,85037,3381
4894,-112.255277,33.486544,8413,91ST AVE & OSBORN RD,Phoenix,,-112.255277,33.486544,AZ, , , ,395,1,484.3769,,AggieReverseGeocoder,,4.01,10226015,9250 W THOMAS RD,Avondale,AZ,85037,3381
4895,-112.255094,33.484192,8414,91ST AVE & CHEERY LYNN RD,Phoenix,,-112.255094,33.484192,AZ, , , ,396,1,624.9993,,AggieReverseGeocoder,,4.01,10223594,3102 N 90TH DR,Avondale,AZ,85037,2947
4896,-112.255095,33.480144,8415,91ST AVE & THOMAS RD,Phoenix,,-112.255095,33.480144,AZ, , , ,397,1,671.8771,,AggieReverseGeocoder,,4.01,10223921,9060 W THOMAS RD,Avondale,AZ,85037,3234
4897,-112.220992,33.479708,8416,SB N 75TH AV FS W THOMAS RD W VIRGINIA,Phoenix,,-112.220992,33.479708,AZ, , , ,398,1,796.8767,,AggieReverseGeocoder,,4.01,10238017A,2820 N 75TH AVE,Avondale,AZ,85035,1206
4898,-112.220728,33.487142,8418,75TH AVE & OSBORN RD,Phoenix,,-112.220728,33.487142,AZ, , , ,399,1,250.0002,,AggieReverseGeocoder,,4.01,10222018,7501 W OSBORN RD,Cave Creek,AZ,85033,3719
4899,-112.22064,33.491031,8419,75TH AVE & WELDON AVE,Phoenix,,-112.22064,33.491031,AZ, , , ,400,1,781.2512,,AggieReverseGeocoder,,4.01,10263044,7502 W WHITTON AVE,Cave Creek,AZ,85033,3725
4900,-112.2206987,33.49400814,8420,75TH AVE & INDIAN SCHOOL RD,Phoenix,,-112.2206987,33.49400814,AZ, , , ,401,1,796.8753,,AggieReverseGeocoder,,4.01,10262145P,4040 N 75TH AVE,Cave Creek,AZ,85033,3727
4901,-112.220655,33.497987,8421,75TH AVE & HEATHERBRAE DR,Phoenix,,-112.220655,33.497987,AZ, , , ,402,1,609.3751,,AggieReverseGeocoder,,4.01,10278169,7501 W HEATHERBRAE DR,Cave Creek,AZ,85033,2411
4902,-112.220625,33.501604,8422,75TH AVE & SELLS DR,Phoenix,,-112.220625,33.501604,AZ, , , ,403,1,562.5014,,AggieReverseGeocoder,,4.01,10278101,7501 W SELLS DR,Cave Creek,AZ,85033,2444
4903,-112.220404,33.49951,8424,75TH AVE & GLENROSA AVE,Phoenix,,-112.220404,33.49951,AZ, , , ,404,1,609.3742,,AggieReverseGeocoder,,4.01,14439063,7432 W GLENROSA AVE,Cave Creek,AZ,85033,2518
4904,-112.2205195,33.49516,8425,75TH AVE & INDIAN SCHOOL RD,Phoenix,,-112.2205195,33.49516,AZ, , , ,405,1,765.6262,,AggieReverseGeocoder,,4.01,14438130,7434 W INDIAN SCHOOL RD,Cave Creek,AZ,85033,3138
4905,-112.22041,33.491744,8426,75TH AVE & WELDON AVE,Phoenix,,-112.22041,33.491744,AZ, , , ,406,1,750.003,,AggieReverseGeocoder,,4.01,10222764,3825 N 75TH AVE,Cave Creek,AZ,85033,3703
4906,-112.2204021,33.4877677,8427,75TH AVE & OSBORN RD,Phoenix,,-112.2204021,33.4877677,AZ, , , ,407,1,734.3765,,AggieReverseGeocoder,,4.01,10221005B,3451 N 75TH AVE,Cave Creek,AZ,85033,
4907,-112.220445,33.484875,8428,75TH AVE & CHEERY LYNN RD,Phoenix,,-112.220445,33.484875,AZ, , , ,408,1,249.9999,,AggieReverseGeocoder,,4.01,10221008,7302 W THOMAS RD,Cave Creek,AZ,85033,5528
4908,-112.220495,33.480593,8429,NB 75TH AVE FS THOMAS,Phoenix,,-112.220495,33.480593,AZ, , , ,409,1,750.0042,,AggieReverseGeocoder,,4.01,10221010A,2929 N 75TH AVE,Cave Creek,AZ,85033,5400
4909,-112.062078,33.637794,8441,GREENWAY PKWY & 9TH ST,Phoenix,,-112.062078,33.637794,AZ, , , ,410,1,296.8745,,AggieReverseGeocoder,,4.01,21416251,850 E GREENWAY PKWY,Phoenix,AZ,85022,6652
4910,-112.169253,33.458128,8443,51ST AVE & ROOSEVELT ST,Phoenix,,-112.169253,33.458128,AZ, , , ,411,1,406.2529,,AggieReverseGeocoder,,4.01,10329009,5101 W ROOSEVELT ST,Phoenix,AZ,85043,2717
4911,-112.169243,33.454626,8444,51ST AVE & FILLMORE ST,Phoenix,,-112.169243,33.454626,AZ, , , ,412,1,421.8752,,AggieReverseGeocoder,,4.01,10329044B,440 N 51ST AVE,Phoenix,AZ,85043,2706
4912,-112.169012,33.451777,8445,51ST AVE & VAN BUREN ST,Phoenix,,-112.169012,33.451777,AZ, , , ,413,1,406.2515,,AggieReverseGeocoder,,4.01,10329026,302 N 51ST AVE,Phoenix,AZ,85043,2704
4913,-112.169029,33.45536,8446,51ST AVE & FILLMORE ST,Phoenix,,-112.169029,33.45536,AZ, , , ,414,1,421.8748,,AggieReverseGeocoder,,4.01,10329058A,620 N 51ST AVE,Phoenix,AZ,85043,2702
4914,-112.0167439,33.37782752,8447,BASELINE RD & 30TH WY,Phoenix,,-112.0167439,33.37782752,AZ, , , ,415,1,484.3764,,AggieReverseGeocoder,,4.01,12296849,7534 S 30TH RUN,Phoenix,AZ,85042,6053
4915,-112.0094078,33.37785848,8448,BASELINE RD & 34TH ST,Phoenix,,-112.0094078,33.37785848,AZ, , , ,416,1,531.2507,,AggieReverseGeocoder,,4.01,30123016A,3401 E BASELINE RD,Phoenix,AZ,85042,7203
4916,-112.0097315,33.37821639,8449,BASELINE RD & 34TH ST,Phoenix,,-112.0097315,33.37821639,AZ, , , ,417,1,531.2513,,AggieReverseGeocoder,,4.01,12297242,3308 E BASELINE RD,Phoenix,AZ,85042,9645
4917,-111.9874573,33.49501922,5691,INDIAN SCHOOL RD & 44TH ST,Phoenix,,-111.9874573,33.49501922,AZ, , , ,418,1,453.1248,,AggieReverseGeocoder,,4.01,17125140A,4350 E INDIAN SCHOOL RD,Maricopa,AZ,85018,5333
4918,-111.9834982,33.49486727,5692,INDIAN SCHOOL RD & 45TH PL,Phoenix,,-111.9834982,33.49486727,AZ, , , ,419,1,468.7535,,AggieReverseGeocoder,,4.01,17142147,4520 E INDIAN SCHOOL RD,Maricopa,AZ,85018,5434
4919,-111.973413,33.49398605,5693,INDIAN SCHOOL RD & 50TH ST,Phoenix,,-111.973413,33.49398605,AZ, , , ,420,1,609.3727,,AggieReverseGeocoder,,4.01,12804099,4955 E INDIAN SCHOOL RD,Maricopa,AZ,85018,5582
4920,-111.9694305,33.4919358,5694,INDIAN SCHOOL RD & 52ND ST,Phoenix,,-111.9694305,33.4919358,AZ, , , ,421,1,609.3805,,AggieReverseGeocoder,,4.01,12809023,3660 N 52ND ST,Maricopa,AZ,85018,6123
4921,-111.9613554,33.48903672,5695,INDIAN SCHOOL RD & 56TH ST,Phoenix,,-111.9613554,33.48903672,AZ, , , ,422,1,578.125,,AggieReverseGeocoder,,4.01,12810022B,5549 E INDIAN SCHOOL RD,Maricopa,AZ,85018,6144
4922,-111.9789978,33.49475199,5698,INDIAN SCHOOL RD & ARCADIA DR,Phoenix,,-111.9789978,33.49475199,AZ, , , ,423,1,453.1246,,AggieReverseGeocoder,,4.01,12701003B,4747 E INDIAN SCHOOL RD,Maricopa,AZ,85018,5417
4923,-111.9520703,33.49064768,5706,INDIAN SCHOOL RD & 60TH ST,Phoenix,,-111.9520703,33.49064768,AZ, , , ,424,1,390.6257,,AggieReverseGeocoder,,4.01,12832005B,3640 N 60TH ST,Maricopa,AZ,85018,6708
4924,-111.9887783,33.32709813,5711,KNOX RD & 44TH ST,Phoenix,,-111.9887783,33.32709813,AZ, , , ,425,1,593.7512,,AggieReverseGeocoder,,4.01,30158637,13030 S 44TH PL,Chandler,AZ,85044,4013
4925,-112.032707,33.537066,5714,LINCOLN DR & SQUAW PEAK DR,Phoenix,,-112.032707,33.537066,AZ, , , ,426,1,624.9975,,AggieReverseGeocoder,,4.01,16443058,2231 E LINCOLN CIR,Avondale,AZ,85016,1210
4926,-112.035006,33.538298,5715,LINCOLN DR & 22ND ST,Phoenix,,-112.035006,33.538298,AZ, , , ,427,1,625.0014,,AggieReverseGeocoder,,4.01,16431026B,2110 E LINCOLN DR,Avondale,AZ,85016,1123
4927,-111.9725,33.668505,5731,MAYO BLVD -- 56TH ST & TATUM BLVD,Phoenix,,-111.9725,33.668505,AZ, , , ,428,1,671.8758,,AggieReverseGeocoder,,4.01,21232960,19801 N TATUM BLVD,Phoenix,AZ,85050,4201
4928,-112.0177748,33.465817,5737,MCDOWELL RD & 30TH ST,Phoenix,,-112.0177748,33.465817,AZ, , , ,429,1,640.625,,AggieReverseGeocoder,,4.01,12027031,2934 E MCDOWELL RD,Tempe,AZ,85008,3619
4929,-112.061207,33.465793,5738,MCDOWELL RD & 10TH ST,Phoenix,,-112.061207,33.465793,AZ, , , ,430,1,890.6276,,AggieReverseGeocoder,,4.01,11732112A,902 E MCDOWELL RD,Phoenix,AZ,85006,2501
4930,-112.0572087,33.465801,5739,MCDOWELL RD & 12TH ST,Phoenix,,-112.0572087,33.465801,AZ, , , ,431,1,625.0002,,AggieReverseGeocoder,,4.01,11725125,1130 E MCDOWELL RD,Phoenix,AZ,85006,2611
4931,-111.999232,33.31932,5817,RAY RD & 40TH PL,Phoenix,,-111.999232,33.31932,AZ, , , ,432,1,625.0293,,AggieReverseGeocoder,,4.01,30601344,4005 E CASSIA WAY,Chandler,AZ,85044,616
4932,-112.0523296,33.465814,5740,MCDOWELL RD & 14TH ST,Phoenix,,-112.0523296,33.465814,AZ, , , ,433,1,671.8755,,AggieReverseGeocoder,,4.01,11724075,1346 E MCDOWELL RD,Phoenix,AZ,85006,2616
4933,-112.048208,33.465824,5741,MCDOWELL RD & 16TH ST,Phoenix,,-112.048208,33.465824,AZ, , , ,434,1,640.6251,,AggieReverseGeocoder,,4.01,11717073,1538 E MCDOWELL RD,Phoenix,AZ,85006,2939
4934,-112.043807,33.465837,5742,MCDOWELL RD & 18TH ST,Phoenix,,-112.043807,33.465837,AZ, , , ,435,1,906.252,,AggieReverseGeocoder,,4.01,11716078,1736 E MCDOWELL RD,Phoenix,AZ,85006,3034
4935,-112.041705,33.465828,5743,MCDOWELL RD & 19TH ST,Phoenix,,-112.041705,33.465828,AZ, , , ,436,1,937.5026,,AggieReverseGeocoder,,4.01,11713102,1836 E MCDOWELL RD,Phoenix,AZ,85006,3051
4936,-112.036062,33.46587155,5744,MCDOWELL RD & 21ST PL,Phoenix,,-112.036062,33.46587155,AZ, , , ,437,1,906.2517,,AggieReverseGeocoder,,4.01,11606083B,2101 E MCDOWELL RD,Phoenix,AZ,85006,2430
4937,-112.033806,33.465824,5745,MCDOWELL RD & 22ND PL,Phoenix,,-112.033806,33.465824,AZ, , , ,438,1,890.6284,,AggieReverseGeocoder,,4.01,11710001C,2222 E MCDOWELL RD,Phoenix,AZ,85006,2466
4938,-112.0307568,33.46589782,5746,MCDOWELL RD & 24TH ST,Phoenix,,-112.0307568,33.46589782,AZ, , , ,439,1,906.2545,,AggieReverseGeocoder,,4.01,11710003D,2346 E MCDOWELL RD,Phoenix,AZ,85006,2440
4939,-112.023506,33.465828,5747,MCDOWELL RD & 27TH PL,Phoenix,,-112.023506,33.465828,AZ, , , ,440,1,921.9035,,AggieReverseGeocoder,,4.01,12029125B,2702 E MCDOWELL RD,Tempe,AZ,85008,3615
4940,-112.0135229,33.4658452,5748,MCDOWELL RD & 32ND ST,Phoenix,,-112.0135229,33.4658452,AZ, , , ,441,1,640.5995,,AggieReverseGeocoder,,4.01,12020067,3144 E MCDOWELL RD,Tempe,AZ,85008,3742
4941,-112.004811,33.465769,5750,MCDOWELL RD & 36TH ST,Phoenix,,-112.004811,33.465769,AZ, , , ,442,1,812.506,,AggieReverseGeocoder,,4.01,12103008A,3551 E MCDOWELL RD,Tempe,AZ,85008,3847
4942,-112.000309,33.465747,5751,MCDOWELL RD & 38TH ST,Phoenix,,-112.000309,33.465747,AZ, , , ,443,1,843.7529,,AggieReverseGeocoder,,4.01,12012106,3730 E MCDOWELL RD,Tempe,AZ,85008,4304
4943,-112.0700633,33.465793,5752,MCDOWELL RD & 3RD ST,Phoenix,,-112.0700633,33.465793,AZ, , , ,444,1,937.5015,,AggieReverseGeocoder,,4.01,11855005D,202 E MCDOWELL RD,Phoenix,AZ,85004,4588
4944,-111.996006,33.465731,5753,MCDOWELL RD & 40TH ST,Phoenix,,-111.996006,33.465731,AZ, , , ,445,1,843.7836,,AggieReverseGeocoder,,4.01,12011044B,3980 E MCDOWELL RD,Tempe,AZ,85008,4308
4945,-111.9928234,33.46574227,5754,MCDOWELL RD & 41ST PL,Phoenix,,-111.9928234,33.46574227,AZ, , , ,446,1,749.9715,,AggieReverseGeocoder,,4.01,12606143,4040 E MCDOWELL RD,Tempe,AZ,85008,4414
4946,-111.987707,33.465799,5755,MCDOWELL RD & 44TH ST,Phoenix,,-111.987707,33.465799,AZ, , , ,447,1,734.3774,,AggieReverseGeocoder,,4.01,12607143,4352 E MCDOWELL RD,Tempe,AZ,85008,4502
4947,-111.9825991,33.465725,5756,MCDOWELL RD & 46TH ST,Phoenix,,-111.9825991,33.465725,AZ, , , ,448,1,453.1263,,AggieReverseGeocoder,,4.01,12610123,1600 N 46TH ST,Tempe,AZ,85008,4108
4948,-111.9791234,33.465727,5757,MCDOWELL RD & 48TH ST,Phoenix,,-111.9791234,33.465727,AZ, , , ,449,1,437.5022,,AggieReverseGeocoder,,4.01,12610128F,4748 E MCDOWELL RD,Tempe,AZ,85008,4510
4949,-111.974705,33.465699,5758,MCDOWELL RD & 50TH ST,Phoenix,,-111.974705,33.465699,AZ, , , ,450,1,453.1274,,AggieReverseGeocoder,,4.01,12619092G,4940 E MCDOWELL RD,Tempe,AZ,85008,4228
4950,-112.067709,33.465785,5760,MCDOWELL RD & 5TH ST,Phoenix,,-112.067709,33.465785,AZ, , , ,451,1,906.2516,,AggieReverseGeocoder,,4.01,11854110,340 E MCDOWELL RD,Phoenix,AZ,85004,1533
4951,-111.944205,33.466069,5761,MCDOWELL RD & 64TH ST,Phoenix,,-111.944205,33.466069,AZ, , , ,452,1,390.6219,,AggieReverseGeocoder,,4.01,12938001A,1802 N 64TH ST,Tempe,AZ,85008,3400
4952,-112.065706,33.465779,5765,MCDOWELL RD & 7TH ST,Phoenix,,-112.065706,33.465779,AZ, , , ,453,1,906.2531,,AggieReverseGeocoder,,4.01,11854111,530 E MCDOWELL RD,Phoenix,AZ,85004,1549
4953,-111.962004,33.465588,5766,MCDOWELL RD & BUSHMASTER BLVD,Phoenix,,-111.962004,33.465588,AZ, , , ,454,1,593.7521,,AggieReverseGeocoder,,4.01,12937006,5644 E MORELAND ST,Tempe,AZ,85008,3453
4954,-112.056733,33.553133,5801,NORTHERN AVE & 12TH ST --WESTBOUND,Phoenix,,-112.056733,33.553133,AZ, , , ,455,1,1718.7461,,AggieReverseGeocoder,,4.01,16009007,1146 E NORTHERN AVE,Phoenix,AZ,85020,4166
4955,-112.048939,33.553963,5802,NORTHERN AVE & 16TH ST --WESTBOUND,Phoenix,,-112.048939,33.553963,AZ, , , ,456,1,1515.6294,,AggieReverseGeocoder,,4.01,16013068,1530 E NORTHERN AVE,Phoenix,AZ,85020,3857
4956,-112.0695737,33.55284743,5803,NORTHERN AVE & 3RD PL --WESTBOUND,Phoenix,,-112.0695737,33.55284743,AZ, , , ,457,1,890.625,,AggieReverseGeocoder,,4.01,16046105,302 E NORTHERN AVE,Phoenix,AZ,85020,4060
4957,-112.065707,33.552798,5804,NORTHERN AVE & 7TH ST --WESTBOUND,Phoenix,,-112.065707,33.552798,AZ, , , ,458,1,1187.5018,,AggieReverseGeocoder,,4.01,16046122,631 E MANZANITA PL,Phoenix,AZ,85020,3666
4958,-112.061003,33.552787,5805,NORTHERN AVE & PUEBLO RD --WESTBOUND,Phoenix,,-112.061003,33.552787,AZ, , , ,459,1,1453.1261,,AggieReverseGeocoder,,4.01,16009078C,1000 E NORTHERN AVE,Phoenix,AZ,85020,4118
4959,-112.052505,33.487498,5811,OSBORN RD & 14TH ST,Phoenix,,-112.052505,33.487498,AZ, , , ,460,1,640.6257,,AggieReverseGeocoder,,4.01,11808038,1364 E OSBORN RD,Phoenix,AZ,85014,5660
4960,-112.048047,33.487421,5812,OSBORN RD & 16TH ST,Phoenix,,-112.048047,33.487421,AZ, , , ,461,1,921.8761,,AggieReverseGeocoder,,4.01,11809122E,3402 N 16TH ST,Avondale,AZ,85016,7119
4961,-111.984413,33.31986,5818,RAY RD & 46TH PL,Phoenix,,-111.984413,33.31986,AZ, , , ,462,1,312.5021,,AggieReverseGeocoder,,4.01,30158009S,13838 S 46TH PL,Chandler,AZ,85044,7800
4962,-111.9810667,33.31996469,5819,RAY RD & 48TH ST,Phoenix,,-111.9810667,33.31996469,AZ, , , ,463,1,187.4989,,AggieReverseGeocoder,,4.01,30158884,4734 E RAY RD,Chandler,AZ,85044,6225
4963,-111.97651,33.319919,5820,RAY RD & 50TH ST,Phoenix,,-111.97651,33.319919,AZ, , , ,464,1,187.5008,,AggieReverseGeocoder,,4.01,30159463,4950 E RAY RD,Chandler,AZ,85044,6422
4964,-111.9927772,33.32008658,5821,RAY RD & RANCH CIR,Phoenix,,-111.9927772,33.32008658,AZ, , , ,465,1,593.7515,,AggieReverseGeocoder,,4.01,30603214,4287 E CASSIA WAY,Chandler,AZ,85044,4653
4965,-112.054304,33.399682,5823,ROESER RD & 12TH WY,Phoenix,,-112.054304,33.399682,AZ, , , ,466,1,453.1259,,AggieReverseGeocoder,,4.01,11353011,1230 E ROESER RD,Phoenix,AZ,85040,3237
4966,-112.050005,33.399698,5824,ROESER RD & 14TH WY,Phoenix,,-112.050005,33.399698,AZ, , , ,467,1,484.3748,,AggieReverseGeocoder,,4.01,11363044,1435 E ROESER RD,Phoenix,AZ,85040,3240
4967,-111.987807,33.399879,5825,ROESER RD & 44TH ST,Phoenix,,-111.987807,33.399879,AZ, , , ,468,1,546.8756,,AggieReverseGeocoder,,4.01,12306055,4313 E COTTON CENTER BLVD,Phoenix,AZ,85040,8856
4968,-112.047807,33.399698,5826,ROESER RD & 16TH ST,Phoenix,,-112.047807,33.399698,AZ, , , ,469,1,468.7653,,AggieReverseGeocoder,,4.01,11354017A,5010 S 16TH ST,Phoenix,AZ,85040,2332
4969,-112.043016,33.399711,5827,ROESER RD & 18TH PL,Phoenix,,-112.043016,33.399711,AZ, , , ,470,1,484.3763,,AggieReverseGeocoder,,4.01,12246112C,1640 E ROESER RD,Phoenix,AZ,85040,3370
4970,-112.039012,33.399715,5828,ROESER RD & 20TH ST,Phoenix,,-112.039012,33.399715,AZ, , , ,471,1,343.7504,,AggieReverseGeocoder,,4.01,12245060B,1944 E ROESER RD,Phoenix,AZ,85040,3342
4971,-112.036197,33.399742,5829,ROESER RD & 21ST PL,Phoenix,,-112.036197,33.399742,AZ, , , ,472,1,312.4741,,AggieReverseGeocoder,,4.01,12244110,5044 S 21ST PL,Phoenix,AZ,85040,2525
4972,-112.030715,33.399731,5830,ROESER RD & 24TH ST,Phoenix,,-112.030715,33.399731,AZ, , , ,473,1,328.1298,,AggieReverseGeocoder,,4.01,12207177,2336 E ROESER RD,Phoenix,AZ,85040,3405
4973,-112.024309,33.399748,5831,ROESER RD & 27ST ST,Phoenix,,-112.024309,33.399748,AZ, , , ,474,1,484.375,,AggieReverseGeocoder,,4.01,12255109,2560 E ROESER RD,Phoenix,AZ,85040,3626
4974,-112.021688,33.399772,5832,ROESER RD & 28TH ST,Phoenix,,-112.021688,33.399772,AZ, , , ,475,1,140.6293,,AggieReverseGeocoder,,4.01,12255100,2754 E ROESER RD,Phoenix,AZ,85040,3614
4975,-112.018801,33.399747,5833,ROESER RD & 29TH ST,Phoenix,,-112.018801,33.399747,AZ, , , ,476,1,484.3766,,AggieReverseGeocoder,,4.01,12261101,2854 E ROESER RD,Phoenix,AZ,85040,3705
4976,-112.015803,33.399749,5834,ROESER RD & 31ST ST,Phoenix,,-112.015803,33.399749,AZ, , , ,477,1,515.6287,,AggieReverseGeocoder,,4.01,12260106,2958 E ROESER RD,Phoenix,AZ,85040,3707
4977,-112.013215,33.399746,5835,ROESER RD & 32ND ST,Phoenix,,-112.013215,33.399746,AZ, , , ,478,1,515.6239,,AggieReverseGeocoder,,4.01,12260098B,3156 E ROESER RD,Phoenix,AZ,85040,3709
4978,-112.004502,33.399796,5836,ROESER RD & 36TH ST,Phoenix,,-112.004502,33.399796,AZ, , , ,479,1,359.3752,,AggieReverseGeocoder,,4.01,12272110,3502 E ROESER RD,Phoenix,AZ,85040,3869
4979,-111.999511,33.399822,5837,ROESER RD & 38TH PL,Phoenix,,-111.999511,33.399822,AZ, , , ,480,1,359.3751,,AggieReverseGeocoder,,4.01,12274152A,3814 E ROESER RD,Phoenix,AZ,85040,3970
4980,-111.996202,33.399923,5838,ROESER RD & 40TH ST,Phoenix,,-111.996202,33.399923,AZ, , , ,481,1,171.8746,,AggieReverseGeocoder,,4.01,12274008,3846 E ROESER RD,Phoenix,AZ,85040,9011
4981,-111.9787698,33.399974,5839,ROESER RD & 48TH ST,Phoenix,,-111.9787698,33.399974,AZ, , , ,482,1,546.8763,,AggieReverseGeocoder,,4.01,12305001V,5150 S 48TH ST,Phoenix,AZ,85040,8875
4982,-112.069207,33.399643,5840,ROESER RD & 4TH ST,Phoenix,,-112.069207,33.399643,AZ, , , ,483,1,312.5021,,AggieReverseGeocoder,,4.01,11335970B,330 E ROESER RD,Phoenix,AZ,85040,8714
4983,-112.065304,33.399675,5841,ROESER RD & 7TH ST,Phoenix,,-112.065304,33.399675,AZ, , , ,484,1,328.1239,,AggieReverseGeocoder,,4.01,11345002,615 E ROESER RD,Phoenix,AZ,85040,8719
4984,-112.060507,33.39967,5842,ROESER RD & 9TH ST,Phoenix,,-112.060507,33.39967,AZ, , , ,485,1,437.5,,AggieReverseGeocoder,,4.01,11348063,5060 S 9TH ST,Phoenix,AZ,85040,2244
4985,-112.008309,33.399772,5843,ROESER RD -- 34TH ST & 33RD ST,Phoenix,,-112.008309,33.399772,AZ, , , ,486,1,500.0001,,AggieReverseGeocoder,,4.01,12272028,3422 E ROESER RD,Phoenix,AZ,85040,3877
4986,-112.059306,33.458751,5845,ROOSEVELT ST & 11TH ST,Phoenix,,-112.059306,33.458751,AZ, , , ,487,1,281.249,,AggieReverseGeocoder,,4.01,11628037,1034 E ROOSEVELT ST,Phoenix,AZ,85006,6200
4987,-112.0567589,33.458753,5846,ROOSEVELT ST & 12TH ST,Phoenix,,-112.0567589,33.458753,AZ, , , ,488,1,296.876,,AggieReverseGeocoder,,4.01,11628149,1150 E ROOSEVELT ST,Phoenix,AZ,85006,4121
4988,-112.052306,33.458764,5847,ROOSEVELT ST & 14TH ST,Phoenix,,-112.052306,33.458764,AZ, , , ,489,1,625.0008,,AggieReverseGeocoder,,4.01,11623071,1346 E ROOSEVELT ST,Phoenix,AZ,85006,4107
4989,-112.048305,33.45878,5848,ROOSEVELT ST & 16TH ST,Phoenix,,-112.048305,33.45878,AZ, , , ,490,1,656.2532,,AggieReverseGeocoder,,4.01,11656080C,1534 E ROOSEVELT ST,Phoenix,AZ,85006,3558
4990,-112.0416471,33.45875776,5849,ROOSEVELT ST & 19TH ST,Phoenix,,-112.0416471,33.45875776,AZ, , , ,491,1,921.8817,,AggieReverseGeocoder,,4.01,11612185,1830 E ROOSEVELT ST,Phoenix,AZ,85006,3641
4991,-112.0729738,33.458729,5850,ROOSEVELT ST & 1ST ST,Phoenix,,-112.0729738,33.458729,AZ, , , ,492,1,953.1194,,AggieReverseGeocoder,,4.01,11143029A,924 N 1ST ST,Phoenix,AZ,85004,1901
4992,-112.039305,33.458698,5851,ROOSEVELT ST & 20TH ST,Phoenix,,-112.039305,33.458698,AZ, , , ,493,1,921.8768,,AggieReverseGeocoder,,4.01,11612129B,1942 E ROOSEVELT ST,Phoenix,AZ,85006,4093
4993,-112.0331848,33.45871225,5852,ROOSEVELT ST & 22ND PL,Phoenix,,-112.0331848,33.45871225,AZ, , , ,494,1,875.0426,,AggieReverseGeocoder,,4.01,11604099,2232 E ROOSEVELT ST,Phoenix,AZ,85006,3893
4994,-112.0306977,33.45862737,5853,ROOSEVELT ST & 24TH ST,Phoenix,,-112.0306977,33.45862737,AZ, , , ,495,1,906.253,,AggieReverseGeocoder,,4.01,11603102A,918 N 24TH ST,Tempe,AZ,85008,6019
4995,-112.02731,33.45866,5854,ROOSEVELT ST & 25TH PL,Phoenix,,-112.02731,33.45866,AZ, , , ,496,1,921.8767,,AggieReverseGeocoder,,4.01,12179175,1002 N 25TH PL,Tempe,AZ,85008,4968
4996,-112.0240932,33.458652,5855,ROOSEVELT ST & 27TH ST,Phoenix,,-112.0240932,33.458652,AZ, , , ,497,1,921.8777,,AggieReverseGeocoder,,4.01,12176106,2646 E ROOSEVELT ST,Tempe,AZ,85008,4945
4997,-112.0217885,33.458637,5856,ROOSEVELT ST & 28TH ST,Phoenix,,-112.0217885,33.458637,AZ, , , ,498,1,937.5007,,AggieReverseGeocoder,,4.01,12176122,1002 N 28TH ST,Tempe,AZ,85008,5002
4998,-112.017706,33.458624,5857,ROOSEVELT ST & 30TH ST,Phoenix,,-112.017706,33.458624,AZ, , , ,499,1,687.5011,,AggieReverseGeocoder,,4.01,12175081,2938 E ROOSEVELT ST,Tempe,AZ,85008,5040
4999,-112.013208,33.458617,5858,ROOSEVELT ST & 32ND ST,Phoenix,,-112.013208,33.458617,AZ, , , ,500,1,640.6292,,AggieReverseGeocoder,,4.01,12172132,1002 N 32ND ST,Tempe,AZ,85008,5106
5000,-112.070297,33.458738,5859,ROOSEVELT ST & 3RD ST,Phoenix,,-112.070297,33.458738,AZ, , , ,501,1,1031.252,,AggieReverseGeocoder,,4.01,11136039,220 E ROOSEVELT ST,Phoenix,AZ,85004,1951
5001,-112.066028,33.45874252,5862,ROOSEVELT ST & 7TH ST,Phoenix,,-112.066028,33.45874252,AZ, , , ,502,1,984.3756,,AggieReverseGeocoder,,4.01,11138155,610 E ROOSEVELT ST,Phoenix,AZ,85004,1987
5002,-112.062205,33.458764,5863,ROOSEVELT ST & 9TH ST,Phoenix,,-112.062205,33.458764,AZ, , , ,503,1,968.9262,,AggieReverseGeocoder,,4.01,11632222,932 N 9TH ST,Phoenix,AZ,85006,3218
5003,-112.044813,33.458772,5867,ROOSEVELT ST & PATRICIO ST,Phoenix,,-112.044813,33.458772,AZ, , , ,504,1,687.4606,,AggieReverseGeocoder,,4.01,11615093B,1602 E ROOSEVELT ST,Phoenix,AZ,85006,3678
5004,-112.014693,33.458627,5868,ROOSEVELT ST & 31ST ST,Phoenix,,-112.014693,33.458627,AZ, , , ,505,1,281.249,,AggieReverseGeocoder,,4.01,12172131C,1016 N 32ND ST,Tempe,AZ,85008,5107
5005,-111.9567,33.58261,5870,SHEA BLVD & 58TH ST,Phoenix,,-111.9567,33.58261,AZ, , , ,506,1,765.627,,AggieReverseGeocoder,,4.01,16779045,5740 E SHEA BLVD,Phoenix,AZ,85254,4843
5006,-112.004805,33.582656,5877,SHEA BLVD & 36TH ST,Phoenix,,-112.004805,33.582656,AZ, , , ,507,1,656.2582,,AggieReverseGeocoder,,4.01,16636164,3531 E BECKER LN,New River,AZ,85028,3316
5007,-112.000717,33.582766,5878,SHEA BLVD & 38TH ST,Phoenix,,-112.000717,33.582766,AZ, , , ,508,1,656.2526,,AggieReverseGeocoder,,4.01,16649011,10601 N 37TH WAY,New River,AZ,85028,3412
5008,-111.99643,33.5829039,5879,SHEA BLVD & 40TH ST,Phoenix,,-111.99643,33.5829039,AZ, , , ,509,1,921.8764,,AggieReverseGeocoder,,4.01,16645130,10601 N 39TH WAY,New River,AZ,85028,3420
5009,-111.991175,33.582841,5880,SHEA BLVD & 42ND ST,Phoenix,,-111.991175,33.582841,AZ, , , ,510,1,906.2508,,AggieReverseGeocoder,,4.01,16770165,4140 E SHEA BLVD,New River,AZ,85028,
5010,-111.987021,33.582833,5881,SHEA BLVD & 44TH ST,Phoenix,,-111.987021,33.582833,AZ, , , ,511,1,874.9994,,AggieReverseGeocoder,,4.01,16771078,4344 E SHEA BLVD,New River,AZ,85028,3527
5011,-111.982506,33.58281,5882,SHEA BLVD & 46TH ST,Phoenix,,-111.982506,33.58281,AZ, , , ,512,1,875.0254,,AggieReverseGeocoder,,4.01,16772025,4530 E SHEA BLVD,New River,AZ,85028,6065
5012,-111.971223,33.582805,5883,SHEA BLVD & 51ST PL,Phoenix,,-111.971223,33.582805,AZ, , , ,513,1,578.1022,,AggieReverseGeocoder,,4.01,16775224,5122 E SHEA BLVD,Phoenix,AZ,85254,4622
5013,-111.965303,33.582774,5884,SHEA BLVD & 54TH ST,Phoenix,,-111.965303,33.582774,AZ, , , ,514,1,593.7729,,AggieReverseGeocoder,,4.01,16776055A,5320 E SHEA BLVD,Phoenix,AZ,85254,4793
5014,-111.96131,33.582754,5885,SHEA BLVD & 56TH ST,Phoenix,,-111.96131,33.582754,AZ, , , ,515,1,874.9974,,AggieReverseGeocoder,,4.01,16777003,5540 E SHEA BLVD,Phoenix,AZ,85254,4753
5015,-111.951515,33.582455,5886,SHEA BLVD & 60TH PL,Phoenix,,-111.951515,33.582455,AZ, , , ,516,1,765.6014,,AggieReverseGeocoder,,4.01,16780002,10604 N 60TH PL,Phoenix,AZ,85254,5405
5016,-111.944216,33.582234,5887,SHEA BLVD & 64TH ST,Phoenix,,-111.944216,33.582234,AZ, , , ,517,1,703.1274,,AggieReverseGeocoder,,4.01,16781033,6338 E SHEA BLVD,Phoenix,AZ,85254,5428
5017,-111.9787091,33.58287769,5897,SHEA BLVD & TATUM BLVD,Phoenix,,-111.9787091,33.58287769,AZ, , , ,518,1,265.6261,,AggieReverseGeocoder,,4.01,16773033,4740 E SHEA BLVD,New River,AZ,85028,6086
5018,-112.01931,33.436919,5904,SKY HARBOR AIRPORT - AIRPORT POLICE BLDG,Phoenix,,-112.01931,33.436919,AZ, , , ,519,1,1093.7508,,AggieReverseGeocoder,,4.01,12149002A,2908 E SKY HARBOR BLVD,Phoenix,AZ,85034,4412
5019,-112.056459,33.392328,5908,SOUTHERN AVE & 12TH ST,Phoenix,,-112.056459,33.392328,AZ, , , ,520,1,468.7509,,AggieReverseGeocoder,,4.01,11358117,5837 S 11TH ST,Phoenix,AZ,85040,3178
5020,-112.034934,33.39314866,5909,SOUTHERN AVE & 22ND ST,Phoenix,,-112.034934,33.39314866,AZ, , , ,521,1,328.124,,AggieReverseGeocoder,,4.01,12252322,2125 E HUNTINGTON DR,Phoenix,AZ,85040,3468
5021,-112.021394,33.39362703,5910,SOUTHERN AVE & 27TH PL,Phoenix,,-112.021394,33.39362703,AZ, , , ,522,1,468.7499,,AggieReverseGeocoder,,4.01,12265001,2742 E SOUTHERN AVE,Phoenix,AZ,85040,3622
5022,-111.983201,33.392807,5911,SOUTHERN AVE & 46TH ST,Phoenix,,-111.983201,33.392807,AZ, , , ,523,1,562.5016,,AggieReverseGeocoder,,4.01,12314004,4542 E SOUTHERN AVE,Phoenix,AZ,85042,4013
5023,-112.016999,33.393936,5915,SOUTHERN AVE & OLD SOUTHERN AVE,Phoenix,,-112.016999,33.393936,AZ, , , ,524,1,484.374,,AggieReverseGeocoder,,4.01,12266007A,2960 E SOUTHERN AVE,Phoenix,AZ,85040,3713
5024,-112.0480949,33.39283727,5916,SOUTHERN AVE & 16TH ST,Phoenix,,-112.0480949,33.39283727,AZ, , , ,525,1,468.7539,,AggieReverseGeocoder,,4.01,11362004K,1544 E SOUTHERN AVE,Phoenix,AZ,85040,3532
5025,-112.04281,33.392925,5917,SOUTHERN AVE & 18TH ST,Phoenix,,-112.04281,33.392925,AZ, , , ,526,1,468.7695,,AggieReverseGeocoder,,4.01,12249032,1750 E SOUTHERN AVE,Phoenix,AZ,85040,3353
5026,-112.030802,33.393237,5918,SOUTHERN AVE & 24TH ST,Phoenix,,-112.030802,33.393237,AZ, , , ,527,1,312.4818,,AggieReverseGeocoder,,4.01,12252791,2361 E HUNTINGTON DR,Phoenix,AZ,85040,5407
5027,-112.012961,33.392672,5920,SOUTHERN AVE & 32ND ST,Phoenix,,-112.012961,33.392672,AZ, , , ,528,1,500.0004,,AggieReverseGeocoder,,4.01,12268016A,3136 E SOUTHERN AVE,Phoenix,AZ,85040,3717
5028,-112.007702,33.392621,5922,SOUTHERN AVE & 34TH PL,Phoenix,,-112.007702,33.392621,AZ, , , ,529,1,484.3788,,AggieReverseGeocoder,,4.01,12270047,3402 E SOUTHERN AVE,Phoenix,AZ,85040,3847
5029,-112.004508,33.392637,5923,SOUTHERN AVE & 36TH ST,Phoenix,,-112.004508,33.392637,AZ, , , ,530,1,484.3763,,AggieReverseGeocoder,,4.01,12270006A,3544 E SOUTHERN AVE,Phoenix,AZ,85040,3849
5030,-112.000212,33.392673,5924,SOUTHERN AVE & 38TH ST,Phoenix,,-112.000212,33.392673,AZ, , , ,531,1,359.3753,,AggieReverseGeocoder,,4.01,12276113,3730 E SOUTHERN AVE,Phoenix,AZ,85040,3958
5031,-111.996307,33.392725,5926,SOUTHERN AVE & 40TH ST,Phoenix,,-111.996307,33.392725,AZ, , , ,532,1,375.0005,,AggieReverseGeocoder,,4.01,12276013C,3930 E SOUTHERN AVE,Phoenix,AZ,85040,3962
5032,-111.990989,33.392742,5928,SOUTHERN AVE & 42ND ST,Phoenix,,-111.990989,33.392742,AZ, , , ,533,1,390.6244,,AggieReverseGeocoder,,4.01,12315161,4169 E HUNTINGTON DR,Phoenix,AZ,85040,3929
5033,-111.986707,33.392769,5929,SOUTHERN AVE & 44TH PL,Phoenix,,-111.986707,33.392769,AZ, , , ,534,1,578.127,,AggieReverseGeocoder,,4.01,12314144,5842 S 44TH PL,Phoenix,AZ,85040,4056
5034,-111.978804,33.392828,5930,SOUTHERN AVE & 48TH ST,Phoenix,,-111.978804,33.392828,AZ, , , ,535,1,562.5015,,AggieReverseGeocoder,,4.01,12313003A,4724 E SOUTHERN AVE,Phoenix,AZ,85042,4151
5035,-112.0693943,33.392324,5931,SOUTHERN AVE & 4TH ST,Phoenix,,-112.0693943,33.392324,AZ, , , ,536,1,312.5176,,AggieReverseGeocoder,,4.01,11343010,312 E SOUTHERN AVE,Phoenix,AZ,85040,3044
5036,-112.065494,33.392318,5933,SOUTHERN AVE & 7TH ST,Phoenix,,-112.065494,33.392318,AZ, , , ,537,1,312.4732,,AggieReverseGeocoder,,4.01,11344037,600 E SOUTHERN AVE,Phoenix,AZ,85040,3049
5037,-112.060711,33.392326,5934,SOUTHERN AVE & 9TH ST,Phoenix,,-112.060711,33.392326,AZ, , , ,538,1,703.1282,,AggieReverseGeocoder,,4.01,11357023,850 E SOUTHERN AVE,Phoenix,AZ,85040,3145
5038,-112.050306,33.392799,5966,SOUTHERN AVE & 14TH PL,Phoenix,,-112.050306,33.392799,AZ, , , ,539,1,468.7491,,AggieReverseGeocoder,,4.01,11362088,1429 E HUNTINGTON DR,Phoenix,AZ,85040,3554
5039,-112.0391067,33.39296759,5967,SOUTHERN AVE & 20TH ST,Phoenix,,-112.0391067,33.39296759,AZ, , , ,540,1,328.1238,,AggieReverseGeocoder,,4.01,12250051,1936 E SOUTHERN AVE,Phoenix,AZ,85040,3357
5040,-112.026507,33.393408,5968,SOUTHERN AVE & 25TH ST,Phoenix,,-112.026507,33.393408,AZ, , , ,541,1,312.5298,,AggieReverseGeocoder,,4.01,12253005,5835 S 25TH ST,Phoenix,AZ,85040,3630
5041,-112.056868,33.48031677,5972,THOMAS RD & 12TH ST,Phoenix,,-112.056868,33.48031677,AZ, , , ,542,1,640.5705,,AggieReverseGeocoder,,4.01,11820015,145 E COUNTRY CLUB DR,Phoenix,AZ,85014,5438
5042,-112.015508,33.480525,5973,THOMAS RD & 31ST ST,Phoenix,,-112.015508,33.480525,AZ, , , ,543,1,640.6246,,AggieReverseGeocoder,,4.01,11910047F,3130 E THOMAS RD,Avondale,AZ,85016,8016
5043,-112.0090348,33.48056561,5974,THOMAS RD & 34TH ST,Phoenix,,-112.0090348,33.48056561,AZ, , , ,544,1,921.8779,,AggieReverseGeocoder,,4.01,12731044F,3340 E THOMAS RD,Maricopa,AZ,85018,7303
5044,-112.0600073,33.48028639,5975,THOMAS RD & DAYTON ST,Phoenix,,-112.0600073,33.48028639,AZ, , , ,545,1,624.9765,,AggieReverseGeocoder,,4.01,11820021,77 E COUNTRY CLUB DR,Phoenix,AZ,85014,5436
5045,-111.973307,33.480197,5976,THOMAS RD & ST THERESA,Phoenix,,-111.973307,33.480197,AZ, , , ,546,1,203.1233,,AggieReverseGeocoder,,4.01,12816001B,5000 E THOMAS RD,Maricopa,AZ,85018,7913
5046,-112.0513507,33.48031,5977,THOMAS RD & 14TH ST,Phoenix,,-112.0513507,33.48031,AZ, , , ,547,1,640.627,,AggieReverseGeocoder,,4.01,11814013C,1366 E THOMAS RD,Phoenix,AZ,85014,5738
5047,-112.048001,33.48033911,5978,THOMAS RD & 16TH ST,Phoenix,,-112.048001,33.48033911,AZ, , , ,548,1,953.1257,,AggieReverseGeocoder,,4.01,11813057,2902 N 16TH ST,Avondale,AZ,85016,7606
5048,-112.044189,33.48032814,5979,THOMAS RD & 18TH ST,Phoenix,,-112.044189,33.48032814,AZ, , , ,549,1,281.2487,,AggieReverseGeocoder,,4.01,11933060,1726 E THOMAS RD,Avondale,AZ,85016,7604
5049,-112.0396965,33.48046494,5980,THOMAS RD & SR 51 FWY,Phoenix,,-112.0396965,33.48046494,AZ, , , ,550,1,953.1276,,AggieReverseGeocoder,,4.01,11934072B,1930 E THOMAS RD,Avondale,AZ,85016,7711
5050,-112.0307331,33.48043147,5981,THOMAS RD & 24TH ST,Phoenix,,-112.0307331,33.48043147,AZ, , , ,551,1,296.8761,,AggieReverseGeocoder,,4.01,11917042A,2342 E THOMAS RD,Avondale,AZ,85016,7828
5051,-112.0260893,33.48044215,5982,THOMAS RD & 26TH ST,Phoenix,,-112.0260893,33.48044215,AZ, , , ,552,1,656.2507,,AggieReverseGeocoder,,4.01,11916124,2546 E THOMAS RD,Avondale,AZ,85016,7914
5052,-112.02206,33.48047413,5983,THOMAS RD & 28TH ST,Phoenix,,-112.02206,33.48047413,AZ, , , ,553,1,656.248,,AggieReverseGeocoder,,4.01,11914022,2728 E THOMAS RD,Avondale,AZ,85016,8226
5053,-112.0176096,33.48053703,5984,THOMAS RD & 30TH ST,Phoenix,,-112.0176096,33.48053703,AZ, , , ,554,1,656.2491,,AggieReverseGeocoder,,4.01,11911105,2950 E THOMAS RD,Avondale,AZ,85016,8035
5054,-112.0136724,33.48061361,5985,THOMAS RD & 32ND ST,Phoenix,,-112.0136724,33.48061361,AZ, , , ,555,1,640.6928,,AggieReverseGeocoder,,4.01,11910047F,3130 E THOMAS RD,Avondale,AZ,85016,8016
5055,-112.0046931,33.48057928,5986,THOMAS RD & 36TH ST,Phoenix,,-112.0046931,33.48057928,AZ, , , ,556,1,812.4982,,AggieReverseGeocoder,,4.01,12730038E,3544 E THOMAS RD,Maricopa,AZ,85018,7412
5056,-111.9991206,33.48055155,5987,THOMAS RD & 38TH ST,Phoenix,,-111.9991206,33.48055155,AZ, , , ,557,1,203.1234,,AggieReverseGeocoder,,4.01,12721111,3812 E THOMAS RD,Maricopa,AZ,85018,7510
5057,-112.0699846,33.48029122,5988,THOMAS RD & 3RD ST,Phoenix,,-112.0699846,33.48029122,AZ, , , ,558,1,937.557,,AggieReverseGeocoder,,4.01,11835049,2902 N 3RD ST,Phoenix,AZ,85012,3001
5058,-111.9963639,33.4805131,5989,THOMAS RD & 40TH ST,Phoenix,,-111.9963639,33.4805131,AZ, , , ,559,1,750.0024,,AggieReverseGeocoder,,4.01,12721059,3930 E THOMAS RD,Maricopa,AZ,85018,7512
5059,-111.9915097,33.48046892,5990,THOMAS RD & 42ND ST,Phoenix,,-111.9915097,33.48046892,AZ, , , ,560,1,749.9997,,AggieReverseGeocoder,,4.01,12714106T,4144 E THOMAS RD,Maricopa,AZ,85018,7516
5060,-111.987619,33.48038445,5991,THOMAS RD & 44TH ST,Phoenix,,-111.987619,33.48038445,AZ, , , ,561,1,453.125,,AggieReverseGeocoder,,4.01,12713092G,2902 N 44TH ST,Maricopa,AZ,85018,7204
5061,-111.9829679,33.48028855,5992,THOMAS RD & 46TH ST,Phoenix,,-111.9829679,33.48028855,AZ, , , ,562,1,468.75,,AggieReverseGeocoder,,4.01,12705010E,4550 E THOMAS RD,Maricopa,AZ,85018,7610
5062,-111.970306,33.480198,5993,THOMAS RD & 52ND ST,Phoenix,,-111.970306,33.480198,AZ, , , ,563,1,203.1251,,AggieReverseGeocoder,,4.01,12816007E,5130 E THOMAS RD,Maricopa,AZ,85018,7915
5063,-111.965705,33.480197,5994,THOMAS RD & 54TH ST,Phoenix,,-111.965705,33.480197,AZ, , , ,564,1,640.6259,,AggieReverseGeocoder,,4.01,12824007,5338 E THOMAS RD,Maricopa,AZ,85018,8012
5064,-111.961507,33.480199,5995,THOMAS RD & 56TH ST,Phoenix,,-111.961507,33.480199,AZ, , , ,565,1,203.1238,,AggieReverseGeocoder,,4.01,12825116,5544 E THOMAS RD,Maricopa,AZ,85018,8157
5065,-112.065307,33.480299,5998,THOMAS RD & 7TH ST,Phoenix,,-112.065307,33.480299,AZ, , , ,566,1,937.498,,AggieReverseGeocoder,,4.01,11821041,540 E THOMAS RD,Phoenix,AZ,85012,3204
5066,-112.0348301,33.48037102,6010,THOMAS RD & 22ND ST,Phoenix,,-112.0348301,33.48037102,AZ, , , ,567,1,921.8772,,AggieReverseGeocoder,,4.01,11924042,2150 E THOMAS RD,Avondale,AZ,85016,7824
5067,-111.9792879,33.480197,6012,THOMAS RD & 47TH PL,Phoenix,,-111.9792879,33.480197,AZ, , , ,568,1,453.1281,,AggieReverseGeocoder,,4.01,12704049,4716 E THOMAS RD,Maricopa,AZ,85018,7712
5068,-112.037007,33.480498,6015,THOMAS RD & 21ST ST,Phoenix,,-112.037007,33.480498,AZ, , , ,569,1,937.498,,AggieReverseGeocoder,,4.01,11924044,2036 E THOMAS RD,Avondale,AZ,85016,7713
5069,-111.990805,33.61185,6016,THUNDERBIRD RD & 42ND PL,Phoenix,,-111.990805,33.61185,AZ, , , ,570,1,906.2499,,AggieReverseGeocoder,,4.01,21572643,4217 E LUDLOW DR,Phoenix,AZ,85032,5826
5070,-112.074006,33.607699,6017,THUNDERBIRD RD & 1ST ST,Phoenix,,-112.074006,33.607699,AZ, , , ,571,1,859.3747,,AggieReverseGeocoder,,4.01,15902136A,13402 N 1ST ST,Phoenix,AZ,85022,4702
5071,-112.008235,33.612333,6018,THUNDERBIRD RD & 34TH PL,Phoenix,,-112.008235,33.612333,AZ, , , ,572,1,687.5007,,AggieReverseGeocoder,,4.01,21461299,14002 N 34TH PL,Phoenix,AZ,85032,5309
5072,-112.005312,33.61333,6019,THUNDERBIRD RD & 36TH ST,Phoenix,,-112.005312,33.61333,AZ, , , ,573,1,937.5021,,AggieReverseGeocoder,,4.01,21461423,3538 E THUNDERBIRD RD,Phoenix,AZ,85032,5334
5073,-112.00185,33.612865,6020,THUNDERBIRD RD & 37TH PL,Phoenix,,-112.00185,33.612865,AZ, , , ,574,1,937.501,,AggieReverseGeocoder,,4.01,21462017,3702 E THUNDERBIRD RD,Phoenix,AZ,85032,5707
5074,-112.069507,33.607798,6021,THUNDERBIRD RD & 3RD ST,Phoenix,,-112.069507,33.607798,AZ, , , ,575,1,921.8767,,AggieReverseGeocoder,,4.01,15902284B,13226 N 3RD WAY,Phoenix,AZ,85022,5245
5075,-111.996715,33.61194,6022,THUNDERBIRD RD & 40TH ST,Phoenix,,-111.996715,33.61194,AZ, , , ,576,1,921.8746,,AggieReverseGeocoder,,4.01,21462638A,3868 E THUNDERBIRD RD,Phoenix,AZ,85032,5761
5076,-111.986805,33.611781,6023,THUNDERBIRD RD & 44TH ST,Phoenix,,-111.986805,33.611781,AZ, , , ,577,1,859.3759,,AggieReverseGeocoder,,4.01,21572271,4379 E LUDLOW DR,Phoenix,AZ,85032,5832
5077,-111.982515,33.611695,6024,THUNDERBIRD RD & 46TH ST,Phoenix,,-111.982515,33.611695,AZ, , , ,578,1,609.3944,,AggieReverseGeocoder,,4.01,21569167,4601 E LUDLOW DR,Phoenix,AZ,85032,5578
5078,-112.0656917,33.60779207,6025,THUNDERBIRD RD & 7TH ST,Phoenix,,-112.0656917,33.60779207,AZ, , , ,579,1,296.8736,,AggieReverseGeocoder,,4.01,15902009D,678 E THUNDERBIRD RD,Phoenix,AZ,85022,5231
5079,-112.0384526,33.59711174,6026,THUNDERBIRD RD & CAVE CREEK RD,Phoenix,,-112.0384526,33.59711174,AZ, , , ,580,1,296.8745,,AggieReverseGeocoder,,4.01,16614002B,12218 N CAVE CREEK RD,Phoenix,AZ,85022,5829
5080,-112.0552426,33.60563985,6027,THUNDERBIRD RD & POINTE GOLF CLUB DR,Phoenix,,-112.0552426,33.60563985,AZ, , , ,581,1,640.6255,,AggieReverseGeocoder,,4.01,15901487,1239 E CAPTAIN DREYFUS AVE,Phoenix,AZ,85022,4939
5081,-111.978819,33.611615,6028,THUNDERBIRD RD & TATUM BLVD,Phoenix,,-111.978819,33.611615,AZ, , , ,582,1,578.1265,,AggieReverseGeocoder,,4.01,21569364,4728 E THUNDERBIRD RD,Phoenix,AZ,85032,5541
5082,-111.98615,33.655271,6029,UNION HILLS DR & 44TH ST,Phoenix,,-111.98615,33.655271,AZ, , , ,583,1,593.7481,,AggieReverseGeocoder,,4.01,21514114,4375 E UNION HILLS DR,Phoenix,AZ,85050,3311
5083,-112.061006,33.654959,6030,UNION HILLS DR & 9TH ST,Phoenix,,-112.061006,33.654959,AZ, , , ,584,1,718.7486,,AggieReverseGeocoder,,4.01,21325023,901 E RENEE DR,Phoenix,AZ,85024,2917
5084,-112.057486,33.654963,6031,UNION HILLS DR & 12TH ST,Phoenix,,-112.057486,33.654963,AZ, , , ,585,1,718.7526,,AggieReverseGeocoder,,4.01,21325012,1127 E RENEE DR,Phoenix,AZ,85024,2946
5085,-112.048807,33.654997,6032,UNION HILLS DR & 16TH ST,Phoenix,,-112.048807,33.654997,AZ, , , ,586,1,1093.7486,,AggieReverseGeocoder,,4.01,21324493,18852 N 14TH ST,Phoenix,AZ,85024,2955
5086,-112.040181,33.655088,6033,UNION HILLS DR & 20TH ST,Phoenix,,-112.040181,33.655088,AZ, , , ,587,1,953.1249,,AggieReverseGeocoder,,4.01,21321012,1953 E RENEE DR,Phoenix,AZ,85024,3063
5087,-112.035691,33.655104,6034,UNION HILLS DR & 22ND ST,Phoenix,,-112.035691,33.655104,AZ, , , ,588,1,984.3751,,AggieReverseGeocoder,,4.01,21320184,2151 E ROCKWOOD DR,Phoenix,AZ,85024,3064
5088,-112.022392,33.655201,6035,UNION HILLS DR & 28TH ST,Phoenix,,-112.022392,33.655201,AZ, , , ,589,1,671.8751,,AggieReverseGeocoder,,4.01,21316539,2801 E RENEE DR,Phoenix,AZ,85050,3443
5089,-112.018205,33.655199,6036,UNION HILLS DR & 30TH ST,Phoenix,,-112.018205,33.655199,AZ, , , ,590,1,875.0003,,AggieReverseGeocoder,,4.01,21316037B,18610 N 30TH ST,Phoenix,AZ,85050,3408
5090,-112.014205,33.655199,6038,UNION HILLS DR & 32ND ST,Phoenix,,-112.014205,33.655199,AZ, , , ,591,1,874.8216,,AggieReverseGeocoder,,4.01,21316384A,3196 E UNION HILLS DR,Phoenix,AZ,85050,3426
5091,-112.009447,33.655214,6039,UNION HILLS DR & 34TH ST,Phoenix,,-112.009447,33.655214,AZ, , , ,592,1,906.2501,,AggieReverseGeocoder,,4.01,21315347,3355 E RENEE DR,Phoenix,AZ,85050,3268
5092,-112.005303,33.65525,6040,UNION HILLS DR & 36TH ST,Phoenix,,-112.005303,33.65525,AZ, , , ,593,1,876.4018,,AggieReverseGeocoder,,4.01,21315305,3547 E RENEE DR,Phoenix,AZ,85050,3248
5093,-111.996804,33.655261,6041,UNION HILLS DR & 40TH ST,Phoenix,,-111.996804,33.655261,AZ, , , ,594,1,890.6246,,AggieReverseGeocoder,,4.01,21401881M,18380 N 40TH ST,Phoenix,AZ,85032,1466
5094,-111.990833,33.655339,6042,UNION HILLS DR & 42ND ST,Phoenix,,-111.990833,33.655339,AZ, , , ,595,1,593.7496,,AggieReverseGeocoder,,4.01,21501921,4223 E RENEE DR,Phoenix,AZ,85050,3372
5095,-112.069297,33.654894,6043,UNION HILLS DR & 4TH ST,Phoenix,,-112.069297,33.654894,AZ, , , ,596,1,687.5014,,AggieReverseGeocoder,,4.01,20912444,325 E RENEE DR,Phoenix,AZ,85024,2856
5096,-112.0661165,33.65496895,6044,UNION HILLS DR & 7TH ST,Phoenix,,-112.0661165,33.65496895,AZ, , , ,597,1,703.1242,,AggieReverseGeocoder,,4.01,20912454,545 E RENEE DR,Phoenix,AZ,85024,2852
5097,-112.031206,33.655199,6045,UNION HILLS DR & CAVE CREEK RD,Phoenix,,-112.031206,33.655199,AZ, , , ,598,1,281.2493,,AggieReverseGeocoder,,4.01,21320382,2340 E UNION HILLS DR,Phoenix,AZ,85024,3024
5098,-111.977806,33.6553,6046,UNION HILLS DR & TATUM BLVD,Phoenix,,-111.977806,33.6553,AZ, , , ,599,1,765.6296,,AggieReverseGeocoder,,4.01,21501003F,4750 E UNION HILLS DR,Phoenix,AZ,85050,3363
5099,-112.044706,33.654998,6047,UNION HILLS DR -- 19TH ST & 16TH WY,Phoenix,,-112.044706,33.654998,AZ, , , ,600,1,953.1289,,AggieReverseGeocoder,,4.01,21321003A,1700 E UNION HILLS DR,Phoenix,AZ,85024,3033
5100,-112.027305,33.655199,6048,UNION HILLS DR & 25TH PL,Phoenix,,-112.027305,33.655199,AZ, , , ,601,1,281.2521,,AggieReverseGeocoder,,4.01,21319087,2541 E JASON DR,Phoenix,AZ,85050,3131
5101,-111.981667,33.655339,6049,UNION HILLS DR & 45TH WY,Phoenix,,-111.981667,33.655339,AZ, , , ,602,1,593.7511,,AggieReverseGeocoder,,4.01,21501003D,4750 E UNION HILLS DR,Phoenix,AZ,85050,3363
5102,-112.003572,33.420339,6081,UNIVERSITY DR & 36TH ST,Phoenix,,-112.003572,33.420339,AZ, , , ,603,1,359.374,,AggieReverseGeocoder,,4.01,12203034,2860 S 36TH ST,Phoenix,AZ,85034,7237
5103,-112.000306,33.421998,6082,UNIVERSITY DR & 38TH ST,Phoenix,,-112.000306,33.421998,AZ, , , ,604,1,359.3762,,AggieReverseGeocoder,,4.01,12203046,3732 E UNIVERSITY DR,Phoenix,AZ,85034,7212
5104,-111.996206,33.421998,6083,UNIVERSITY DR & 40TH ST,Phoenix,,-111.996206,33.421998,AZ, , , ,605,1,406.2508,,AggieReverseGeocoder,,4.01,12203051,3922 E UNIVERSITY DR,Phoenix,AZ,85034,7223
5105,-111.991807,33.421998,6084,UNIVERSITY DR & 42ND ST,Phoenix,,-111.991807,33.421998,AZ, , , ,606,1,156.249,,AggieReverseGeocoder,,4.01,12447038,4130 E UNIVERSITY DR,Phoenix,AZ,85034,7314
5106,-111.987006,33.421998,6085,UNIVERSITY DR & 44TH ST,Phoenix,,-111.987006,33.421998,AZ, , , ,607,1,531.2498,,AggieReverseGeocoder,,4.01,12446042,4402 E UNIVERSITY DR,Phoenix,AZ,85034,7404
5107,-111.981706,33.421998,6086,UNIVERSITY DR & 47TH ST,Phoenix,,-111.981706,33.421998,AZ, , , ,608,1,593.7546,,AggieReverseGeocoder,,4.01,12444015A,4636 E UNIVERSITY DR,Phoenix,AZ,85034,7418
5108,-112.007007,33.417008,6101,UNIVERSITY DR -- 35TH ST & ELWOOD ST,Phoenix,,-112.007007,33.417008,AZ, , , ,609,1,343.7485,,AggieReverseGeocoder,,4.01,12203016B,3420 E UNIVERSITY DR,Phoenix,AZ,85034,7200
5109,-111.9614477,33.45110827,6106,VAN BUREN ST & 56TH ST,Phoenix,,-111.9614477,33.45110827,AZ, , , ,610,1,1046.8775,,AggieReverseGeocoder,,4.01,12418032,5555 E VAN BUREN ST,Tempe,AZ,85008,3411
5110,-112.0351137,33.45151182,6107,VAN BUREN ST & 22ND ST,Phoenix,,-112.0351137,33.45151182,AZ, , , ,611,1,281.2473,,AggieReverseGeocoder,,4.01,11601082B,2160 E VAN BUREN ST,Phoenix,AZ,85006,3948
5111,-112.059638,33.451407,6108,VAN BUREN ST & 11TH ST,Phoenix,,-112.059638,33.451407,AZ, , , ,612,1,937.5018,,AggieReverseGeocoder,,4.01,11657025,958 E VAN BUREN ST,Phoenix,AZ,85006,3368
5112,-112.052412,33.451451,6109,VAN BUREN ST & 14TH ST,Phoenix,,-112.052412,33.451451,AZ, , , ,613,1,640.6255,,AggieReverseGeocoder,,4.01,11645001A,1349 E VAN BUREN ST,Phoenix,AZ,85006,3439
5113,-112.048206,33.451499,6110,VAN BUREN ST & 16TH ST,Phoenix,,-112.048206,33.451499,AZ, , , ,614,1,609.3753,,AggieReverseGeocoder,,4.01,11618023,1518 E VAN BUREN ST,Phoenix,AZ,85006,3524
5114,-112.043806,33.451498,6111,VAN BUREN ST & 18TH ST,Phoenix,,-112.043806,33.451498,AZ, , , ,615,1,640.6317,,AggieReverseGeocoder,,4.01,11617156B,300 N 18TH ST,Phoenix,AZ,85006,4103
5115,-112.0415788,33.45152292,6112,VAN BUREN ST & 19TH ST,Phoenix,,-112.0415788,33.45152292,AZ, , , ,616,1,734.3545,,AggieReverseGeocoder,,4.01,11503001A,1875 E VAN BUREN ST,Phoenix,AZ,85006,3743
5116,-112.0393431,33.451497,6113,VAN BUREN ST & 20TH ST,Phoenix,,-112.0393431,33.451497,AZ, , , ,617,1,890.626,,AggieReverseGeocoder,,4.01,11610001A,1934 E VAN BUREN ST,Phoenix,AZ,85006,3754
5117,-112.0307543,33.45142884,6114,VAN BUREN ST & 24TH ST,Phoenix,,-112.0307543,33.45142884,AZ, , , ,618,1,874.9991,,AggieReverseGeocoder,,4.01,11602039E,330 N 24TH ST,Tempe,AZ,85008,6012
5118,-112.151544,33.495815,2342,43RD AVE & INDIAN SCHOOL RD,Phoenix,,-112.151544,33.495815,AZ, , , ,619,1,656.2519,,AggieReverseGeocoder,,4.01,10714010E,4129 N 43RD AVE,Glendale,AZ,85031,2105
5119,-112.151166,33.607275,2343,43RD AVE & JOAN DE ARC AVE,Phoenix,,-112.151166,33.607275,AZ, , , ,620,1,1000.0049,,AggieReverseGeocoder,,4.01,14926006E,13421 N 43RD AVE,Glendale,AZ,85029,1043
5120,-112.151551,33.637709,2344,43RD AVE & JUNIPER AVE,Phoenix,,-112.151551,33.637709,AZ, , , ,621,1,1281.2529,,AggieReverseGeocoder,,4.01,20717006G,16637 N 43RD AVE,Phoenix,AZ,85053,2707
5121,-112.1511696,33.6003428,2345,43RD AVE & LARKSPUR DR,Phoenix,,-112.1511696,33.6003428,AZ, , , ,622,1,968.7573,,AggieReverseGeocoder,,4.01,14927085,12610 N 42ND DR,Glendale,AZ,85029,1915
5122,-112.151306,33.531698,2346,43RD AVE & MARYLAND AVE,Phoenix,,-112.151306,33.531698,AZ, , , ,623,1,1109.3786,,AggieReverseGeocoder,,4.01,14627002J,6546 N 43RD AVE,Peoria,AZ,85301,4203
5123,-112.1516263,33.46667567,2347,43RD AVE & MCDOWELL RD,Phoenix,,-112.1516263,33.46667567,AZ, , , ,624,1,656.2497,,AggieReverseGeocoder,,4.01,10321001V,1616 N 43RD AVE,Avondale,AZ,85009,2052
5124,-112.1514773,33.51342204,2348,43RD AVE & MEDLOCK DR,Phoenix,,-112.1514773,33.51342204,AZ, , , ,625,1,687.5012,,AggieReverseGeocoder,,4.01,14506002,5212 N 43RD AVE,Peoria,AZ,85301,7108
5125,-112.1514472,33.57511309,2349,43RD AVE & MOUNTAIN VIEW RD,Phoenix,,-112.151305,33.574998,AZ, , , ,626,1,312.5031,,AggieReverseGeocoder,,4.01,14937020,4250 W MOUNTAIN VIEW RD,Glendale,AZ,85051,1054
5126,-112.1513328,33.5423813,2350,43RD AVE & MYRTLE AVE,Phoenix,,-112.1513328,33.5423813,AZ, , , ,627,1,687.4989,,AggieReverseGeocoder,,4.01,15118168,4244 W MYRTLE AVE,Glendale,AZ,85051,8140
5127,-112.15149,33.553701,2351,43RD AVE & NORTHERN AVE,Phoenix,,-112.15149,33.553701,AZ, , , ,628,1,687.499,,AggieReverseGeocoder,,4.01,15013003G,8021 N 43RD AVE,Glendale,AZ,85051,5700
5128,-112.1513466,33.5350823,2352,43RD AVE & OCOTILLO RD,Phoenix,,-112.1513466,33.5350823,AZ, , , ,629,1,906.2492,,AggieReverseGeocoder,,4.01,15201057,6701 N 43RD AVE,Phoenix,AZ,85019,1007
5129,-112.151204,33.546199,2353,43RD AVE & ORANGEWOOD AVE,Phoenix,,-112.151204,33.546199,AZ, , , ,630,1,296.874,,AggieReverseGeocoder,,4.01,15130024,4265 W VISTA AVE,Glendale,AZ,85051,7360
5130,-112.1515127,33.48821347,2354,43RD AVE & OSBORN RD,Phoenix,,-112.1515127,33.48821347,AZ, , , ,631,1,671.8741,,AggieReverseGeocoder,,4.01,10728037,4250 W OSBORN RD,Phoenix,AZ,85019,3937
5131,-112.1509099,33.63278633,2355,43RD AVE & PARADISE LN,Phoenix,,-112.1509099,33.63278633,AZ, , , ,632,1,984.3788,,AggieReverseGeocoder,,4.01,20717161,4242 W PARADISE LN,Phoenix,AZ,85053,3777
5132,-112.1513371,33.58317354,2356,43RD AVE & PEORIA AVE,Phoenix,,-112.1513371,33.58317354,AZ, , , ,633,1,984.3793,,AggieReverseGeocoder,,4.01,14934001V,10617 N 43RD AVE,Glendale,AZ,85029,3944
5133,-112.151207,33.593299,2357,43RD AVE & POINSETTIA DR,Phoenix,,-112.151207,33.593299,AZ, , , ,634,1,312.4986,,AggieReverseGeocoder,,4.01,14933208,11814 N 42ND DR,Glendale,AZ,85029,3020
5134,-112.1517236,33.45896,2358,43RD AVE & ROOSEVELT ST,Phoenix,,-112.1517236,33.45896,AZ, , , ,635,1,609.3737,,AggieReverseGeocoder,,4.01,10627001K,1001 N 43RD AVE,Avondale,AZ,85009,7008
5135,-112.151427,33.520509,2359,43RD AVE & SAN MIGUEL AVE,Phoenix,,-112.151427,33.520509,AZ, , , ,636,1,1031.2525,,AggieReverseGeocoder,,4.01,14507162,5701 N 43RD DR,Peoria,AZ,85301,6317
5136,-112.151006,33.604197,2360,43RD AVE & SWEETWATER AVE,Phoenix,,-112.151006,33.604197,AZ, , , ,637,1,296.8744,,AggieReverseGeocoder,,4.01,14926014,13014 N 42ND DR,Glendale,AZ,85029,1918
5137,-112.1515183,33.48090095,2361,43RD AVE & THOMAS RD,Phoenix,,-112.1515183,33.48090095,AZ, , , ,638,1,640.6248,,AggieReverseGeocoder,,4.01,10738128,4296 W THOMAS RD,Phoenix,AZ,85019,4335
5138,-112.1509685,33.6114716,2362,43RD AVE & THUNDERBIRD RD,Phoenix,,-112.1509685,33.6114716,AZ, , , ,639,1,296.8752,,AggieReverseGeocoder,,4.01,20712775A,4132 W BOCA RATON RD,Phoenix,AZ,85053,5337
5139,-112.150923,33.62899765,2363,43RD AVE & TIERRA BUENA LN,Phoenix,,-112.150923,33.62899765,AZ, , , ,640,1,984.3774,,AggieReverseGeocoder,,4.01,20714046,4232 W TIERRA BUENA LN,Phoenix,AZ,85053,3769
5140,-112.151705,33.452297,2364,43RD AVE & VAN BUREN ST,Phoenix,,-112.151705,33.452297,AZ, , , ,641,1,609.377,,AggieReverseGeocoder,,4.01,10602026,475 N 43RD AVE,Avondale,AZ,85009,4196
5141,-112.151507,33.477299,2365,43RD AVE & VIRGINIA AVE,Phoenix,,-112.151507,33.477299,AZ, , , ,642,1,171.8764,,AggieReverseGeocoder,,4.01,10812001V,2636 N 41ST AVE,Avondale,AZ,85009,1121
5142,-112.151505,33.49366092,2366,43RD AVE & FAIRMOUNT AVE,Phoenix,,-112.151505,33.49366092,AZ, , , ,643,1,656.2497,,AggieReverseGeocoder,,4.01,10722043L,4014 N 43RD AVE,Glendale,AZ,85031,2978
5143,-112.151504,33.501798,2367,43RD AVE -- GLENROSA AVE & HIGHLAND AVE,Phoenix,,-112.151504,33.501798,AZ, , , ,644,1,624.9968,,AggieReverseGeocoder,,4.01,10702973,4507 N 43RD AVE,Glendale,AZ,85031,1509
5144,-112.1513485,33.516197,2368,43RD AVE & MISSOURI AVE,Phoenix,,-112.1513485,33.516197,AZ, , , ,645,1,656.251,,AggieReverseGeocoder,,4.01,14508981,5275 N 43RD AVE,Phoenix,AZ,85019,2419
5145,-112.151507,33.49186092,2369,43RD AVE & CLARENDON AVE,Phoenix,,-112.151507,33.49186092,AZ, , , ,646,1,218.7501,,AggieReverseGeocoder,,4.01,10721002X,3821 N 43RD AVE,Glendale,AZ,85031,2942
5146,-111.9869654,33.46231514,2371,44TH ST & BELLEVIEW ST,Phoenix,,-111.9869654,33.46231514,AZ, , , ,647,1,703.1435,,AggieReverseGeocoder,,4.01,12517133A,1425 N 44TH ST,Tempe,AZ,85008,5604
5147,-111.986706,33.505497,2372,44TH ST & CALLE ALEGRE,Phoenix,,-111.986706,33.505497,AZ, , , ,648,1,453.1415,,AggieReverseGeocoder,,4.01,17135048,4410 E CALLE ALLEGRE,Maricopa,AZ,85018,3809
5148,-111.986592,33.510807,2373,44TH ST & CAMELBACK RD,Phoenix,,-111.986592,33.510807,AZ, , , ,649,1,437.4983,,AggieReverseGeocoder,,4.01,17114005R,4440 E CAMELBACK RD,Maricopa,AZ,85018,2832
5149,-111.986736,33.502696,2375,44TH ST & CAMPBELL AVE,Phoenix,,-111.986736,33.502696,AZ, , , ,650,1,437.5512,,AggieReverseGeocoder,,4.01,17120041,4527 N 44TH ST,Maricopa,AZ,85018,4246
5150,-111.98657,33.512497,2376,44TH ST & COLTER ST,Phoenix,,-111.98657,33.512497,AZ, , , ,651,1,437.4771,,AggieReverseGeocoder,,4.01,17114189,4430 E CAMELBACK RD,Maricopa,AZ,85018,2834
5151,-111.986807,33.484697,2377,44TH ST & EARLL DR,Phoenix,,-111.986807,33.484697,AZ, , , ,652,1,187.501,,AggieReverseGeocoder,,4.01,12707033,3117 N 44TH ST,Maricopa,AZ,85018,6451
5152,-111.986707,33.498799,2378,44TH ST & GLENROSA AVE,Phoenix,,-111.986707,33.498799,AZ, , , ,653,1,203.1021,,AggieReverseGeocoder,,4.01,17141001,4402 E GLENROSA AVE,Maricopa,AZ,85018,4321
5153,-111.986832,33.49531033,2379,44TH ST & INDIAN SCHOOL RD,Phoenix,,-111.986832,33.49531033,AZ, , , ,654,1,468.748,,AggieReverseGeocoder,,4.01,17142143A,4111 N 44TH ST,Maricopa,AZ,85018,4216
5154,-111.986807,33.492497,2380,44TH ST & INDIANOLA AVE,Phoenix,,-111.986807,33.492497,AZ, , , ,655,1,453.1242,,AggieReverseGeocoder,,4.01,12709060H,3845 N 44TH ST,Maricopa,AZ,85018,5460
5155,-111.9870183,33.46626239,2381,44TH ST & MCDOWELL RD,Phoenix,,-111.9870183,33.46626239,AZ, , , ,656,1,718.751,,AggieReverseGeocoder,,4.01,12609073F,4410 E MCDOWELL RD,Tempe,AZ,85008,4504
5156,-111.9868912,33.47330763,2382,44TH ST & OAK ST,Phoenix,,-111.9868912,33.47330763,AZ, , , ,657,1,734.3758,,AggieReverseGeocoder,,4.01,12608002K,2301 N 44TH ST,Tempe,AZ,85008,2420
5157,-111.986806,33.487998,2383,44TH ST & OSBORN RD,Phoenix,,-111.986806,33.487998,AZ, , , ,658,1,437.4984,,AggieReverseGeocoder,,4.01,12708039B,3411 N 44TH ST,Maricopa,AZ,85018,6021
5158,-111.986917,33.46956307,2384,44TH ST & PALM LN,Phoenix,,-111.986917,33.46956307,AZ, , , ,659,1,687.5014,,AggieReverseGeocoder,,4.01,12608083,4401 E HUBBELL ST,Tempe,AZ,85008,3228
5159,-111.986304,33.520498,2385,44TH ST & SOLANA DR,Phoenix,,-111.986304,33.520498,AZ, , , ,660,1,187.4991,,AggieReverseGeocoder,,4.01,17116081,5823 N 45TH ST,Maricopa,AZ,85018,1229
5160,-111.986807,33.480698,2386,44TH ST & THOMAS RD,Phoenix,,-111.986807,33.480698,AZ, , , ,661,1,437.4996,,AggieReverseGeocoder,,4.01,12705057,4402 E THOMAS RD,Maricopa,AZ,85018,7608
5161,-111.9869136,33.45153392,2387,44TH ST & VAN BUREN ST,Phoenix,,-111.9869136,33.45153392,AZ, , , ,662,1,1031.2527,,AggieReverseGeocoder,,4.01,12527086,333 N 44TH ST,Tempe,AZ,85008,6567
5162,-111.9869779,33.44873312,2388,44TH ST & WASHINGTON ST,Phoenix,,-111.9869779,33.44873312,AZ, , , ,663,1,1062.5025,,AggieReverseGeocoder,,4.01,12410029A,103 N 44TH ST,Phoenix,AZ,85034,
5163,-111.986807,33.476999,2389,44TH ST & WILSHIRE DR,Phoenix,,-111.986807,33.476999,AZ, , , ,664,1,453.1242,,AggieReverseGeocoder,,4.01,12608133,2601 N 44TH ST,Tempe,AZ,85008,1557
5164,-111.987007,33.4560187,2390,44TH ST & COFCO CENTER ST,Phoenix,,-111.987007,33.4560187,AZ, , , ,665,1,734.3758,,AggieReverseGeocoder,,4.01,12528008,709 N 44TH ST,Tempe,AZ,85008,6504
5165,-111.986499,33.517343,2391,44TH ST & STANFORD DR,Phoenix,,-111.986499,33.517343,AZ, , , ,666,1,453.1251,,AggieReverseGeocoder,,4.01,17150024,5501 N 44TH ST,Maricopa,AZ,85018,1223
5166,-111.9869446,33.45404455,2392,44TH ST & MCKINLEY ST,Phoenix,,-111.9869446,33.45404455,AZ, , , ,667,1,734.3744,,AggieReverseGeocoder,,4.01,12527089,501 N 44TH ST,Tempe,AZ,85008,6526
5167,-112.168376,33.608228,2400,51ST AVE & EUGIE AVE,Phoenix,,-112.168376,33.608228,AZ, , , ,668,1,734.3783,,AggieReverseGeocoder,,4.01,20743001A,4701 W THUNDERBIRD RD,Glendale,AZ,85306,4900
5168,-112.1684997,33.59670823,2402,51ST AVE & CACTUS RD,Phoenix,,-112.1684997,33.59670823,AZ, , , ,669,1,703.1254,,AggieReverseGeocoder,,4.01,20740001M,5060 W CACTUS RD,Avenue B and C,AZ,85304,2237
5169,-112.16886,33.484279,2404,51ST AVE & EARLL DR,Phoenix,,-112.16886,33.484279,AZ, , , ,670,1,437.5032,,AggieReverseGeocoder,,4.01,10745106,3102 N 50TH DR,Glendale,AZ,85031,3503
5170,-112.168524,33.599007,2406,51ST AVE & COLUMBINE DR,Phoenix,,-112.168524,33.599007,AZ, , , ,671,1,734.3759,,AggieReverseGeocoder,,4.01,20740361,12428 N 50TH LN,Avenue B and C,AZ,85304,2006
5171,-112.168955,33.473005,2407,51ST AVE & CYPRESS ST,Phoenix,,-112.168955,33.473005,AZ, , , ,672,1,468.753,,AggieReverseGeocoder,,4.01,10320261,5042 W CYPRESS ST,Avondale,AZ,85035,3942
5172,-112.168762,33.499198,2409,51ST AVE & GLENROSA AVE,Phoenix,,-112.168762,33.499198,AZ, , , ,673,1,421.8762,,AggieReverseGeocoder,,4.01,14521179,4315 N 51ST AVE,Glendale,AZ,85031,1904
5173,-112.1687203,33.49549541,2410,51ST AVE & INDIAN SCHOOL RD,Phoenix,,-112.1687203,33.49549541,AZ, , , ,674,1,406.2504,,AggieReverseGeocoder,,4.01,14524119,5060 W INDIAN SCHOOL RD,Glendale,AZ,85031,2721
5174,-112.1689768,33.46643152,2411,51ST AVE & MCDOWELL RD,Phoenix,,-112.1689768,33.46643152,AZ, , , ,675,1,406.2482,,AggieReverseGeocoder,,4.01,10320003T,5050 W MCDOWELL RD,Avondale,AZ,85035,3932
5175,-112.168841,33.487704,2414,51ST AVE & OSBORN RD,Phoenix,,-112.168841,33.487704,AZ, , , ,676,1,421.874,,AggieReverseGeocoder,,4.01,10745001,5068 W OSBORN RD,Glendale,AZ,85031,3529
5176,-112.1683785,33.60413501,2416,51ST AVE & SWEETWATER AVE,Phoenix,,-112.1683785,33.60413501,AZ, , , ,677,1,703.1491,,AggieReverseGeocoder,,4.01,20743001A,4701 W THUNDERBIRD RD,Glendale,AZ,85306,4900
5177,-112.1688136,33.4811738,2417,51ST AVE & THOMAS RD,Phoenix,,-112.1688136,33.4811738,AZ, , , ,678,1,437.4763,,AggieReverseGeocoder,,4.01,10748073A,2920 N 50TH DR,Glendale,AZ,85031,3531
5178,-112.1688958,33.47674283,2418,51ST AVE & VIRGINIA AVE,Phoenix,,-112.1688958,33.47674283,AZ, , , ,679,1,437.4978,,AggieReverseGeocoder,,4.01,10319143,5064 W VIRGINIA AVE,Avondale,AZ,85035,2048
5179,-112.168978,33.470724,2419,51ST AVE & HOLLY ST,Phoenix,,-112.168978,33.470724,AZ, , , ,680,1,437.4996,,AggieReverseGeocoder,,4.01,10320279,5049 W HOLLY ST,Avondale,AZ,85035,3918
5180,-112.168818,33.491376,2420,51ST AVE & CLARENDON AVE,Phoenix,,-112.168818,33.491376,AZ, , , ,681,1,421.8819,,AggieReverseGeocoder,,4.01,10729036,5031 W CLARENDON AVE,Glendale,AZ,85031,3142
5181,-112.186292,33.506224,2433,59TH AVE & HIGHLAND AVE,Phoenix,,-112.186292,33.506224,AZ, , , ,682,1,656.2498,,AggieReverseGeocoder,,4.01,14450003,5846 W HIGHLAND AVE,Glendale,AZ,85031,1650
5182,-112.1862562,33.48849665,2434,59TH AVE & OSBORN RD,Phoenix,,-112.1862562,33.48849665,AZ, , , ,683,1,656.2515,,AggieReverseGeocoder,,4.01,10305002,5740 W OSBORN RD,Glendale,AZ,85031,
5183,-112.1862871,33.47022026,2435,59TH AVE & PALM LN,Phoenix,,-112.1862871,33.47022026,AZ, , , ,684,1,656.2262,,AggieReverseGeocoder,,4.01,10316587,2011 N 59TH AVE,Avondale,AZ,85035,3632
5184,-112.186204,33.464199,2438,59TH AVE & I-10 FWY,Phoenix,,-112.186204,33.464199,AZ, , , ,685,1,703.1269,,AggieReverseGeocoder,,4.01,10327005G,5821 W MCDOWELL RD,Avondale,AZ,85035,4934
5185,-112.1862866,33.50272995,2445,59TH AVE & CAMPBELL AVE,Phoenix,,-112.1862866,33.50272995,AZ, , , ,686,1,656.2485,,AggieReverseGeocoder,,4.01,14449169,5861 W MINNEZONA AVE,Glendale,AZ,85031,1641
5186,-112.18634,33.492215,2448,59TH AVE & CLARENDON AVE,Phoenix,,-112.18634,33.492215,AZ, , , ,687,1,656.2501,,AggieReverseGeocoder,,4.01,10337048,3815 N 59TH AVE,Cave Creek,AZ,85033,4103
5187,-112.1862851,33.48482596,2453,59TH AVE & EARLL DR,Phoenix,,-112.1862851,33.48482596,AZ, , , ,688,1,656.2529,,AggieReverseGeocoder,,4.01,10342021,5850 W EARLL DR,Glendale,AZ,85031,3225
5188,-112.1862791,33.47374063,2454,59TH AVE & ENCANTO BLVD,Phoenix,,-112.1862791,33.47374063,AZ, , , ,689,1,656.2502,,AggieReverseGeocoder,,4.01,10315499,2308 N 58TH LN,Avondale,AZ,85035,2944
5189,-112.186305,33.455299,2456,59TH AVE & FILLMORE ST,Phoenix,,-112.186305,33.455299,AZ, , , ,690,1,687.5046,,AggieReverseGeocoder,,4.01,10328001G,777 N 59TH AVE,Phoenix,AZ,85043,2578
5190,-112.186328,33.499001,2458,59TH AVE & GLENROSA AVE,Phoenix,,-112.186328,33.499001,AZ, , , ,691,1,656.2521,,AggieReverseGeocoder,,4.01,14446002,4305 N 59TH AVE,Cave Creek,AZ,85033,2817
5191,-112.18633,33.49551447,2462,59TH AVE & INDIAN SCHOOL RD,Phoenix,,-112.18633,33.49551447,AZ, , , ,692,1,671.8738,,AggieReverseGeocoder,,4.01,14447001B,5850 W INDIAN SCHOOL RD,Glendale,AZ,85031,2421
5192,-112.1862646,33.46646708,2464,59TH AVE & MCDOWELL RD,Phoenix,,-112.1862646,33.46646708,AZ, , , ,693,1,750.0029,,AggieReverseGeocoder,,4.01,10316454A,5850 W MCDOWELL RD,Avondale,AZ,85035,4945
5193,-112.186307,33.459199,2477,59TH AVE & ROOSEVELT ST,Phoenix,,-112.186307,33.459199,AZ, , , ,694,1,234.3726,,AggieReverseGeocoder,,4.01,10327055,1021 N 59TH AVE,Phoenix,AZ,85043,1515
5194,-112.186207,33.480997,2483,59TH AVE & THOMAS RD,Phoenix,,-112.186207,33.480997,AZ, , , ,695,1,640.6269,,AggieReverseGeocoder,,4.01,10310003B,5850 W THOMAS RD,Glendale,AZ,85031,3229
5195,-112.186449,33.452009,2485,59TH AVE & VAN BUREN ST,Phoenix,,-112.186449,33.452009,AZ, , , ,696,1,687.5,,AggieReverseGeocoder,,4.01,10328001G,777 N 59TH AVE,Phoenix,AZ,85043,2578
5196,-112.1862773,33.47661801,2486,59TH AVE & VIRGINIA AVE,Phoenix,,-112.1862773,33.47661801,AZ, , , ,697,1,656.25,,AggieReverseGeocoder,,4.01,10315514,2638 N 58TH LN,Avondale,AZ,85035,1733
5197,-112.186306,33.448198,2487,59TH AVE & WASHINGTON ST,Phoenix,,-112.186306,33.448198,AZ, , , ,698,1,234.3755,,AggieReverseGeocoder,,4.01,10404013,1 N 59TH AVE,Phoenix,AZ,85043,3502
5198,-112.0680162,33.45475727,2494,5TH ST & FILLMORE ST,Phoenix,,-112.0680162,33.45475727,AZ, , , ,699,1,906.2507,,AggieReverseGeocoder,,4.01,11146085,606 N 5TH ST,Phoenix,AZ,85004,2145
5199,-112.2030731,33.4997759,2499,67TH AVE & 66TH DR,Phoenix,,-112.2030731,33.4997759,AZ, , , ,700,1,749.9996,,AggieReverseGeocoder,,4.01,14483012,4429 N 66TH DR,Cave Creek,AZ,85033,2716
5200,-112.203335,33.4555,2500,67TH AVE & FILLMORE ST,Phoenix,,-112.203335,33.4555,AZ, , , ,701,1,562.4997,,AggieReverseGeocoder,,4.01,10324099,6644 W FILLMORE ST,Phoenix,AZ,85043,2430
5201,-112.203109,33.502215,2508,67TH AVE & CAMPBELL AVE,Phoenix,,-112.203109,33.502215,AZ, , , ,702,1,796.876,,AggieReverseGeocoder,,4.01,14479148,6701 W CAMPBELL AVE,Cave Creek,AZ,85033,2608
5202,-112.2031115,33.4916194,2509,67TH AVE & CLARENDON AVE,Phoenix,,-112.2031115,33.4916194,AZ, , , ,703,1,734.3765,,AggieReverseGeocoder,,4.01,10221987,3812 N 67TH AVE,Cave Creek,AZ,85033,4036
5203,-112.203214,33.473307,2513,67TH AVE & ENCANTO BLVD,Phoenix,,-112.203214,33.473307,AZ, , , ,704,1,625.0002,,AggieReverseGeocoder,,4.01,10240378,6704 W ENCANTO BLVD,Avondale,AZ,85035,2633
5204,-112.20354,33.441983,2514,67TH AVE & GRANT ST,Phoenix,,-112.20354,33.441983,AZ, , , ,705,1,531.2494,,AggieReverseGeocoder,,4.01,10416002A,710 S 67TH AVE,Phoenix,AZ,85043,4414
5205,-112.203075,33.507005,2516,67TH AVE & HIGHLAND AVE,Phoenix,,-112.203075,33.507005,AZ, , , ,706,1,781.2522,,AggieReverseGeocoder,,4.01,14443340,4735 N 67TH AVE,Cave Creek,AZ,85033,1611
5206,-112.2030884,33.49520041,2517,67TH AVE & INDIAN SCHOOL RD,Phoenix,,-112.2030884,33.49520041,AZ, , , ,707,1,234.3731,,AggieReverseGeocoder,,4.01,14442003,4101 N 67TH AVE,Cave Creek,AZ,85033,3314
5207,-112.2032307,33.46647664,2520,67TH AVE & MCDOWELL RD,Phoenix,,-112.2032307,33.46647664,AZ, , , ,708,1,546.878,,AggieReverseGeocoder,,4.01,10312002C,1601 N 67TH AVE,Avondale,AZ,85035,4753
5208,-112.2031245,33.48797113,2530,67TH AVE & OSBORN RD,Phoenix,,-112.2031245,33.48797113,AZ, , , ,709,1,249.9999,,AggieReverseGeocoder,,4.01,10301091,6602 W OSBORN RD,Cave Creek,AZ,85033,4533
5209,-112.203231,33.469803,2531,67TH AVE & PALM LN,Phoenix,,-112.203231,33.469803,AZ, , , ,710,1,562.5017,,AggieReverseGeocoder,,4.01,10312107,2007 N 67TH AVE,Avondale,AZ,85035,3413
5210,-112.2032121,33.45927273,2535,67TH AVE & ROOSEVELT ST,Phoenix,,-112.2032121,33.45927273,AZ, , , ,711,1,546.8746,,AggieReverseGeocoder,,4.01,10241013S,6741 W LATHAM ST,Phoenix,AZ,85043,1401
5211,-112.2031371,33.48082886,2540,67TH AVE & THOMAS RD,Phoenix,,-112.2031371,33.48082886,AZ, , , ,712,1,562.5235,,AggieReverseGeocoder,,4.01,10302002B,6650 W THOMAS RD,Cave Creek,AZ,85033,5909
5212,-112.2032743,33.45190584,2542,67TH AVE & VAN BUREN ST,Phoenix,,-112.2032743,33.45190584,AZ, , , ,713,1,546.8514,,AggieReverseGeocoder,,4.01,10324003A,6658 W VAN BUREN ST,Phoenix,AZ,85043,5030
5213,-112.082435,33.439497,2611,7TH AVE & HADLEY ST,Phoenix,,-112.082435,33.439497,AZ, , , ,714,1,656.2507,,AggieReverseGeocoder,,4.01,11217037A,809 S 7TH AVE,Phoenix,AZ,85007,3603
5214,-112.203434,33.447563,2545,67TH AVE & ADAMS ST,Phoenix,,-112.203434,33.447563,AZ, , , ,715,1,531.2357,,AggieReverseGeocoder,,4.01,10408103A,125 S 67TH AVE,Phoenix,AZ,85043,3434
5215,-112.203169,33.483801,2547,67TH AVE & EARLL DR,Phoenix,,-112.203169,33.483801,AZ, , , ,716,1,562.5005,,AggieReverseGeocoder,,4.01,10302002E,3017 N 67TH AVE,Cave Creek,AZ,85033,5735
5216,-112.203201,33.476501,2550,67TH AVE & VIRGINIA AVE,Phoenix,,-112.203201,33.476501,AZ, , , ,717,1,562.5004,,AggieReverseGeocoder,,4.01,10240498,6703 W VIRGINIA AVE,Avondale,AZ,85035,1405
5217,-112.2206062,33.47344839,2565,75TH AVE & ENCANTO BLVD,Phoenix,,-112.2206062,33.47344839,AZ, , , ,718,1,734.3762,,AggieReverseGeocoder,,4.01,10238001F,2302 N 75TH AVE,Avondale,AZ,85035,1216
5218,-112.2204081,33.46619364,2567,NB 75TH AVE FS MCDOWELL RD,Phoenix,,-112.2204081,33.46619364,AZ, , , ,719,1,734.3826,,AggieReverseGeocoder,,4.01,10239003K,7424 W MCDOWELL RD,Avondale,AZ,85035,4534
5219,-112.2205209,33.46965365,2568,75TH AVE & PALM LN,Phoenix,,-112.2205209,33.46965365,AZ, , , ,720,1,734.3695,,AggieReverseGeocoder,,4.01,10239349,2008 N 74TH LN,Avondale,AZ,85035,3214
5220,-112.082306,33.430298,2573,7TH AVE & APACHE ST,Phoenix,,-112.082306,33.430298,AZ, , , ,721,1,296.8738,,AggieReverseGeocoder,,4.01,11237139,620 W APACHE ST,Phoenix,AZ,85003,2700
5221,-112.0822813,33.52439194,2574,7TH AVE & BETHANY HOME RD,Phoenix,,-112.0822813,33.52439194,AZ, , , ,722,1,281.251,,AggieReverseGeocoder,,4.01,16132004,540 W BETHANY HOME RD,Phoenix,AZ,85013,1554
5222,-112.0818752,33.40722554,2575,7TH AVE & BROADWAY RD,Phoenix,,-112.0818752,33.40722554,AZ, , , ,723,1,312.4998,,AggieReverseGeocoder,,4.01,11305001A,634 W BROADWAY RD,Phoenix,AZ,85041,2411
5223,-112.0823878,33.43728557,2576,7TH AVE & BUCKEYE RD,Phoenix,,-112.0823878,33.43728557,AZ, , , ,724,1,656.2512,,AggieReverseGeocoder,,4.01,11217142,1017 S 7TH AVE,Phoenix,AZ,85007,3704
5224,-112.082456,33.560505,2577,7TH AVE & BUTLER DR,Phoenix,,-112.082456,33.560505,AZ, , , ,725,1,593.7514,,AggieReverseGeocoder,,4.01,16060096,8501 N 7TH AVE,Phoenix,AZ,85021,4568
5225,-112.0823698,33.50991953,2578,7TH AVE & CAMELBACK RD,Phoenix,,-112.0823698,33.50991953,AZ, , , ,726,1,906.2536,,AggieReverseGeocoder,,4.01,16226010A,5015 N 7TH AVE,Phoenix,AZ,85013,2240
5226,-112.082305,33.502298,2579,7TH AVE & CAMPBELL AVE,Phoenix,,-112.082305,33.502298,AZ, , , ,727,1,906.2536,,AggieReverseGeocoder,,4.01,15534152A,4501 N 7TH AVE,Phoenix,AZ,85013,2906
5227,-112.083005,33.483998,2580,7TH AVE & EARLL DR,Phoenix,,-112.083005,33.483998,AZ, , , ,728,1,921.8757,,AggieReverseGeocoder,,4.01,11838133A,3117 N 7TH AVE,Phoenix,AZ,85013,4106
5228,-112.0824401,33.55756058,2581,7TH AVE & EL CAMINO DR,Phoenix,,-112.0824401,33.55756058,AZ, , , ,729,1,578.1265,,AggieReverseGeocoder,,4.01,16057126,555 W LAS PALMARITAS DR,Phoenix,AZ,85021,5534
5229,-112.081807,33.414199,2582,7TH AVE & ELWOOD ST,Phoenix,,-112.081807,33.414199,AZ, , , ,730,1,312.4985,,AggieReverseGeocoder,,4.01,11302123H,3615 S 7TH AVE,Phoenix,AZ,85041,1244
5230,-112.082706,33.473497,2583,7TH AVE & ENCANTO BLVD,Phoenix,,-112.082706,33.473497,AZ, , , ,731,1,281.2475,,AggieReverseGeocoder,,4.01,11849011,552 W ENCANTO BLVD,Phoenix,AZ,85003,1113
5231,-112.030506,33.620799,2759,CAVE CREEK RD & CLAIRE DR,Phoenix,,-112.030506,33.620799,AZ, , , ,732,1,906.252,,AggieReverseGeocoder,,4.01,21466019A,14811 N CAVE CREEK RD,Phoenix,AZ,85032,4909
5232,-112.082462,33.455204,2584,7TH AVE & FILLMORE ST,Phoenix,,-112.082462,33.455204,AZ, , , ,733,1,656.2515,,AggieReverseGeocoder,,4.01,11139182,609 N 7TH AVE,Phoenix,AZ,85007,2304
5233,-112.082484,33.549501,2585,7TH AVE & FRIER DR,Phoenix,,-112.082484,33.549501,AZ, , , ,734,1,937.5012,,AggieReverseGeocoder,,4.01,16042004A,616 W FRIER DR,Phoenix,AZ,85021,7271
5234,-112.0823221,33.53877301,2586,7TH AVE & GLENDALE AVE,Phoenix,,-112.0823221,33.53877301,AZ, , , ,735,1,1453.1262,,AggieReverseGeocoder,,4.01,16033062,7006 N BARBADOS PL,Phoenix,AZ,85021,8762
5235,-112.0828518,33.49898424,2587,7TH AVE & GLENROSA AVE,Phoenix,,-112.0828518,33.49898424,AZ, , , ,736,1,890.6276,,AggieReverseGeocoder,,4.01,15538089D,4321 N 7TH AVE,Phoenix,AZ,85013,2901
5236,-112.065305,33.622798,2634,7TH ST & COUNTRY GABLES DR,Phoenix,,-112.065305,33.622798,AZ, , , ,737,1,859.3765,,AggieReverseGeocoder,,4.01,21442041,15016 N 7TH PL,Phoenix,AZ,85022,3702
5237,-112.0833614,33.49531318,2588,7TH AVE & INDIAN SCHOOL RD,Phoenix,,-112.0833614,33.49531318,AZ, , , ,738,1,890.6263,,AggieReverseGeocoder,,4.01,15539096,4111 N 7TH AVE,Phoenix,AZ,85013,3071
5238,-112.0832506,33.49233491,2589,7TH AVE & INDIANOLA AVE,Phoenix,,-112.0832506,33.49233491,AZ, , , ,739,1,984.3767,,AggieReverseGeocoder,,4.01,11011080,3839 N 7TH AVE,Phoenix,AZ,85013,3348
5239,-112.081883,33.41115163,2590,7TH AVE & JONES AVE,Phoenix,,-112.081883,33.41115163,AZ, , , ,740,1,296.8764,,AggieReverseGeocoder,,4.01,11302054,634 W JONES AVE,Phoenix,AZ,85041,1218
5240,-112.082304,33.422298,2591,7TH AVE & LOWER BUCKEYE RD,Phoenix,,-112.082304,33.422298,AZ, , , ,741,1,578.1228,,AggieReverseGeocoder,,4.01,11245075,2535 S 7TH AVE,Phoenix,AZ,85007,4501
5241,-112.082344,33.531304,2592,7TH AVE & MARYLAND AVE,Phoenix,,-112.082344,33.531304,AZ, , , ,742,1,890.6267,,AggieReverseGeocoder,,4.01,15625091C,6520 N 7TH AVE,Phoenix,AZ,85013,1158
5242,-112.082307,33.516798,2593,7TH AVE & MISSOURI AVE,Phoenix,,-112.082307,33.516798,AZ, , , ,743,1,281.2495,,AggieReverseGeocoder,,4.01,16229001A,5501 N 7TH AVE,Phoenix,AZ,85013,1756
5243,-112.082364,33.520992,2594,7TH AVE & MONTEBELLO AVE,Phoenix,,-112.082364,33.520992,AZ, , , ,744,1,890.6272,,AggieReverseGeocoder,,4.01,16230069A,624 W MONTEBELLO AVE,Phoenix,AZ,85013,1851
5244,-112.082504,33.553299,2595,7TH AVE & NORTHERN AVE,Phoenix,,-112.082504,33.553299,AZ, , , ,745,1,593.7514,,AggieReverseGeocoder,,4.01,16056032C,520 W NORTHERN AVE,Phoenix,AZ,85021,7217
5245,-112.082443,33.545397,2596,7TH AVE & ORANGEWOOD AVE,Phoenix,,-112.082443,33.545397,AZ, , , ,746,1,1406.2518,,AggieReverseGeocoder,,4.01,16041089,548 W ORANGEWOOD AVE,Phoenix,AZ,85021,7252
5246,-112.083006,33.487997,2597,7TH AVE & OSBORN RD,Phoenix,,-112.083006,33.487997,AZ, , , ,747,1,296.8757,,AggieReverseGeocoder,,4.01,11829001G,520 W OSBORN RD,Phoenix,AZ,85013,3808
5247,-112.082696,33.469702,2598,7TH AVE & PALM LN,Phoenix,,-112.082696,33.469702,AZ, , , ,748,1,875.0025,,AggieReverseGeocoder,,4.01,11850138A,542 W PALM LN,Phoenix,AZ,85003,1130
5248,-112.082397,33.433316,2599,7TH AVE & PIMA ST,Phoenix,,-112.082397,33.433316,AZ, , , ,749,1,734.3749,,AggieReverseGeocoder,,4.01,11236045E,1201 S 7TH AVE,Phoenix,AZ,85007,3913
5249,-112.0819367,33.3996733,2600,7TH AVE & ROESER RD,Phoenix,,-112.0819367,33.3996733,AZ, , , ,750,1,406.2481,,AggieReverseGeocoder,,4.01,11332152A,644 W ROESER RD,Phoenix,AZ,85041,4013
5250,-112.082479,33.459002,2601,7TH AVE & ROOSEVELT ST,Phoenix,,-112.082479,33.459002,AZ, , , ,751,1,656.3029,,AggieReverseGeocoder,,4.01,11132001,616 W ROOSEVELT ST,Phoenix,AZ,85003,1333
5251,-112.082305,33.527797,2602,7TH AVE & ROSE LN,Phoenix,,-112.082305,33.527797,AZ, , , ,752,1,953.0962,,AggieReverseGeocoder,,4.01,16131063C,550 W ROSE LN,Phoenix,AZ,85013,1532
5252,-112.081806,33.392698,2603,7TH AVE & SOUTHERN AVE,Phoenix,,-112.081806,33.392698,AZ, , , ,753,1,421.8762,,AggieReverseGeocoder,,4.01,10582006B,5850 S 7TH AVE,Phoenix,AZ,85041,4802
5253,-112.081806,33.396197,2604,7TH AVE & SUNLAND AVE,Phoenix,,-112.081806,33.396197,AZ, , , ,754,1,140.6498,,AggieReverseGeocoder,,4.01,11338046,5401 S 7TH AVE,Phoenix,AZ,85041,4015
5254,-112.08296,33.480695,2605,7TH AVE & THOMAS RD,Phoenix,,-112.08296,33.480695,AZ, , , ,755,1,921.8191,,AggieReverseGeocoder,,4.01,11841010,2901 N 7TH AVE,Phoenix,AZ,85013,4102
5255,-112.0828255,33.47698484,2606,7TH AVE & VIRGINIA AVE,Phoenix,,-112.0828255,33.47698484,AZ, , , ,756,1,921.8782,,AggieReverseGeocoder,,4.01,11842042,550 W VIRGINIA AVE,Phoenix,AZ,85003,1023
5256,-112.0823477,33.42631697,2607,7TH AVE & WATKINS ST,Phoenix,,-112.0823477,33.42631697,AZ, , , ,757,1,609.3927,,AggieReverseGeocoder,,4.01,11244100,624 W WATKINS RD,Phoenix,AZ,85003,2834
5257,-112.0824083,33.56379465,2608,7TH AVE & WHY WORRY LN,Phoenix,,-112.0824083,33.56379465,AZ, , , ,758,1,249.9824,,AggieReverseGeocoder,,4.01,16060098F,8649 N 7TH AVE,Phoenix,AZ,85021,4570
5258,-112.081896,33.40424115,2609,7TH AVE & WIER AVE,Phoenix,,-112.081896,33.40424115,AZ, , , ,759,1,421.8759,,AggieReverseGeocoder,,4.01,10557029F,710 W TAMARISK ST,Phoenix,AZ,85041,2313
5259,-112.0823555,33.51340899,2610,7TH AVE & COLTER ST,Phoenix,,-112.0823555,33.51340899,AZ, , , ,760,1,906.2529,,AggieReverseGeocoder,,4.01,16227101A,5201 N 7TH AVE,Phoenix,AZ,85013,1924
5260,-112.082306,33.505997,2612,7TH AVE & HIGHLAND AVE,Phoenix,,-112.082306,33.505997,AZ, , , ,761,1,281.2496,,AggieReverseGeocoder,,4.01,15535036A,546 W HIGHLAND AVE,Phoenix,AZ,85013,2735
5261,-112.0823792,33.54223924,2613,7TH AVE & MYRTLE AVE,Phoenix,,-112.0823792,33.54223924,AZ, , , ,762,1,1734.3791,,AggieReverseGeocoder,,4.01,16034007,611 W NORTHVIEW AVE,Phoenix,AZ,85021,8743
5262,-112.082435,33.43596865,2614,7TH AVE -- PIMA ST & BUCKEYE RD,Phoenix,,-112.082435,33.43596865,AZ, , , ,763,1,781.2509,,AggieReverseGeocoder,,4.01,10501073,1250 S 7TH AVE,Phoenix,AZ,85007,3914
5263,-112.082522,33.46251448,2615,7TH AVE & CULVER ST,Phoenix,,-112.082522,33.46251448,AZ, , , ,764,1,671.8748,,AggieReverseGeocoder,,4.01,11131020,538 W CULVER ST,Phoenix,AZ,85003,1231
5264,-112.082306,33.518197,2617,7TH AVE & LUKE AVE,Phoenix,,-112.082306,33.518197,AZ, , , ,765,1,890.6259,,AggieReverseGeocoder,,4.01,16229016A,5545 N 7TH AVE,Phoenix,AZ,85013,1701
5265,-112.0824918,33.4664761,2618,7TH AVE & MCDOWELL RD,Phoenix,,-112.0824918,33.4664761,AZ, , , ,766,1,921.8765,,AggieReverseGeocoder,,4.01,11857138,1613 N 7TH AVE,Phoenix,AZ,85007,1701
5266,-112.082321,33.534742,2619,7TH AVE & OCOTILLO RD,Phoenix,,-112.082321,33.534742,AZ, , , ,767,1,1156.252,,AggieReverseGeocoder,,4.01,16129009A,615 W LAWRENCE RD,Phoenix,AZ,85013,1128
5267,-112.0649817,33.48435404,2620,7TH ST & EARLL DR,Phoenix,,-112.0649817,33.48435404,AZ, , , ,768,1,609.3774,,AggieReverseGeocoder,,4.01,11820051A,88 N COUNTRY CLUB DR,Phoenix,AZ,85014,5441
5268,-112.0653918,33.64457093,2621,7TH ST & HELENA DR,Phoenix,,-112.0653918,33.64457093,AZ, , , ,769,1,640.6275,,AggieReverseGeocoder,,4.01,21413003C,17435 N 7TH ST,Phoenix,AZ,85022,1904
5269,-112.065007,33.54267206,2622,7TH ST & NICOLET AVE,Phoenix,,-112.065007,33.54267206,AZ, , , ,770,1,1140.6257,,AggieReverseGeocoder,,4.01,16019056,7211 N 7TH ST,Phoenix,AZ,85020,5000
5270,-112.0653298,33.62978833,2623,7TH ST & TIERRA BUENA LN,Phoenix,,-112.0653298,33.62978833,AZ, , , ,771,1,656.2526,,AggieReverseGeocoder,,4.01,21417042,15808 N 8TH ST,Phoenix,AZ,85022,3102
5271,-112.065206,33.618698,2624,7TH ST & ACOMA DR,Phoenix,,-112.065206,33.618698,AZ, , , ,772,1,281.274,,AggieReverseGeocoder,,4.01,21442176,14602 N 7TH PL,Phoenix,AZ,85022,3776
5272,-112.065173,33.564699,2625,7TH ST & ALICE AVE,Phoenix,,-112.065173,33.564699,AZ, , , ,773,1,859.3752,,AggieReverseGeocoder,,4.01,16003055,8815 N 7TH ST,Phoenix,AZ,85020,2910
5273,-112.0653382,33.64078732,2626,7TH ST & BELL RD,Phoenix,,-112.0653382,33.64078732,AZ, , , ,774,1,281.2501,,AggieReverseGeocoder,,4.01,21413001L,17015 N 7TH ST,Phoenix,AZ,85022,2404
5274,-112.065005,33.548998,2627,7TH ST & BELMONT AVE,Phoenix,,-112.065005,33.548998,AZ, , , ,775,1,265.6249,,AggieReverseGeocoder,,4.01,16018001,702 E BELMONT AVE,Phoenix,AZ,85020,4105
5275,-112.0648292,33.52412656,2628,7TH ST & BETHANY HOME RD,Phoenix,,-112.0648292,33.52412656,AZ, , , ,776,1,625.0014,,AggieReverseGeocoder,,4.01,16116116,702 E BETHANY HOME RD,Phoenix,AZ,85014,2104
5276,-112.065146,33.56087387,2629,7TH ST & BUTLER DR,Phoenix,,-112.065146,33.56087387,AZ, , , ,777,1,265.6238,,AggieReverseGeocoder,,4.01,16004060B,8501 N 7TH ST,Phoenix,AZ,85020,3108
5277,-112.0648727,33.50949161,2630,7TH ST & CAMELBACK RD,Phoenix,,-112.0648727,33.50949161,AZ, , , ,778,1,281.2527,,AggieReverseGeocoder,,4.01,16216137,710 E CAMELBACK RD,Phoenix,AZ,85014,3657
5278,-112.064806,33.513198,2631,7TH ST & COLTER ST,Phoenix,,-112.064806,33.513198,AZ, , , ,779,1,281.2527,,AggieReverseGeocoder,,4.01,16215081D,5201 N 7TH ST,Phoenix,AZ,85014,2802
5279,-112.065308,33.62622927,2632,7TH ST & CORAL GABLES DR,Phoenix,,-112.065308,33.62622927,AZ, , , ,780,1,890.6301,,AggieReverseGeocoder,,4.01,21417136,801 E BECK LN,Phoenix,AZ,85022,3503
5280,-112.0651452,33.55680635,2633,7TH ST & CORTE ORO,Phoenix,,-112.0651452,33.55680635,AZ, , , ,781,1,843.7473,,AggieReverseGeocoder,,4.01,16047101,8202 N 7TH ST,Phoenix,AZ,85020,6709
5281,-112.0650596,33.56865554,2635,7TH ST & DUNLAP AVE,Phoenix,,-112.0650596,33.56865554,AZ, , , ,782,1,843.7509,,AggieReverseGeocoder,,4.01,15936154,9111 N 7TH ST,Phoenix,AZ,85020,2515
5282,-112.065107,33.454995,2636,7TH ST & FILLMORE ST,Phoenix,,-112.065107,33.454995,AZ, , , ,783,1,906.2515,,AggieReverseGeocoder,,4.01,11632192A,617 N 7TH ST,Phoenix,AZ,85006,3669
5283,-112.0650014,33.53856299,2637,7TH ST & GLENDALE AVE,Phoenix,,-112.0650014,33.53856299,AZ, , , ,784,1,859.3721,,AggieReverseGeocoder,,4.01,16029089B,742 E GLENDALE AVE,Phoenix,AZ,85020,5345
5284,-112.0649875,33.46859395,2638,7TH ST & GRANADA RD,Phoenix,,-112.0649875,33.46859395,AZ, , , ,785,1,890.6303,,AggieReverseGeocoder,,4.01,11732001,1817 N 7TH ST,Phoenix,AZ,85006,2133
5285,-112.0652915,33.63822156,2639,7TH ST & GREENWAY PKWY,Phoenix,,-112.0652915,33.63822156,AZ, , , ,786,1,640.6244,,AggieReverseGeocoder,,4.01,21416235,704 E GREENWAY PKWY,Phoenix,AZ,85022,6653
5286,-112.0654099,33.64795013,2640,7TH ST & GROVERS AVE,Phoenix,,-112.0654099,33.64795013,AZ, , , ,787,1,640.6263,,AggieReverseGeocoder,,4.01,21412003A,1150 E GROVERS AVE,Phoenix,AZ,85022,1901
5287,-112.0650603,33.57167365,2641,7TH ST & HATCHER RD,Phoenix,,-112.0650603,33.57167365,AZ, , , ,788,1,250.0018,,AggieReverseGeocoder,,4.01,15937029A,9401 N 7TH ST,Phoenix,AZ,85020,2101
5288,-112.0652507,33.61531475,2642,7TH ST & HEARN RD,Phoenix,,-112.0652507,33.61531475,AZ, , , ,789,1,875.0012,,AggieReverseGeocoder,,4.01,21443001C,14225 N 7TH ST,Phoenix,AZ,85022,4304
5289,-112.064944,33.50600889,2643,7TH ST & HIGHLAND AVE,Phoenix,,-112.064944,33.50600889,AZ, , , ,790,1,640.6292,,AggieReverseGeocoder,,4.01,15521056,4711 N 7TH ST,Phoenix,AZ,85014,3645
5290,-112.0648652,33.49516209,2644,7TH ST & INDIAN SCHOOL RD,Phoenix,,-112.0648652,33.49516209,AZ, , , ,791,1,640.6527,,AggieReverseGeocoder,,4.01,15517077A,4119 N 7TH ST,Phoenix,AZ,85014,4610
5291,-112.0651364,33.55883264,2645,7TH ST & LAS PALMARITAS DR,Phoenix,,-112.0651364,33.55883264,AZ, , , ,792,1,890.6007,,AggieReverseGeocoder,,4.01,16007143,8233 N 7TH ST,Phoenix,AZ,85020,3768
5292,-112.064951,33.53120128,2646,7TH ST & MARYLAND AVE,Phoenix,,-112.064951,33.53120128,AZ, , , ,793,1,625.0025,,AggieReverseGeocoder,,4.01,16105039B,6505 N 7TH ST,Phoenix,AZ,85014,1257
5293,-112.06497,33.46607508,2647,7TH ST & MCDOWELL RD,Phoenix,,-112.06497,33.46607508,AZ, , , ,794,1,1000.0149,,AggieReverseGeocoder,,4.01,11732092A,1601 N 7TH ST,Phoenix,AZ,85006,2210
5294,-112.0654126,33.65100213,2648,7TH ST & MICHELLE DR,Phoenix,,-112.0654126,33.65100213,AZ, , , ,795,1,718.757,,AggieReverseGeocoder,,4.01,21412117,702 E VILLA RITA DR,Phoenix,AZ,85022,1151
5295,-112.064865,33.51705714,2649,7TH ST & MISSOURI AVE,Phoenix,,-112.064865,33.51705714,AZ, , , ,796,1,281.2497,,AggieReverseGeocoder,,4.01,16207046B,5509 N 7TH ST,Phoenix,AZ,85014,2502
5296,-112.064805,33.520498,2650,7TH ST & MONTEBELLO AVE,Phoenix,,-112.064805,33.520498,AZ, , , ,797,1,281.2491,,AggieReverseGeocoder,,4.01,16206042B,5709 N 7TH ST,Phoenix,AZ,85014,5802
5297,-112.0650352,33.57552773,2651,7TH ST & MOUNTAIN VIEW RD,Phoenix,,-112.0650352,33.57552773,AZ, , , ,798,1,921.878,,AggieReverseGeocoder,,4.01,15940086B,9801 N 7TH ST,Phoenix,AZ,85020,1701
5298,-112.0650707,33.55304147,2652,7TH ST & NORTHERN AVE,Phoenix,,-112.0650707,33.55304147,AZ, , , ,799,1,1171.8777,,AggieReverseGeocoder,,4.01,16046127,635 E MANZANITA PL,Phoenix,AZ,85020,3666
5299,-112.0649938,33.47338004,2653,7TH ST & OAK ST,Phoenix,,-112.0649938,33.47338004,AZ, , , ,800,1,953.1263,,AggieReverseGeocoder,,4.01,11730137A,2305 N 7TH ST,Phoenix,AZ,85006,1607
5300,-112.0649319,33.534998,2654,7TH ST & OCOTILLO RD,Phoenix,,-112.0649319,33.534998,AZ, , , ,801,1,703.1276,,AggieReverseGeocoder,,4.01,16104072A,704 E OCOTILLO RD,Phoenix,AZ,85014,1047
5301,-112.065006,33.545697,2655,7TH ST & ORANGEWOOD AVE,Phoenix,,-112.065006,33.545697,AZ, , , ,802,1,249.9993,,AggieReverseGeocoder,,4.01,16018099,702 E ORANGEWOOD AVE,Phoenix,AZ,85020,5042
5302,-112.0653617,33.63350259,2656,7TH ST & PARADISE LN,Phoenix,,-112.0653617,33.63350259,AZ, , , ,803,1,656.2485,,AggieReverseGeocoder,,4.01,21416221,707 E SANDRA TER,Phoenix,AZ,85022,2630
5303,-112.065325,33.611569,2658,7TH ST & ROBERTS RD,Phoenix,,-112.065325,33.611569,AZ, , , ,804,1,843.7494,,AggieReverseGeocoder,,4.01,21444010Y,13811 N 7TH ST,Phoenix,AZ,85022,4301
5304,-112.06514,33.4592,2659,7TH ST & ROOSEVELT ST,Phoenix,,-112.06514,33.4592,AZ, , , ,805,1,937.5484,,AggieReverseGeocoder,,4.01,11631003,1013 N 7TH ST,Phoenix,AZ,85006,2728
5305,-112.064804,33.527698,2660,7TH ST & ROSE LN,Phoenix,,-112.064804,33.527698,AZ, , , ,806,1,281.2211,,AggieReverseGeocoder,,4.01,16115032B,6201 N 7TH ST,Phoenix,AZ,85014,1853
5306,-112.0649224,33.48054455,2661,7TH ST & THOMAS RD,Phoenix,,-112.0649224,33.48054455,AZ, , , ,807,1,882.8124,,AggieReverseGeocoder,,4.01,11820060D,2901 N 7TH ST,Phoenix,AZ,85014,5402
5307,-112.0649535,33.60822383,2663,7TH ST & THUNDERBIRD RD,Phoenix,,-112.0649535,33.60822383,AZ, , , ,808,1,906.2531,,AggieReverseGeocoder,,4.01,15901003J,702 E THUNDERBIRD RD,Phoenix,AZ,85022,5310
5308,-112.0651164,33.56651388,2664,7TH ST & TOWNLEY AVE,Phoenix,,-112.0651164,33.56651388,AZ, , , ,809,1,875.0024,,AggieReverseGeocoder,,4.01,16003080L,8905 N 7TH ST,Phoenix,AZ,85020,2911
5309,-112.064988,33.448715,2666,7TH ST & WASHINGTON ST,Phoenix,,-112.064988,33.448715,AZ, , , ,810,1,921.8781,,AggieReverseGeocoder,,4.01,11634258,706 E WASHINGTON ST,Phoenix,AZ,85034,1064
5310,-112.0649264,33.49061232,2667,7TH ST & WELDON AVE,Phoenix,,-112.0649264,33.49061232,AZ, , , ,811,1,640.6232,,AggieReverseGeocoder,,4.01,11823002,3710 N 7TH ST,Phoenix,AZ,85014,5002
5311,-112.065006,33.578416,2669,7TH ST & CHERYL DR,Phoenix,,-112.065006,33.578416,AZ, , , ,812,1,890.6264,,AggieReverseGeocoder,,4.01,15940085A,10007 N 7TH ST,Phoenix,AZ,85020,1749
5312,-112.0649875,33.58128513,2670,7TH ST & PEORIA AVE,Phoenix,,-112.0649875,33.58128513,AZ, , , ,813,1,875.0025,,AggieReverseGeocoder,,4.01,15941484,744 E PEORIA AVE,Phoenix,AZ,85020,1500
5313,-112.073602,33.515031,2791,CENTRAL AVE & GEORGIA AVE,Phoenix,,-112.073602,33.515031,AZ, , , ,814,1,921.875,,AggieReverseGeocoder,,4.01,16222104,77 E MISSOURI AVE,Phoenix,AZ,85012,1376
5314,-112.064807,33.498497,2671,7TH ST & MONTECITO AVE,Phoenix,,-112.064807,33.498497,AZ, , , ,815,1,281.2249,,AggieReverseGeocoder,,4.01,15518017,715 E MONTECITO AVE,Phoenix,AZ,85014,4322
5315,-112.0653348,33.63567723,2672,7TH ST & AIRE LIBRE AVE,Phoenix,,-112.0653348,33.63567723,AZ, , , ,816,1,656.2495,,AggieReverseGeocoder,,4.01,21416220,705 E SANDRA TER,Phoenix,AZ,85022,2630
5316,-112.0649104,33.48798309,2674,7TH ST & OSBORN RD,Phoenix,,-112.0649104,33.48798309,AZ, , , ,817,1,281.2501,,AggieReverseGeocoder,,4.01,11819037,3407 N 7TH AVE,Phoenix,AZ,85013,3635
5317,-112.064807,33.502199,2675,7TH ST & MINNEZONA AVE,Phoenix,,-112.064807,33.502199,AZ, , , ,818,1,281.2518,,AggieReverseGeocoder,,4.01,15520122,4501 N 7TH ST,Phoenix,AZ,85014,3804
5318,-112.0649659,33.4762169,2676,7TH ST & VIRGINIA AVE,Phoenix,,-112.0649659,33.4762169,AZ, , , ,819,1,921.8766,,AggieReverseGeocoder,,4.01,11730010,2545 N 7TH ST,Phoenix,AZ,85006,1047
5319,-112.237778,33.473,2681,83RD AVE & ENCANTO BLVD,Phoenix,,-112.237778,33.473,AZ, , , ,820,1,484.3736,,AggieReverseGeocoder,,4.01,10238004B,2317 N 83RD DR,Avondale,AZ,85037,3742
5320,-112.23785,33.465816,2682,83RD AVE & MCDOWELL RD,Phoenix,,-112.23785,33.465816,AZ, , , ,821,1,468.7521,,AggieReverseGeocoder,,4.01,10236937A,1610 N 83RD AVE,Avondale,AZ,85035,4301
5321,-112.23769,33.4873,2683,83RD AVE & OSBORN RD,Phoenix,,-112.23769,33.4873,AZ, , , ,822,1,703.1269,,AggieReverseGeocoder,,4.01,10268001,8248 W OSBORN RD,Cave Creek,AZ,85033,3437
5322,-112.2376204,33.48039304,2684,83RD AVE & THOMAS RD,Phoenix,,-112.2376204,33.48039304,AZ, , , ,823,1,718.7512,,AggieReverseGeocoder,,4.01,10272177,8248 W THOMAS RD,Cave Creek,AZ,85033,4721
5323,-112.2376407,33.47649541,2685,83RD AVE & VIRGINIA AVE,Phoenix,,-112.2376407,33.47649541,AZ, , , ,824,1,453.1225,,AggieReverseGeocoder,,4.01,10237195,8400 W VIRGINIA AVE,Avondale,AZ,85037,8363
5324,-112.237704,33.491953,2687,83RD AVE -- PICCADILLY RD & AMELIA AVE,Phoenix,,-112.237704,33.491953,AZ, , , ,825,1,703.1244,,AggieReverseGeocoder,,4.01,10267084,8266 W PICCADILLY RD,Cave Creek,AZ,85033,3414
5325,-112.237705,33.469999,2689,83RD AVE & PALM LN,Phoenix,,-112.237705,33.469999,AZ, , , ,826,1,453.1248,,AggieReverseGeocoder,,4.01,10237194,2175 N 83RD AVE,Avondale,AZ,85035,3003
5326,-112.034775,33.61419,2749,CAVE CREEK RD & HEARN RD,Phoenix,,-112.034775,33.61419,AZ, , , ,827,1,937.4988,,AggieReverseGeocoder,,4.01,21451002N,14040 N CAVE CREEK RD,Phoenix,AZ,85022,6117
5327,-112.045207,33.589797,2751,CAVE CREEK RD & 16TH PL,Phoenix,,-112.045207,33.589797,AZ, , , ,828,1,281.2499,,AggieReverseGeocoder,,4.01,16621048,11435 N CAVE CREEK RD,Phoenix,AZ,85020,1489
5328,-112.0306426,33.6409264,2754,CAVE CREEK RD & BELL RD,Phoenix,,-112.0306426,33.6409264,AZ, , , ,829,1,640.6274,,AggieReverseGeocoder,,4.01,21405025B,2404 E BELL RD,Phoenix,AZ,85032,2412
5329,-112.037507,33.597198,2755,CAVE CREEK RD & CACTUS RD,Phoenix,,-112.037507,33.597198,AZ, , , ,830,1,953.1267,,AggieReverseGeocoder,,4.01,16614037A,12201 N CAVE CREEK RD,Phoenix,AZ,85022,5828
5330,-112.053206,33.578998,2756,CAVE CREEK RD & CHERYL DR,Phoenix,,-112.053206,33.578998,AZ, , , ,831,1,281.2503,,AggieReverseGeocoder,,4.01,15928008R,10201 N CAVE CREEK RD,Phoenix,AZ,85020,1801
5331,-112.055304,33.576998,2758,CAVE CREEK RD & CINNABAR AVE,Phoenix,,-112.055304,33.576998,AZ, , , ,832,1,281.2513,,AggieReverseGeocoder,,4.01,15930054B,10001 N CAVE CREEK RD,Phoenix,AZ,85020,1838
5332,-112.049224,33.585929,2760,CAVE CREEK RD & DESERT COVE AVE,Phoenix,,-112.049224,33.585929,AZ, , , ,833,1,640.6277,,AggieReverseGeocoder,,4.01,15921054A,11000 N CAVE CREEK RD,Phoenix,AZ,85020,1437
5333,-112.0646421,33.56809927,2761,CAVE CREEK RD & DUNLAP AVE,Phoenix,,-112.0646421,33.56809927,AZ, , , ,834,1,859.3746,,AggieReverseGeocoder,,4.01,15936026,9009 N CAVE CREEK RD,Phoenix,AZ,85020,2522
5334,-112.036006,33.609498,2762,CAVE CREEK RD & EUGIE TER,Phoenix,,-112.036006,33.609498,AZ, , , ,835,1,937.503,,AggieReverseGeocoder,,4.01,16610025,13607 N CAVE CREEK RD,Phoenix,AZ,85022,5137
5335,-112.030506,33.635697,2763,CAVE CREEK RD & GRANDVIEW RD,Phoenix,,-112.030506,33.635697,AZ, , , ,836,1,296.8753,,AggieReverseGeocoder,,4.01,21427002C,16411 N CAVE CREEK RD,Phoenix,AZ,85032,2918
5336,-112.0305731,33.62667925,2764,CAVE CREEK RD & GREENWAY RD,Phoenix,,-112.0305731,33.62667925,AZ, , , ,837,1,1125.0011,,AggieReverseGeocoder,,4.01,21440008B,15401 N CAVE CREEK RD,Phoenix,AZ,85032,3618
5337,-112.030776,33.648207,2765,CAVE CREEK RD & GROVERS AVE,Phoenix,,-112.030776,33.648207,AZ, , , ,838,1,671.8761,,AggieReverseGeocoder,,4.01,21406006,17808 N 24TH PL,Phoenix,AZ,85032,1602
5338,-112.059706,33.571999,2767,CAVE CREEK RD & HATCHER RD,Phoenix,,-112.059706,33.571999,AZ, , , ,839,1,921.8768,,AggieReverseGeocoder,,4.01,15938070G,9405 N CAVE CREEK RD,Phoenix,AZ,85020,2115
5339,-112.037006,33.600697,2768,CAVE CREEK RD & LARKSPUR DR,Phoenix,,-112.037006,33.600697,AZ, , , ,840,1,937.5011,,AggieReverseGeocoder,,4.01,16612021,12601 N CAVE CREEK RD,Phoenix,AZ,85022,6515
5340,-112.030774,33.651711,2769,CAVE CREEK RD & MICHIGAN AVE,Phoenix,,-112.030774,33.651711,AZ, , , ,841,1,671.876,,AggieReverseGeocoder,,4.01,21406513,18206 N 24TH PL,Phoenix,AZ,85032,1087
5341,-112.057304,33.575297,2770,CAVE CREEK RD & MOUNTAIN VIEW RD,Phoenix,,-112.057304,33.575297,AZ, , , ,842,1,296.8747,,AggieReverseGeocoder,,4.01,15939048A,9827 N CAVE CREEK RD,Phoenix,AZ,85020,1723
5342,-112.030507,33.623698,2771,CAVE CREEK RD & NISBET RD,Phoenix,,-112.030507,33.623698,AZ, , , ,843,1,296.8747,,AggieReverseGeocoder,,4.01,21466009,15011 N CAVE CREEK RD,Phoenix,AZ,85032,4332
5343,-112.0511686,33.5828333,2773,CAVE CREEK RD & PEORIA AVE,Phoenix,,-112.0511686,33.5828333,AZ, , , ,844,1,296.8743,,AggieReverseGeocoder,,4.01,15922044E,10621 N CAVE CREEK RD,Phoenix,AZ,85020,1403
5344,-112.048005,33.587799,2774,CAVE CREEK RD & SHANGRI LA RD,Phoenix,,-112.048005,33.587799,AZ, , , ,845,1,281.2502,,AggieReverseGeocoder,,4.01,15921047C,11039 N CAVE CREEK RD,Phoenix,AZ,85020,1407
5345,-112.035307,33.611799,2775,CAVE CREEK RD & SHARON DR,Phoenix,,-112.035307,33.611799,AZ, , , ,846,1,296.8778,,AggieReverseGeocoder,,4.01,21451003P,13811 N CAVE CREEK RD,Phoenix,AZ,85022,6178
5346,-112.036505,33.604498,2776,CAVE CREEK RD & SWEETWATER AVE,Phoenix,,-112.036505,33.604498,AZ, , , ,847,1,296.875,,AggieReverseGeocoder,,4.01,16611014B,13001 N CAVE CREEK RD,Phoenix,AZ,85022,5144
5347,-112.041806,33.592799,2777,CAVE CREEK RD & 18TH PL,Phoenix,,-112.041806,33.592799,AZ, , , ,848,1,296.8737,,AggieReverseGeocoder,,4.01,16622007J,11649 N CAVE CREEK RD,Phoenix,AZ,85020,1329
5348,-112.062207,33.569798,2778,CAVE CREEK RD & 8TH ST,Phoenix,,-112.062207,33.569798,AZ, , , ,849,1,890.6268,,AggieReverseGeocoder,,4.01,15936143,9204 N 9TH ST,Phoenix,AZ,85020,2664
5349,-112.030506,33.645498,2780,CAVE CREEK RD & CONTENTION MINE RD,Phoenix,,-112.030506,33.645498,AZ, , , ,850,1,671.8787,,AggieReverseGeocoder,,4.01,21408270,17434 N CAVE CREEK RD,Phoenix,AZ,85032,1813
5350,-112.073721,33.56072,2787,CENTRAL AVE & BUTLER DR --NORTHBOUND,Phoenix,,-112.073721,33.56072,AZ, , , ,851,1,265.6256,,AggieReverseGeocoder,,4.01,16051108A,8525 N CENTRAL AVE,Phoenix,AZ,85020,3526
5351,-112.073488,33.502518,2788,CENTRAL AVE & CAMPBELL AVE,Phoenix,,-112.073488,33.502518,AZ, , , ,852,1,265.6251,,AggieReverseGeocoder,,4.01,15524001B,4444 N 7TH ST,Phoenix,AZ,85014,4142
5352,-112.0736893,33.46319222,2789,CENTRAL AVE & CULVER ST,Phoenix,,-112.0736893,33.46319222,AZ, , , ,853,1,906.2508,,AggieReverseGeocoder,,4.01,11135104,1221 N CENTRAL AVE,Phoenix,AZ,85004,1820
5353,-112.07371,33.549256,2790,CENTRAL AVE & FRIER DR,Phoenix,,-112.07371,33.549256,AZ, , , ,854,1,843.7525,,AggieReverseGeocoder,,4.01,16044010A,7611 N CENTRAL AVE,Phoenix,AZ,85020,4021
5354,-112.0736183,33.49825637,2792,CENTRAL AVE & FARRINGTON LN,Phoenix,,-112.0736183,33.49825637,AZ, , , ,855,1,921.875,,AggieReverseGeocoder,,4.01,15525001V,300 E INDIAN SCHOOL RD,Phoenix,AZ,85012,1853
5355,-112.07357,33.528201,2793,CENTRAL AVE & ROSE LN,Phoenix,,-112.07357,33.528201,AZ, , , ,856,1,624.9995,,AggieReverseGeocoder,,4.01,16123042A,6225 N CENTRAL AVE,Phoenix,AZ,85012,1107
5356,-112.073761,33.564512,2794,CENTRAL AVE & ALICE AVE --NORTHBOUND,Phoenix,,-112.073761,33.564512,AZ, , , ,857,1,593.7525,,AggieReverseGeocoder,,4.01,16050197,8801 N CENTRAL AVE,Phoenix,AZ,85020,2816
5357,-112.073563,33.52431,2795,CENTRAL AVE & BETHANY HOME RD,Phoenix,,-112.073563,33.52431,AZ, , , ,858,1,625.0008,,AggieReverseGeocoder,,4.01,16124017H,6019 N CENTRAL AVE,Phoenix,AZ,85012,1230
5358,-112.0735955,33.50970429,2798,CENTRAL AVE & CAMELBACK RD,Phoenix,,-112.0735955,33.50970429,AZ, , , ,859,1,921.8758,,AggieReverseGeocoder,,4.01,16220001A,10 E CAMELBACK RD,Phoenix,AZ,85012,1621
5359,-112.0736343,33.49011626,2802,CENTRAL AVE & COLUMBUS AVE,Phoenix,,-112.0736343,33.49011626,AZ, , , ,860,1,890.6247,,AggieReverseGeocoder,,4.01,11833026B,33 E WELDON AVE,Phoenix,AZ,85012,2028
5360,-112.0737288,33.56820033,2803,CENTRAL AVE & DUNLAP AVE,Phoenix,,-112.0737288,33.56820033,AZ, , , ,861,1,250.0007,,AggieReverseGeocoder,,4.01,15947300,10 E DUNLAP AVE,Phoenix,AZ,85020,2821
5361,-112.0736301,33.48432808,2804,CENTRAL AVE & EARLL DR,Phoenix,,-112.0736301,33.48432808,AZ, , , ,862,1,937.5018,,AggieReverseGeocoder,,4.01,11834109A,3111 N CENTRAL AVE,Phoenix,AZ,85012,2685
5362,-112.073737,33.455001,2805,CENTRAL AVE & FILLMORE ST,Phoenix,,-112.073737,33.455001,AZ, , , ,863,1,952.8902,,AggieReverseGeocoder,,4.01,11145039,609 N CENTRAL AVE,Phoenix,AZ,85004,2126
5363,-112.073612,33.538725,2806,CENTRAL AVE & GLENDALE AVE,Phoenix,,-112.073612,33.538725,AZ, , , ,864,1,890.6275,,AggieReverseGeocoder,,4.01,16031021D,7001 N CENTRAL AVE,Phoenix,AZ,85020,4816
5364,-112.073806,33.556833,2808,CENTRAL AVE & GRISWOLD RD --NORTHBOUND,Phoenix,,-112.073806,33.556833,AZ, , , ,865,1,609.3755,,AggieReverseGeocoder,,4.01,16053297,8225 N CENTRAL AVE,Phoenix,AZ,85020,3560
5365,-112.0735992,33.4952844,2809,CENTRAL AVE & INDIAN SCHOOL RD,Phoenix,,-112.0735992,33.4952844,AZ, , , ,866,1,921.8789,,AggieReverseGeocoder,,4.01,15525001R,4141 N 3RD ST,Phoenix,AZ,85012,1832
5366,-112.0736931,33.49272409,2810,CENTRAL AVE & INDIANOLA AVE,Phoenix,,-112.0736931,33.49272409,AZ, , , ,867,1,906.2482,,AggieReverseGeocoder,,4.01,11825030A,4001 N CENTRAL AVE,Phoenix,AZ,85012,1948
5367,-112.073576,33.531214,2812,CENTRAL AVE & MARYLAND AVE,Phoenix,,-112.073576,33.531214,AZ, , , ,868,1,640.6257,,AggieReverseGeocoder,,4.01,16122052C,6501 N CENTRAL AVE,Phoenix,AZ,85012,1139
5368,-112.0736856,33.46612387,2813,CENTRAL AVE & MCDOWELL RD,Phoenix,,-112.0736856,33.46612387,AZ, , , ,869,1,890.6232,,AggieReverseGeocoder,,4.01,11855047,1625 N CENTRAL AVE,Phoenix,AZ,85004,1640
5369,-112.0737511,33.45690217,2814,CENTRAL AVE & MCKINLEY ST,Phoenix,,-112.0737511,33.45690217,AZ, , , ,870,1,921.8773,,AggieReverseGeocoder,,4.01,11140053,802 N CENTRAL AVE,Phoenix,AZ,85004,2003
5370,-112.073573,33.51701,2815,CENTRAL AVE & MISSOURI AVE,Phoenix,,-112.073573,33.51701,AZ, , , ,871,1,640.6287,,AggieReverseGeocoder,,4.01,16236001,5501 N CENTRAL AVE,Phoenix,AZ,85012,1312
5371,-112.073635,33.520498,2816,CENTRAL AVE & MONTEBELLO AVE,Phoenix,,-112.073635,33.520498,AZ, , , ,872,1,624.9989,,AggieReverseGeocoder,,4.01,16237001A,5757 N CENTRAL AVE,Phoenix,AZ,85012,1315
5372,-112.073776,33.553151,2818,CENTRAL AVE & NORTHERN AVE --NORTHBOUND,Phoenix,,-112.073776,33.553151,AZ, , , ,873,1,875.0017,,AggieReverseGeocoder,,4.01,16054138,1 E MANZANITA DR,Phoenix,AZ,85020,3635
5373,-112.073568,33.534407,2819,CENTRAL AVE & OCOTILLO RD,Phoenix,,-112.073568,33.534407,AZ, , , ,874,1,296.8753,,AggieReverseGeocoder,,4.01,16122039,6645 N CENTRAL AVE,Phoenix,AZ,85012,1055
5374,-112.0736026,33.51238269,2820,CENTRAL AVE & ORANGE DR,Phoenix,,-112.0736026,33.51238269,AZ, , , ,875,1,937.5016,,AggieReverseGeocoder,,4.01,16220028A,5133 N CENTRAL AVE,Phoenix,AZ,85012,1438
5375,-112.07374,33.545818,2821,CENTRAL AVE & ORANGEWOOD AVE,Phoenix,,-112.07374,33.545818,AZ, , , ,876,1,875.0021,,AggieReverseGeocoder,,4.01,16039001E,8 E ORANGEWOOD AVE,Phoenix,AZ,85020,4845
5376,-112.0736801,33.48817586,2822,CENTRAL AVE & OSBORN RD,Phoenix,,-112.0736801,33.48817586,AZ, , , ,877,1,906.2528,,AggieReverseGeocoder,,4.01,11833137D,3443 N CENTRAL AVE,Phoenix,AZ,85012,2204
5377,-112.0736907,33.4696723,2823,CENTRAL AVE & PALM LN,Phoenix,,-112.0736907,33.4696723,AZ, , , ,878,1,906.25,,AggieReverseGeocoder,,4.01,11852023D,2005 N CENTRAL AVE,Phoenix,AZ,85004,1592
5378,-112.073707,33.542298,2824,CENTRAL AVE & MYRTLE AVE,Phoenix,,-112.073707,33.542298,AZ, , , ,879,1,890.627,,AggieReverseGeocoder,,4.01,16036053B,7215 N CENTRAL AVE,Phoenix,AZ,85020,4851
5379,-112.0737477,33.45921513,2825,CENTRAL AVE & ROOSEVELT ST,Phoenix,,-112.0737477,33.45921513,AZ, , , ,880,1,921.8993,,AggieReverseGeocoder,,4.01,11136005,1021 N CENTRAL AVE,Phoenix,AZ,85004,1939
5380,-112.0735796,33.48088535,2826,CENTRAL AVE & THOMAS RD,Phoenix,,-112.0735796,33.48088535,AZ, , , ,881,1,281.2293,,AggieReverseGeocoder,,4.01,11835109A,2901 N CENTRAL AVE,Phoenix,AZ,85012,2700
5381,-112.0736712,33.47737983,2827,CENTRAL AVE & VIRGINIA AVE,Phoenix,,-112.0736712,33.47737983,AZ, , , ,882,1,890.6292,,AggieReverseGeocoder,,4.01,11844090A,2633 N CENTRAL AVE,Phoenix,AZ,85004,1118
5382,-112.073769,33.451181,2837,CENTRAL AVE & VAN BUREN ST,Phoenix,,-112.073769,33.451181,AZ, , , ,883,1,906.2529,,AggieReverseGeocoder,,4.01,11228109,2 E MONROE ST,Phoenix,AZ,85004,2301
5383,-111.9776438,33.56862702,3120,TATUM BLVD & DOUBLETREE RANCH RD,Phoenix,,-111.9776438,33.56862702,AZ, , , ,884,1,1171.8813,,AggieReverseGeocoder,,4.01,16832002C,4800 E DOUBLETREE RANCH RD,Guadalupe,AZ,85253,1524
5384,-111.9776559,33.57217817,3115,TATUM BLVD & BERNEIL RD,Phoenix,,-111.9776559,33.57217817,AZ, , , ,885,1,828.1269,,AggieReverseGeocoder,,4.01,16828003,4802 E BERNEIL DR,Guadalupe,AZ,85253,1518
5385,-111.9703358,33.58256698,641,SHEA BLVD & 51ST PL,Phoenix,,-111.9703358,33.58256698,AZ, , , ,886,1,593.7503,,AggieReverseGeocoder,,4.01,16806055,10555 N 51ST PL,Guadalupe,AZ,85253,1003
5386,-111.9777002,33.57585776,3129,TATUM BLVD & MOUNTAIN VIEW RD,Phoenix,,-111.9777002,33.57585776,AZ, , , ,887,1,859.3747,,AggieReverseGeocoder,,4.01,16816092,4800 E MOUNTAIN VIEW RD,Guadalupe,AZ,85253,1539
5387,-111.9777042,33.57932929,3121,TATUM BLVD & GOLD DUST AVE,Phoenix,,-111.9777042,33.57932929,AZ, , , ,888,1,875.0034,,AggieReverseGeocoder,,4.01,16807007,4801 E BERYL AVE,Guadalupe,AZ,85253,1036
5388,-112.2266118,33.45167741,8094,VAN BUREN ST -- 79TH AVE & 75TH AVE,Phoenix,,-112.2266118,33.45167741,AZ, , , ,889,1,703.1249,,AggieReverseGeocoder,,4.01,10243002L,405 N 79TH AVE,Phoenix,AZ,85043,4100
5389,-111.9803049,33.33077868,939,WARNER RD & 48TH ST,Phoenix,,-111.9803049,33.33077868,AZ, , , ,890,1,437.5,,AggieReverseGeocoder,,4.01,30159479A,4855 E WARNER RD,Chandler,AZ,85044,3308
5390,-111.9895192,33.32048837,20001,WB E RAY RD FS S 44TH ST,Phoenix,,-111.9895192,33.32048837,AZ, , , ,891,1,906.255,,AggieReverseGeocoder,,4.01,30158892,4350 E RAY RD,Chandler,AZ,85044,4703
5391,-111.9884966,33.32012977,20000,EB E RAY RD FS S 44TH ST,Phoenix,,-111.9884966,33.32012977,AZ, , , ,892,1,468.751,,AggieReverseGeocoder,,4.01,30158009W,4405 E RAY RD,Chandler,AZ,85044,6091
5392,-112.2160731,33.43704361,20002,EB BUCKEYE RD NS 71ST AVE,Phoenix,,-112.2160731,33.43704361,AZ, , , ,893,1,906.2502,,AggieReverseGeocoder,,4.01,10415005A,1001 S 75TH AVE,Phoenix,AZ,85043,4101
5393,-112.159202,33.465906,1499,MCDOWELL RD & 47TH AVE,Phoenix,,-112.159202,33.465906,AZ, , , ,894,1,437.5009,,AggieReverseGeocoder,,4.01,10334019,4655 W MCDOWELL RD,Avondale,AZ,85035,4145
5394,-112.0300184,33.48080082,2087,24TH ST & THOMAS RD,Phoenix,,-112.0300184,33.48080082,AZ, , , ,895,1,281.2555,,AggieReverseGeocoder,,4.01,11916134,2406 E THOMAS RD,Avondale,AZ,85016,7912
5395,-112.0057453,33.32394527,7938,NB 36TH ST & FS VERDIN RD,Phoenix,,-112.0057453,33.32394527,AZ, , , ,896,1,640.6266,,AggieReverseGeocoder,,4.01,30601263,3602 E VERDIN RD,Chandler,AZ,85044,4557
5396,-112.100001,33.49449357,3745,19TH AVE & INDIAN SCHOOL RD,Phoenix,,-112.100001,33.49449357,AZ, , , ,897,1,656.252,,AggieReverseGeocoder,,4.01,11006107,4040 N 19TH AVE,Paradise Valley,AZ,85015,5303
5397,-112.1169746,33.63855458,3576,BELL RD/I-17 PARK AND RIDE,Phoenix,,-112.1169746,33.63855458,AZ, , , ,898,1,921.8775,,AggieReverseGeocoder,,4.01,20742270,16808 N BLACK CANYON HWY,Phoenix,AZ,85053,4032
5398,-112.0042303,33.63905685,7852,BELL RD SR51 PNR,Phoenix,,-112.0042303,33.63905685,AZ, , , ,899,1,953.1251,,AggieReverseGeocoder,,4.01,21432668,3535 E BELL RD,Phoenix,AZ,85032,2712
5399,-111.998191,33.29347327,7834,40TH ST AND PECOS RD PNR,Phoenix,,-111.998191,33.29347327,AZ, , , ,900,1,312.5011,,AggieReverseGeocoder,,4.01,30179614,3901 E WINDSONG DR,Phoenix,AZ,85048,7918
5400,-112.0689815,33.56700831,20,SUNNYSLOPE TRANSIT CENTER SOUTH SIDE,Phoenix,,-112.0689815,33.56700831,AZ, , , ,901,1,906.2518,,AggieReverseGeocoder,,4.01,16049124D,321 E DUNLAP AVE,Phoenix,AZ,85020,2913
5401,-112.0689818,33.5671706,20,SUNNYSLOPE TRANSIT CENTER NORTH SIDE,Phoenix,,-112.0689818,33.5671706,AZ, , , ,902,1,890.6301,,AggieReverseGeocoder,,4.01,16049124D,321 E DUNLAP AVE,Phoenix,AZ,85020,2913
5402,-112.2288145,33.46411385,2572,79TH AVE PNR,Phoenix,,-112.2288145,33.46411385,AZ, , , ,903,1,703.1258,,AggieReverseGeocoder,,4.01,10245005K,7915 W MCDOWELL RD,Avondale,AZ,85035,4303
5403,-112.1186122,33.71033267,8902,HAPPY VALLEY PARK AND  RIDE,Phoenix,,-112.1186122,33.71033267,AZ, , , ,904,1,265.6251,,AggieReverseGeocoder,,4.01,21004013,2440 W HAPPY VALLEY RD,Phoenix,AZ,85085,8500
5404,-112.0126987,33.65166065,536,MICHIGAN AVE -- 32ND ST & 34TH ST,Phoenix,,-112.0126987,33.65166065,AZ, , , ,905,1,281.2496,,AggieReverseGeocoder,,4.01,21401882A,18401 N 32ND ST,Phoenix,AZ,85032,1210
5405,-112.0292651,33.37928889,9137,24TH ST/BASELINE P&R,Phoenix,,-112.0292651,33.37928889,AZ, , , ,906,1,312.5008,,AggieReverseGeocoder,,4.01,12295010,2430 E BASELINE RD,Phoenix,AZ,85042,7031
5406,-112.1232837,33.57287564,3591,METRO CENTER TRANSIT CENTER,Phoenix,,-112.1232837,33.57287564,AZ, , , ,907,1,281.2485,,AggieReverseGeocoder,,4.01,14916005,9617 N METRO PKWY W,Glendale,AZ,85051,1400
5407,-112.1234731,33.57279758,970,METRO CENTER TRANSIT CENTER,Phoenix,,-112.1234731,33.57279758,AZ, , , ,908,1,296.8749,,AggieReverseGeocoder,,4.01,14916005,9617 N METRO PKWY W,Glendale,AZ,85051,1400
5408,-112.0986682,33.51949602,8759,MONTEBELLO/19TH AVE TRANSIT CENTER,Phoenix,,-112.0986682,33.51949602,AZ, , , ,909,1,656.2518,,AggieReverseGeocoder,,4.01,15635004J,5715 N 19TH AVE,Paradise Valley,AZ,85015,2433
5409,-112.074533,33.452226,7750,CENTRAL STATION NB LANE STOP 4,Phoenix,,-112.074533,33.452226,AZ, , , ,910,1,281.248,,AggieReverseGeocoder,,4.01,11142114,300 N CENTRAL AVE,Phoenix,AZ,85004,2111
5410,-112.0745419,33.45185789,7749,CENTRAL STATION NB LANE STOP 2,Phoenix,,-112.0745419,33.45185789,AZ, , , ,911,1,296.8762,,AggieReverseGeocoder,,4.01,11142114,300 N CENTRAL AVE,Phoenix,AZ,85004,2111
5411,-112.0745331,33.45168613,1829,CENTRAL STN NB LANE STOP 1,Phoenix,,-112.0745331,33.45168613,AZ, , , ,912,1,296.8785,,AggieReverseGeocoder,,4.01,11142114,300 N CENTRAL AVE,Phoenix,AZ,85004,2111
5412,-112.2285039,33.47906975,9582,DESERT SKY TRANSIT CENTER STOP 2,Phoenix,,-112.2285039,33.47906975,AZ, , , ,913,1,734.3732,,AggieReverseGeocoder,,4.01,10238001G,7829 W THOMAS RD,Cave Creek,AZ,85033,5442
5413,-112.2288114,33.47908091,9581,DESERT SKY TRANSIT CENTER STOP 1,Phoenix,,-112.2288114,33.47908091,AZ, , , ,914,1,718.7513,,AggieReverseGeocoder,,4.01,10238001G,7829 W THOMAS RD,Cave Creek,AZ,85033,5442
5414,-112.0749531,33.40717041,7774,ED PASTOR TRANSIT CENTER EB LANE STOP 1,Phoenix,,-112.0749531,33.40717041,AZ, , , ,915,1,124.9988,,AggieReverseGeocoder,,4.01,11307123,10 W BROADWAY RD,Phoenix,AZ,85041,2405
5415,-112.0744752,33.40717341,7775,ED PASTOR TRANSIT CENTER EB LANE STOP 2,Phoenix,,-112.0744752,33.40717341,AZ, , , ,916,1,125.0001,,AggieReverseGeocoder,,4.01,11307123,10 W BROADWAY RD,Phoenix,AZ,85041,2405
5416,-112.0745859,33.40700865,7781,ED PASTOR TRANSIT CENTER WB LANE STOP 2,Phoenix,,-112.0745859,33.40700865,AZ, , , ,917,1,140.6238,,AggieReverseGeocoder,,4.01,11307123,10 W BROADWAY RD,Phoenix,AZ,85041,2405
5417,-112.0743526,33.40698509,7782,ED PASTOR TRANSIT CENTER WB LANE STOP 1,Phoenix,,-112.0743526,33.40698509,AZ, , , ,918,1,125.0013,,AggieReverseGeocoder,,4.01,11307123,10 W BROADWAY RD,Phoenix,AZ,85041,2405
5418,-111.9794536,33.60477512,565,PARADISE VALLEY TRANSIT CENTER,Phoenix,,-111.9794536,33.60477512,AZ, , , ,919,1,593.7525,,AggieReverseGeocoder,,4.01,16716270,4704 E PARADISE VILLAGE PKWY N,Phoenix,AZ,85032,6860
5419,-111.9795721,33.60461856,567,PARADISE VALLEY TRANSIT CENTER ,Phoenix,,-111.9795721,33.60461856,AZ, , , ,920,1,593.7507,,AggieReverseGeocoder,,4.01,16725003C,4610 E CACTUS RD,Phoenix,AZ,85032,7704
5420,-111.9955629,33.42134417,20009,40TH ST & UNIVERSITY DR,Phoenix,,-111.9955629,33.42134417,AZ, , , ,921,1,374.9999,,AggieReverseGeocoder,,4.01,12201069,2816 S 40TH ST,Phoenix,AZ,85040,1619
5421,-111.9952944,33.41864463,20030,40TH ST & MIAMI AVE,Phoenix,,-111.9952944,33.41864463,AZ, , , ,922,1,171.8758,,AggieReverseGeocoder,,4.01,12450011,3219 S 40TH ST,Phoenix,AZ,85040,1622
5422,-111.99554,33.41783883,20010,40TH ST & MIAMI AVE,Phoenix,,-111.99554,33.41783883,AZ, , , ,923,1,359.3758,,AggieReverseGeocoder,,4.01,12206013,3202 S 40TH ST,Phoenix,AZ,85040,1664
5423,-111.9955407,33.41455117,20011,40TH ST & ELWOOD ST,Phoenix,,-111.9955407,33.41455117,AZ, , , ,924,1,375.0025,,AggieReverseGeocoder,,4.01,12208061E,3444 S 40TH ST,Phoenix,AZ,85040,1906
5424,-111.9952917,33.41386195,20029,40TH ST & RAYMOND ST,Phoenix,,-111.9952917,33.41386195,AZ, , , ,925,1,359.3755,,AggieReverseGeocoder,,4.01,12454007C,4010 E RAYMOND ST,Phoenix,AZ,85040,1931
5425,-111.9952381,33.40789737,20028,40TH ST & BROADWAY RD,Phoenix,,-111.9952381,33.40789737,AZ, , , ,926,1,359.3756,,AggieReverseGeocoder,,4.01,12454001N,4002 E BROADWAY RD,Phoenix,AZ,85040,8802
5426,-111.9954925,33.4065553,20012,40TH ST & BROADWAY RD,Phoenix,,-111.9954925,33.4065553,AZ, , , ,927,1,359.3759,,AggieReverseGeocoder,,4.01,12274178,3955 E BROADWAY RD,Phoenix,AZ,85040,2925
5427,-111.9955299,33.40314579,20013,40TH ST & WIER AVE,Phoenix,,-111.9955299,33.40314579,AZ, , , ,928,1,359.3759,,AggieReverseGeocoder,,4.01,12306047,4025 E COTTON CENTER BLVD,Phoenix,AZ,85040,8866
5428,-111.9952488,33.40400585,20027,40TH ST & COTTON CENTER BLVD,Phoenix,,-111.9952488,33.40400585,AZ, , , ,929,1,375.0017,,AggieReverseGeocoder,,4.01,12306028,4050 E COTTON CENTER BLVD,Phoenix,AZ,85040,8861
5429,-111.9953326,33.40036886,20026,40TH ST & ROESER RD,Phoenix,,-111.9953326,33.40036886,AZ, , , ,930,1,359.372,,AggieReverseGeocoder,,4.01,12306016,5005 S 40TH ST,Phoenix,AZ,85040,2969
5430,-111.9955563,33.39941721,20014,40TH ST & ROESER RD,Phoenix,,-111.9955563,33.39941721,AZ, , , ,931,1,374.9994,,AggieReverseGeocoder,,4.01,12276099B,5202 S 40TH ST,Phoenix,AZ,85040,3918
5431,-111.9953769,33.39627322,20025,40TH ST & SUNLAND AVE,Phoenix,,-111.9953769,33.39627322,AZ, , , ,932,1,359.3777,,AggieReverseGeocoder,,4.01,12316070,4002 E SUNLAND AVE,Phoenix,AZ,85040,3937
5432,-111.995619,33.39577769,20015,40TH ST & SUNLAND AVE,Phoenix,,-111.995619,33.39577769,AZ, , , ,933,1,374.9998,,AggieReverseGeocoder,,4.01,12276114,5610 S 40TH ST,Phoenix,AZ,85040,3906
5433,-111.9954118,33.39295026,20024,40TH ST & SOUTHERN AVE,Phoenix,,-111.9954118,33.39295026,AZ, , , ,934,1,374.9989,,AggieReverseGeocoder,,4.01,12316002E,4002 E SOUTHERN AVE,Phoenix,AZ,85042,9027
5434,-111.9956559,33.39224113,20016,40TH ST & SOUTHERN AVE,Phoenix,,-111.9956559,33.39224113,AZ, , , ,935,1,359.4111,,AggieReverseGeocoder,,4.01,12279019A,3945 E SOUTHERN AVE,Phoenix,AZ,85040,3961
5435,-111.995658,33.38834165,20017,40TH ST & CATHERINE AVE,Phoenix,,-111.995658,33.38834165,AZ, , , ,936,1,374.9737,,AggieReverseGeocoder,,4.01,12279071,6409 S 39TH PL,Phoenix,AZ,85042,5008
5436,-111.9954145,33.38908494,20023,40TH ST & CATHERINE AVE,Phoenix,,-111.9954145,33.38908494,AZ, , , ,937,1,375.0017,,AggieReverseGeocoder,,4.01,12317560,4005 E ALTA VISTA RD,Phoenix,AZ,85042,5136
5437,-111.9954312,33.38582638,20022,40TH ST & VINEYARD RD,Phoenix,,-111.9954312,33.38582638,AZ, , , ,938,1,390.6254,,AggieReverseGeocoder,,4.01,12358138,6652 S 40TH PL,Phoenix,AZ,85042,5103
5438,-111.9956768,33.38493637,20018,40TH ST & VINEYARD RD,Phoenix,,-111.9956768,33.38493637,AZ, , , ,939,1,375.0006,,AggieReverseGeocoder,,4.01,12297099,6803 S 39TH PL,Phoenix,AZ,85042,6202
5439,-111.9956486,33.38097886,20019,40TH ST & FREMONT DR,Phoenix,,-111.9956486,33.38097886,AZ, , , ,940,1,375.0007,,AggieReverseGeocoder,,4.01,12298010,7221 S 39TH WAY,Phoenix,AZ,85042,6233
5440,-111.9954332,33.38157384,20021,40TH ST & FREMONT DR,Phoenix,,-111.9954332,33.38157384,AZ, , , ,941,1,375.0012,,AggieReverseGeocoder,,4.01,12318205,4002 E FREMONT ST,Phoenix,AZ,85042,6365
5441,-111.9954285,33.37871032,20020,40TH ST & BASELINE RD,Phoenix,,-111.9954285,33.37871032,AZ, , , ,942,1,359.4016,,AggieReverseGeocoder,,4.01,12318220,7438 S 41ST ST,Phoenix,AZ,85042,6303
5442,-112.029424,33.379551,183,24TH/BASELINE PNR,Phoenix,,-112.029424,33.379551,AZ, , , ,943,1,312.4987,,AggieReverseGeocoder,,4.01,12295009,2420 E BASELINE RD,Phoenix,AZ,85042,7031
5443,-112.029404,33.379397,183,24TH/BASELINE PNR,Phoenix,,-112.029404,33.379397,AZ, , , ,944,1,312.4971,,AggieReverseGeocoder,,4.01,12295009,2420 E BASELINE RD,Phoenix,AZ,85042,7031
5444,-111.82277,33.434798,4494,MESA DR & BROWN RD,Mesa,,-111.82277,33.434798,AZ, , , ,945,1,546.874,,AggieReverseGeocoder,,4.01,13719687B,339 E BROWN RD,Globe,AZ,85201,3513
5445,-111.822799,33.432701,4677,MESA DR & 10TH PL,Mesa,,-111.822799,33.432701,AZ, , , ,946,1,562.5031,,AggieReverseGeocoder,,4.01,13720354,930 N MESA DR,Globe,AZ,85201,4321
5446,-111.822827,33.430997,4683,MESA DR & WEDGEWOOD DR,Mesa,,-111.822827,33.430997,AZ, , , ,947,1,562.5012,,AggieReverseGeocoder,,4.01,13719002C,848 N MESA DR,Globe,AZ,85201,4302
5447,-112.1692,33.41894516,20051,51ST AVE & MIAMI ST,Phoenix,,-112.1692,33.41894516,AZ, , , ,948,1,796.8743,,AggieReverseGeocoder,,4.01,10444030,3121 S 51ST AVE,Phoenix,AZ,85043,6208
5448,-112.1694472,33.4180071,20031,51ST AVE & MIAMI AVE,Phoenix,,-112.1694472,33.4180071,AZ, , , ,949,1,812.5014,,AggieReverseGeocoder,,4.01,10445004,3410 S 51ST AVE,Phoenix,AZ,85043,6200
5449,-112.169474,33.41467127,20032,51ST AVE & ELWOOD ST,Phoenix,,-112.169474,33.41467127,AZ, , , ,950,1,796.8778,,AggieReverseGeocoder,,4.01,10459138,5108 W FULTON ST,Phoenix,AZ,85043,1997
5450,-112.1691705,33.41464778,20050,51ST AVE & ELWOOD ST,Phoenix,,-112.1691705,33.41464778,AZ, , , ,951,1,796.8792,,AggieReverseGeocoder,,4.01,10444005B,3433 S 51ST AVE,Phoenix,AZ,85043,6211
5451,-112.169321,33.41113604,20033,51ST AVE & BROADWAY RD,Phoenix,,-112.169321,33.41113604,AZ, , , ,952,1,812.4974,,AggieReverseGeocoder,,4.01,10459001K,4002 S 51ST AVE,Phoenix,AZ,85043,6309
5452,-112.1685458,33.40301947,20034,51ST AVE & BROADWAY RD,Phoenix,,-112.1685458,33.40301947,AZ, , , ,953,1,687.4996,,AggieReverseGeocoder,,4.01,10474609,5104 W GRENADINE RD,Gila Crossing,AZ,85339,1914
5453,-112.1684908,33.39889932,20035,51ST AVE & ROESER RD,Phoenix,,-112.1684908,33.39889932,AZ, , , ,954,1,265.626,,AggieReverseGeocoder,,4.01,10474608,5205 S 51ST DR,Gila Crossing,AZ,85339,1909
5454,-112.1690324,33.41208984,20049,51ST AVE & BROADWAY RD,Phoenix,,-112.1690324,33.41208984,AZ, , , ,955,1,796.8757,,AggieReverseGeocoder,,4.01,10459046,5142 W ODEUM LN,Phoenix,AZ,85043,6502
5455,-112.1682921,33.40311353,20048,51ST AVE & BROADWAY RD,Phoenix,,-112.1682921,33.40311353,AZ, , , ,956,1,718.7516,,AggieReverseGeocoder,,4.01,10474609,5104 W GRENADINE RD,Gila Crossing,AZ,85339,1914
5456,-112.1681982,33.39969875,20047,51ST AVE & ROESER RD,Phoenix,,-112.1681982,33.39969875,AZ, , , ,957,1,281.2506,,AggieReverseGeocoder,,4.01,10474609,5104 W GRENADINE RD,Gila Crossing,AZ,85339,1914
5457,-112.1684683,33.3956462,20036,51ST AVE & SUNLAND AVE,Phoenix,,-112.1684683,33.3956462,AZ, , , ,958,1,265.625,,AggieReverseGeocoder,,4.01,10474554,5513 S 51ST DR,Gila Crossing,AZ,85339,1912
5458,-112.1681821,33.39633086,20046,51ST AVE & SUNLAND AVE,Phoenix,,-112.1681821,33.39633086,AZ, , , ,959,1,281.2485,,AggieReverseGeocoder,,4.01,10475009C,5449 S 51ST AVE,Gila Crossing,AZ,85339,9784
5459,-112.1680212,33.39257766,20045,51ST AVE & SOUTHERN AVE,Phoenix,,-112.1680212,33.39257766,AZ, , , ,960,1,296.8757,,AggieReverseGeocoder,,4.01,10479002H,5115 W SOUTHERN AVE,Gila Crossing,AZ,85339,6303
5460,-112.1685005,33.39140813,20037,51ST AVE & SOUTHERN AVE,Phoenix,,-112.1685005,33.39140813,AZ, , , ,961,1,281.2507,,AggieReverseGeocoder,,4.01,10479002H,5115 W SOUTHERN AVE,Gila Crossing,AZ,85339,6303
5461,-112.1684455,33.38884839,20038,51ST AVE & BURGESS LN,Phoenix,,-112.1684455,33.38884839,AZ, , , ,962,1,281.2513,,AggieReverseGeocoder,,4.01,10479213,6309 S 51ST DR,Gila Crossing,AZ,85339,9659
5462,-112.1680534,33.38924085,20044,51ST AVE & BURGESS LN,Phoenix,,-112.1680534,33.38924085,AZ, , , ,963,1,281.2503,,AggieReverseGeocoder,,4.01,10478055,5043 W BURGESS LN,Gila Crossing,AZ,85339,4238
5463,-112.1681486,33.38513236,20043,51ST AVE & VINEYARD RD,Phoenix,,-112.1681486,33.38513236,AZ, , , ,964,1,281.2503,,AggieReverseGeocoder,,4.01,10477539,5034 W ST KATERI DR,Gila Crossing,AZ,85339,8207
5464,-112.1684536,33.38437595,20039,51ST AVE & VINEYARD RD,Phoenix,,-112.1684536,33.38437595,AZ, , , ,965,1,281.2528,,AggieReverseGeocoder,,4.01,10488233,5107 W GLASS LN,Gila Crossing,AZ,85339,6938
5465,-112.1684191,33.38208959,20040,51ST AVE & MALDONADO RD,Phoenix,,-112.1684191,33.38208959,AZ, , , ,966,1,281.2526,,AggieReverseGeocoder,,4.01,10488142,7007 S 51ST DR,Gila Crossing,AZ,85339,6935
5466,-112.1681177,33.38239551,20042,51ST AVE & MALDONADO RD,Phoenix,,-112.1681177,33.38239551,AZ, , , ,967,1,296.875,,AggieReverseGeocoder,,4.01,10488142,7007 S 51ST DR,Gila Crossing,AZ,85339,6935
5467,-112.1680409,33.37817675,20041,51ST AVE & BASELINE RD,Phoenix,,-112.1680409,33.37817675,AZ, , , ,968,1,296.8738,,AggieReverseGeocoder,,4.01,10489011,5050 W BASELINE RD,Gila Crossing,AZ,85339,7324
5468,-112.1691894,33.36999521,20052,NB S 51ST AVE FS W SOUTH MOUNTAIN AVE,Phoenix,,-112.1691894,33.36999521,AZ, , , ,969,1,281.2731,,AggieReverseGeocoder,,4.01,30084654,5028 W ARDMORE RD,Gila Crossing,AZ,85339,2119
5469,-112.0470117,33.51637677,537,Missouri Av & 16th St,Phoenix,Standard,-112.0470117,33.51637677,AZ, , , ,970,1,937.4822,,AggieReverseGeocoder,,4.01,16455182E,5343 N 16TH ST,Avondale,AZ,85016,3231
5470,-112.0435801,33.51663084,5791,Missouri Av & 18th St,Phoenix,Standard,-112.0435801,33.51663084,AZ, , , ,971,1,281.2531,,AggieReverseGeocoder,,4.01,16451005A,1744 E MISSOURI AVE,Avondale,AZ,85016,3020
5471,-112.042889,33.51638701,538,Missouri Av & 18th St,Phoenix,Standard,-112.042889,33.51638701,AZ, , , ,972,1,281.2485,,AggieReverseGeocoder,,4.01,16454016B,1803 E MISSOURI AVE,Avondale,AZ,85016,3021
5472,-112.0384246,33.51642726,539,Missouri Av & 20th St,Phoenix,Standard,-112.0384246,33.51642726,AZ, , , ,973,1,281.2474,,AggieReverseGeocoder,,4.01,16458021A,2025 E MISSOURI AVE,Avondale,AZ,85016,3118
5473,-112.0396282,33.51662886,5792,Missouri Av & 20th St,Phoenix,Standard,-112.0396282,33.51662886,AZ, , , ,974,1,921.8761,,AggieReverseGeocoder,,4.01,16452130,1942 E MISSOURI AVE,Avondale,AZ,85016,3024
5474,-112.0342592,33.51647304,540,Missouri Av & 22nd St,Phoenix,Standard,-112.0342592,33.51647304,AZ, , , ,975,1,656.2516,,AggieReverseGeocoder,,4.01,16459010,5327 N 22ND ST,Avondale,AZ,85016,9037
5475,-112.0388033,33.51332187,20008,20th St & Colter St,Phoenix,Standard,-112.0388033,33.51332187,AZ, , , ,976,1,953.1214,,AggieReverseGeocoder,,4.01,16458013,2020 E COLTER ST,Avondale,AZ,85016,3404
5476,-112.0387891,33.50959267,20007,20th St & Camelback Rd,Phoenix,Standard,-112.0387891,33.50959267,AZ, , , ,977,1,921.877,,AggieReverseGeocoder,,4.01,16467001B,2002 E CAMELBACK RD,Avondale,AZ,85016,4711
5477,-112.1086496,33.7011632,20004,23rd Av & Pinnacle Peak Rd,Phoenix,Standard,-112.1086496,33.7011632,AZ, , , ,978,1,265.6279,,AggieReverseGeocoder,,4.01,21005016,2222 W PINNACLE PEAK RD,Cave Creek,AZ,85027,1231
5478,-112.1089097,33.70753737,20006,23rd Av & Questa Dr,Phoenix,Standard,-112.1089097,33.70753737,AZ, , , ,979,1,109.3735,,AggieReverseGeocoder,,4.01,21005931A,24250 N 23RD AVE,Phoenix,AZ,85085,1996
5479,-112.1086288,33.70799406,20005,23rd Av & Questa Dr,Phoenix,Standard,-112.1086288,33.70799406,AZ, , , ,980,1,343.7502,,AggieReverseGeocoder,,4.01,21005931A,24250 N 23RD AVE,Phoenix,AZ,85085,1996
5480,-112.228558,33.478647,2014,Desert Sky TC,Phoenix,,-112.228558,33.478647,AZ, , , ,981,1,687.5018,,AggieReverseGeocoder,,4.01,10238001G,7829 W THOMAS RD,Cave Creek,AZ,85033,5442
5481,-111.985142,33.523489,3590,44th St & McDonald Dr,Phoenix,,-111.985142,33.523489,AZ, , , ,982,1,437.5019,,AggieReverseGeocoder,,4.01,17116081,5823 N 45TH ST,Maricopa,AZ,85018,1229
5482,-112.151676,33.5545,4093,43rd Av & Royal Palm Rd,Phoenix,,-112.151676,33.5545,AZ, , , ,983,1,687.5003,,AggieReverseGeocoder,,4.01,14811001W,8040 N 43RD AVE,Glendale,AZ,85302,6601
5483,-111.925946,33.61579,4737,Scottsdale Rd & Evans Dr,Phoenix,,-111.925946,33.61579,AZ, , , ,984,1,578.1266,,AggieReverseGeocoder,,4.01,21557002P,14224 N SCOTTSDALE RD,Phoenix,AZ,85254,4083
5484,-111.960961,33.419866,7650,Priest Dr & Elna Rae St,Tempe,,-111.960961,33.419866,AZ, , , ,985,1,359.3745,,AggieReverseGeocoder,,4.01,12460048,900 S PRIEST DR,Mesa,AZ,85281,5233
5485,-112.1170352,33.65213371,8158,27th Av & Villa Maria Dr,Phoenix,,-112.1170352,33.65213371,AZ, , , ,986,1,1000.0024,,AggieReverseGeocoder,,4.01,20805002F,18225 N 27TH AVE,Phoenix,AZ,85053,1128
5486,-111.929994,33.622494,8232,Greenway Pkwy & Kierland Bl,Phoenix,,-111.929994,33.622494,AZ, , , ,987,1,0,,AggieReverseGeocoder,,4.01,21558012,7025 E GREENWAY PKWY,Phoenix,AZ,85254,2159
5487,-112.098853,33.589283,10231,Cholla St & 19th Av (Flag Zone),Phoenix,,-112.098853,33.589283,AZ, , , ,988,1,984.3765,,AggieReverseGeocoder,,4.01,15912030,11235 N 19TH AVE,Glendale,AZ,85029,4820
5488,-112.050246,33.576629,10258,Cinnabar Av & 15th St (Flag Zone),Phoenix,,-112.050246,33.576629,AZ, , , ,989,1,656.2544,,AggieReverseGeocoder,,4.01,15929026C,1447 E CINNABAR AVE,Phoenix,AZ,85020,1819
5489,-112.071478,33.562889,10280,Sunnyslope Manor (Flag Zone),Phoenix,,-112.071478,33.562889,AZ, , , ,990,1,265.6248,,AggieReverseGeocoder,,4.01,16051091A,205 E RUTH AVE,Phoenix,AZ,85020,3152
5490,-112.0137211,33.61163235,20053,Thunderbird Rd & 32nd St,Phoenix,,-112.0137211,33.61163235,AZ, , , ,991,1,656.2519,,AggieReverseGeocoder,,4.01,21455008D,13802 N 32ND ST,Phoenix,AZ,85032,5637
5491,-111.934687,33.458298,30337,Continental Dr & College Av,Tempe,,-111.934687,33.458298,AZ, , , ,992,1,671.8824,,AggieReverseGeocoder,,4.01,12915020,301 E CONTINENTAL DR,Mesa,AZ,85281,1055
5492,-111.897903,33.403936,99601,Connolly Middle School,Tempe,,-111.897903,33.403936,AZ, , , ,993,1,843.75,,AggieReverseGeocoder,,4.01,13334687,2076 E ASPEN DR,Tempe,AZ,85282,2909
5493,-111.930488,33.413424,30348,S. McAllister,Tempe,Standard,-111.930488,33.413424,AZ, , , ,994,1,625.003,,AggieReverseGeocoder,,4.01,13314038,341 E 14TH ST,Mesa,AZ,85281,6708
5494,-111.9280313,33.41462038,30346,E. Apache Blvd & Rural Rd.,Tempe,Standard,-111.9280313,33.41462038,AZ, , , ,995,1,593.7521,,AggieReverseGeocoder,,4.01,13313015A,1318 S SUNSET DR,Mesa,AZ,85281,6813
5495,-111.9264867,33.41294447,30347,E. Spence Ave & S. Rural Rd.,Tempe,Standard,-111.9264867,33.41294447,AZ, , , ,996,1,609.376,,AggieReverseGeocoder,,4.01,13313002,1346 S RURAL RD,Mesa,AZ,85281,6802
5496,-111.927686,33.416692,30359,E. Lemon St. & S. Rural Rd.,Tempe,Standard,-111.927686,33.416692,AZ, , , ,997,1,609.3759,,AggieReverseGeocoder,,4.01,13273095A,1101 S RURAL RD,Mesa,AZ,85281,2006
5497,-111.926073,33.416784,30349,E. Lemon St. & S. Rural Rd.,Tempe,Standard,-111.926073,33.416784,AZ, , , ,998,1,609.3736,,AggieReverseGeocoder,,4.01,13273095A,1101 S RURAL RD,Mesa,AZ,85281,2006
5498,-111.921942,33.416806,30358,E. Lemon St. & S. Terrace Rd.,Tempe,Standard,-111.921942,33.416806,AZ, , , ,999,1,609.3752,,AggieReverseGeocoder,,4.01,13273156,1116 E LEMON ST,Mesa,AZ,85281,4030
5499,-111.921852,33.41669,30350,E. Lemon St. & S. Terrace Rd.,Tempe,Standard,-111.921852,33.41669,AZ, , , ,1000,1,593.7489,,AggieReverseGeocoder,,4.01,13273156,1116 E LEMON ST,Mesa,AZ,85281,4030
5500,-111.917965,33.41672,30351,E. Lemon St. & S. Dorsey Ln.,Tempe,Standard,-111.917965,33.41672,AZ, , , ,1001,1,609.4325,,AggieReverseGeocoder,,4.01,13273285,1234 E LEMON ST,Mesa,AZ,85281,7337
5501,-111.917663,33.416846,30351,N. Dorsey Ln. & W. Lemon St.,Tempe,Standard,-111.917663,33.416846,AZ, , , ,1002,1,828.0742,,AggieReverseGeocoder,,4.01,13262077,1301 E LEMON ST,Mesa,AZ,85281,4322
5502,-111.9175709,33.41975328,30352,S. Dorsey Ln. & E. 8th St. ,Tempe,Standard,-111.9175709,33.41975328,AZ, , , ,1003,1,265.6259,,AggieReverseGeocoder,,4.01,13259001L,851 S DORSEY LN,Mesa,AZ,85281,4217
5503,-111.9177825,33.41917927,30356,S. Dorsey Ln. & E. 8th St. ,Tempe,Standard,-111.9177825,33.41917927,AZ, , , ,1004,1,859.3766,,AggieReverseGeocoder,,4.01,13273038,1249 E 8TH ST,Mesa,AZ,85281,7306
5504,-111.9058722,33.42910635,30366,E. Rio Salado Pkwy & S. Perry Ln.,Tempe,Standard,-111.9058722,33.42910635,AZ, , , ,1005,1,812.5018,,AggieReverseGeocoder,,4.01,13241035,116 S INDUSTRIAL DR,Mesa,AZ,85281,2907
5505,-111.9010395,33.42943994,30365,E. Rio Salado Pkwy & S. Smith St.,Tempe,Standard,-111.9010395,33.42943994,AZ, , , ,1006,1,812.5032,,AggieReverseGeocoder,,4.01,13238006K,124 S SMITH RD,Mesa,AZ,85281,2932
5506,-111.9003508,33.42853473,30368,S. Smith Rd. & E. Rio Salado Pkwy.,Tempe,Standard,-111.9003508,33.42853473,AZ, , , ,1007,1,828.1273,,AggieReverseGeocoder,,4.01,13237025,129 S SMITH RD,Mesa,AZ,85281,2900
5507,-111.900383,33.425256,30364,S. Smith Rd. & E. 5th St.,Tempe,Standard,-111.9002966,33.4258512,AZ, , , ,1008,1,812.5042,,AggieReverseGeocoder,,4.01,13237170,2000 E 5TH ST,Mesa,AZ,85281,3089
5508,-111.900562,33.425005,30364,S. Smith Rd. & E. 5th St.,Tempe,Standard,-111.9005897,33.42544088,AZ, , , ,1009,1,250,,AggieReverseGeocoder,,4.01,13239007Q,1985 E 5TH ST,Mesa,AZ,85281,2955
5509,-111.9002779,33.42253132,30363,S. Smith Rd. & E. University Dr.,Tempe,Standard,-111.9002779,33.42253132,AZ, , , ,1010,1,250.0039,,AggieReverseGeocoder,,4.01,13237149M,2010 E UNIVERSITY DR,Mesa,AZ,85281,4681
5510,-111.929369,33.424288,30353,E. 6th St. & S. Packard,Tempe,Standard,-111.929369,33.424288,AZ, , , ,1011,1,593.7502,,AggieReverseGeocoder,,4.01,13225009D,601 E ALPHA DR,Mesa,AZ,85281,2008
5511,-111.9292317,33.42415766,30353,E. 6th St. & E. Alpha Dr.,Tempe,Standard,-111.9292317,33.42415766,AZ, , , ,1012,1,593.7473,,AggieReverseGeocoder,,4.01,13225009D,601 E ALPHA DR,Mesa,AZ,85281,2008
5512,-111.9177665,33.42180479,30355,Dorsey Ln & University Dr,Tempe,,-111.9177665,33.42180479,AZ, , , ,1013,1,828.1289,,AggieReverseGeocoder,,4.01,13273489,1275 E UNIVERSITY DR,Mesa,AZ,85281,5193
5513,-111.930488,33.413424,30348,S. McAllister,Tempe,Standard,-111.930488,33.413424,AZ, , , ,1014,1,0,,AggieReverseGeocoder,,4.01,13314038,341 E 14TH ST,Mesa,AZ,85281,6708
5514,-111.9363817,33.42584105,30369,Tempe Transportation Center,Tempe,Transit Center,-111.9363817,33.42584105,AZ, , , ,1015,1,734.3777,,AggieReverseGeocoder,,4.01,13228932,120 E 5TH ST,Mesa,AZ,85281,3702
5515,-111.9361006,33.42586442,30369,Tempe Transportation Center,Tempe,Transit Center,-111.9361006,33.42586442,AZ, , , ,1016,1,750.0044,,AggieReverseGeocoder,,4.01,13227015A,525 S FOREST AVE,Mesa,AZ,85281,3708
5516,-111.9358546,33.42586569,30370,Tempe Transportation Center,Tempe,Transit Center,-111.9358546,33.42586569,AZ, , , ,1017,1,609.3778,,AggieReverseGeocoder,,4.01,13227014,525 S FOREST AVE,Mesa,AZ,85281,3708
5517,-111.9355968,33.42584117,30371,Tempe Transportation Center,Tempe,Transit Center,-111.9355968,33.42584117,AZ, , , ,1018,1,609.3777,,AggieReverseGeocoder,,4.01,13227014,525 S FOREST AVE,Mesa,AZ,85281,3708
5518,-111.936317,33.425719,30369,Tempe Transportation Center,Tempe,Transit Center,-111.936317,33.425719,AZ, , , ,1019,1,734.3743,,AggieReverseGeocoder,,4.01,13227013,525 S FOREST AVE,Mesa,AZ,85281,3708
5519,-111.936063,33.42571,30369,Tempe Transportation Center,Tempe,Transit Center,-111.936063,33.42571,AZ, , , ,1020,1,718.7526,,AggieReverseGeocoder,,4.01,13227015A,525 S FOREST AVE,Mesa,AZ,85281,3708
5520,-111.935798,33.425714,30370,Tempe Transportation Center,Tempe,Transit Center,-111.935798,33.425714,AZ, , , ,1021,1,609.3726,,AggieReverseGeocoder,,4.01,13227014,525 S FOREST AVE,Mesa,AZ,85281,3708
5521,-111.935561,33.42568,30371,Tempe Transportation Center,Tempe,Transit Center,-111.935561,33.42568,AZ, , , ,1022,1,625.0025,,AggieReverseGeocoder,,4.01,13227014,525 S FOREST AVE,Mesa,AZ,85281,3708
5522,-111.9357,33.425625,30371,Tempe Transportation Center,Tempe,Transit Center,-111.9357,33.425625,AZ, , , ,1023,1,609.3739,,AggieReverseGeocoder,,4.01,13227014,525 S FOREST AVE,Mesa,AZ,85281,3708
5523,-111.93589,33.425629,30370,Tempe Transportation Center,Tempe,Transit Center,-111.93589,33.425629,AZ, , , ,1024,1,734.3768,,AggieReverseGeocoder,,4.01,13227014,525 S FOREST AVE,Mesa,AZ,85281,3708
5524,-111.936082,33.425628,30369,Tempe Transportation Center,Tempe,Transit Center,-111.936082,33.425628,AZ, , , ,1025,1,734.3757,,AggieReverseGeocoder,,4.01,13227015A,525 S FOREST AVE,Mesa,AZ,85281,3708
5525,-111.936284,33.425629,30369,Tempe Transportation Center,Tempe,Transit Center,-111.936284,33.425629,AZ, , , ,1026,1,765.6275,,AggieReverseGeocoder,,4.01,13227013,525 S FOREST AVE,Mesa,AZ,85281,3708
5526,-111.9364578,33.42561879,30369,Tempe Transportation Center,Tempe,Transit Center,-111.9364578,33.42561879,AZ, , , ,1027,1,796.8762,,AggieReverseGeocoder,,4.01,13227013,525 S FOREST AVE,Mesa,AZ,85281,3708
5527,-112.0752676,33.45411262,20055,1st Ave & Fillmore,Phoenix,,-112.0752676,33.45411262,AZ, , , ,1028,1,921.8763,,AggieReverseGeocoder,,4.01,11142081A,376 N 1ST AVE,Phoenix,AZ,85003,1513
5528,-111.790523,33.415029,30378,Gilbert/Main St PNR,Mesa,,-111.790523,33.415029,AZ, , , ,1029,1,265.6243,,AggieReverseGeocoder,,4.01,13803054F,1859 E MAIN ST,Mesa,AZ,85203,9021
5529,-111.790347,33.414782,30381,Gilbert/Main St PNR,Mesa,,-111.790347,33.414782,AZ, , , ,1030,1,234.4047,,AggieReverseGeocoder,,4.01,13803056C,1907 E MAIN ST,Mesa,AZ,85203,9047
5530,-111.8400957,33.41255511,5069,COUNTRY CLUB DR & DANA AVE,Mesa,Standard,-111.8400957,33.41255511,AZ, , , ,1031,1,749.8235,,AggieReverseGeocoder,,4.01,13401068,126 S COUNTRY CLUB DR,Apache Junction,AZ,85210,1225
5531,-111.930397,33.458342,30430,E. Continental Dr. & N. McAllister Ave.,Tempe,Standard,-111.930397,33.458342,AZ, , , ,1032,1,703.1268,,AggieReverseGeocoder,,4.01,12916001E,515 E CONTINENTAL DR,Mesa,AZ,85281,1057
5532,-111.9003729,33.42248852,,S. Smith St. & E. University Dr.,Tempe,Standard,-111.9003729,33.42248852,AZ, , , ,1033,1,890.6255,,AggieReverseGeocoder,,4.01,13237149M,2010 E UNIVERSITY DR,Mesa,AZ,85281,4681
5533,-112.05974,33.299619,40272,Desert Foothills Pkwy & S 16013,Phoenix,Standard,-112.05974,33.299619,AZ, , , ,1034,1,453.1272,,AggieReverseGeocoder,,4.01,30097610,16013 S DESERT FOOTHILLS PKWY,Phoenix,AZ,85048,8435
5534,-112.059965,33.299685,40271,Desert Foothills Pkwy & S 16013,Phoenix,Standard,-112.059965,33.299685,AZ, , , ,1035,1,312.5004,,AggieReverseGeocoder,,4.01,30096264,1047 E AMBERWOOD DR,Phoenix,AZ,85048,1934
