,X,Y,StopID,Location,Juris,Type_,Long,Lat,State,Zipcode,City,Street Address
0,-111.82307599054501,33.4147193304186,5182.0,MESA DR & MAIN ST,Mesa,Standard,-111.82307599054501,33.4147193304186,AZ, , , 
1,-111.822765687811,33.4156843465566,2982.0,MESA DR & MAIN ST,Mesa,LINK,-111.822765687811,33.4156843465566,AZ, , , 
2,-111.822934487577,33.4257343931201,4681.0,MESA DR & 6TH ST,Mesa,Standard,-111.822934487577,33.4257343931201,AZ, , , 
3,-111.823047726262,33.422047998516696,4682.0,MESA DR & UNIVERSITY DR,Mesa,Standard,-111.823047726262,33.422047998516696,AZ, , , 
4,-111.82306940586099,33.4168833504112,4679.0,MESA DR & 1ST ST,Mesa,Standard,-111.82306940586099,33.4168833504112,AZ, , , 
5,-111.823097555623,33.410421331262896,5179.0,MESA DR & 2ND AVE,Mesa,Standard,-111.823097555623,33.410421331262896,AZ, , , 
6,-111.823089922458,33.4074277625267,5180.0,MESA DR & BROADWAY RD,Mesa,Standard,-111.823089922458,33.4074277625267,AZ, , , 
7,-111.823079297327,33.4031017973098,5183.0,MESA DR & MARILYN AVE,Mesa,Standard,-111.823079297327,33.4031017973098,AZ, , , 
8,-111.823868566666,33.3824668341569,8025.0,COURY AVE & MESA DR,Mesa,Standard,-111.823868566666,33.3824668341569,AZ, , , 
9,-111.828464699819,33.3822251795024,5152.0,LEWIS & COURY AVE,Mesa,Standard,-111.828464699819,33.3822251795024,AZ, , , 
10,-111.827483801307,33.380348306545,438.0,JAVALINA AVE & LEWIS,Mesa,Standard,-111.827483801307,33.380348306545,AZ, , , 
11,-111.82293846782801,33.3826046642914,3438.0,MESA DR & COURY AVE,Mesa,Standard,-111.82293846782801,33.3826046642914,AZ, , , 
12,-111.822832420086,33.4023387341046,3442.0,MESA DR & FRANKLIN AVE,Mesa,Standard,-111.822832420086,33.4023387341046,AZ, , , 
13,-111.82288032464199,33.4080023337287,3441.0,MESA DR & BROADWAY RD,Mesa,Standard,-111.82288032464199,33.4080023337287,AZ, , , 
14,-111.822835957329,33.4115779237804,3440.0,MESA DR & 2ND AVE,Mesa,Standard,-111.822835957329,33.4115779237804,AZ, , , 
15,-111.82282073613199,33.4175379166453,2979.0,MESA DR & 1ST ST,Mesa,Standard,-111.82282073613199,33.4175379166453,AZ, , , 
16,-111.822774285593,33.4197504857682,4678.0,MESA DR & 2ND ST,Mesa,Standard,-111.822774285593,33.4197504857682,AZ, , , 
17,-111.82272050022499,33.4227915534926,2983.0,MESA DR & UNIVERSITY DR,Mesa,Standard,-111.82272050022499,33.4227915534926,AZ, , , 
18,-111.82268269317301,33.426166560174195,2980.0,MESA DR & 6TH ST,Mesa,Standard,-111.82268269317301,33.426166560174195,AZ, , , 
19,-111.82263243162599,33.430312682268,2981.0,MESA DR & 8TH ST,Mesa,Standard,-111.82263243162599,33.430312682268,AZ, , , 
20,-111.822592020084,33.432192423379,2978.0,MESA DR & 10TH ST,Mesa,Standard,-111.822592020084,33.432192423379,AZ, , , 
21,-111.82304327285802,33.435690366294196,5500.0,BROWN RD & MESA DR,Mesa,Standard,-111.82304327285802,33.435690366294196,AZ, , , 
22,-111.828616690555,33.4350534651122,5505.0,PASADENA & CENTER ST,Mesa,Standard,-111.828616690555,33.4350534651122,AZ, , , 
23,-111.831408161206,33.4345569085719,4499.0,CENTER ST & BROWN ST,Mesa,Standard,-111.831408161206,33.4345569085719,AZ, , , 
24,-111.83144260661699,33.4308594733828,4492.0,CENTER ST & 8TH PL,Mesa,Standard,-111.83144260661699,33.4308594733828,AZ, , , 
25,-111.801074954184,33.45080735204,7619.0,JUNE ST & LAZONA DR,Mesa,Standard,-111.801074954184,33.45080735204,AZ, , , 
26,-111.80280259724199,33.4491701212933,5710.0,LAZONA DR & STAPLEY DR,Mesa,Standard,-111.80280259724199,33.4491701212933,AZ, , , 
27,-111.80511857211201,33.4477097090088,4798.0,STAPLEY DR & JENSEN ST,Mesa,Standard,-111.80511857211201,33.4477097090088,AZ, , , 
28,-111.80522083043002,33.4441285372074,4791.0,STAPLEY DR & MCLELLAN RD,Mesa,Standard,-111.80522083043002,33.4441285372074,AZ, , , 
29,-111.80529112037,33.441089413751605,4797.0,STAPLEY DR & HALIFAX ST,Mesa,Standard,-111.80529112037,33.441089413751605,AZ, , , 
30,-111.805417338394,33.4366314830577,4795.0,STAPLEY DR & BROWN RD,Mesa,Standard,-111.805417338394,33.4366314830577,AZ, , , 
31,-111.805411958697,33.433809893361,4796.0,STAPLEY DR & FAIRFIELD ST,Mesa,Standard,-111.805411958697,33.433809893361,AZ, , , 
32,-111.805406249358,33.4300153093271,4794.0,STAPLEY DR & 8TH PL,Mesa,Standard,-111.805406249358,33.4300153093271,AZ, , , 
33,-111.805417707419,33.4254549755571,4793.0,STAPLEY DR & 6TH ST,Mesa,Standard,-111.805417707419,33.4254549755571,AZ, , , 
34,-111.805414606689,33.422136200592,4799.0,STAPLEY DR & UNIVERSITY DR,Mesa,Standard,-111.805414606689,33.422136200592,AZ, , , 
35,-111.80542148907,33.4186340916769,4792.0,STAPLEY DR & 2ND ST,Mesa,Standard,-111.80542148907,33.4186340916769,AZ, , , 
36,-111.805436900532,33.414757262734604,5303.0,STAPLEY DR & MAIN ST,Mesa,Standard,-111.805436900532,33.414757262734604,AZ, , , 
37,-111.80541216339701,33.4108651078293,5296.0,STAPLEY DR & JARVIS AVE,Mesa,Standard,-111.80541216339701,33.4108651078293,AZ, , , 
38,-111.805462187148,33.4075185072117,5299.0,STAPLEY DR & BROADWAY RD,Mesa,Standard,-111.805462187148,33.4075185072117,AZ, , , 
39,-111.80548580051001,33.4038907114484,5297.0,STAPLEY DR & 6TH AVE,Mesa,Standard,-111.80548580051001,33.4038907114484,AZ, , , 
40,-111.805498007983,33.4003055379151,5298.0,STAPLEY DR & 8TH AVE,Mesa,Standard,-111.805498007983,33.4003055379151,AZ, , , 
41,-111.805583336522,33.3960442921053,5300.0,STAPLEY DR & EMERALD AVE,Mesa,Standard,-111.805583336522,33.3960442921053,AZ, , , 
42,-111.805594149011,33.3930144477176,5304.0,STAPLEY DR & SOUTHERN AVE,Mesa,Standard,-111.805594149011,33.3930144477176,AZ, , , 
43,-111.80570783833599,33.3887780967489,5301.0,STAPLEY DR & HARMONY AVE,Mesa,Standard,-111.80570783833599,33.3887780967489,AZ, , , 
44,-111.807044350975,33.3826457715732,8101.0,INVERNESS AVE & STAPLEY DR,Mesa,Standard,-111.807044350975,33.3826457715732,AZ, , , 
45,-111.80703538828399,33.3794225228431,9467.0,STAPLEY DR & BASELINE RD,Mesa,Standard,-111.80703538828399,33.3794225228431,AZ, , , 
46,-111.80563223312099,33.3826654306703,3103.0,STAPLEY DR & INVERNESS AVE,Mesa,Standard,-111.80563223312099,33.3826654306703,AZ, , , 
47,-111.805343110646,33.3895314608751,3558.0,STAPLEY DR & HILTON AVE,Mesa,Standard,-111.805343110646,33.3895314608751,AZ, , , 
48,-111.805299471252,33.3937681678118,3560.0,STAPLEY DR & SOUTHERN AVE,Mesa,Standard,-111.805299471252,33.3937681678118,AZ, , , 
49,-111.787822349501,33.4336347362607,2888.0,GILBERT RD & ENCANTO ST,Mesa,Standard,-111.787822349501,33.4336347362607,AZ, , , 
50,-111.78793510088998,33.427296394917995,2886.0,GILBERT RD & DECATUR ST,Mesa,Standard,-111.78793510088998,33.427296394917995,AZ, , , 
51,-111.805168011162,33.415472988772,3105.0,STAPLEY DR & MAIN ST,Mesa,Standard,-111.805168011162,33.415472988772,AZ, , , 
52,-111.78811149130199,33.4084077948636,3361.0,GILBERT RD & BROADWAY RD,Mesa,Standard,-111.78811149130199,33.4084077948636,AZ, , , 
53,-111.788148795305,33.4297727157978,4596.0,GILBERT RD & 8TH ST,Mesa,Standard,-111.788148795305,33.4297727157978,AZ, , , 
54,-111.68372347603001,33.4669116841607,9370.0,N POWER RD & E MCDOWELL RD,Mesa,Standard,-111.68372347603001,33.4669116841607,AZ, , , 
55,-111.684106510612,33.437959002685105,3027.0,POWER RD & BROWN RD,Mesa,Standard,-111.684106510612,33.437959002685105,AZ, , , 
56,-111.789450319354,33.459561816858894,9146.0,N GILBERT RD & E HERMOSA VISTA,Mesa,Standard,-111.789450319354,33.459561816858894,AZ, , , 
57,-111.684600081481,33.426493029488,8886.0,Power Rd & Decatur St,Mesa,Standard,-111.684600081481,33.426493029488,AZ, , , 
58,-111.68418339287201,33.4327292518043,3025.0,POWER RD & ENSENADA ST,Mesa,Standard,-111.68418339287201,33.4327292518043,AZ, , , 
59,-111.684543187154,33.4320251305447,8887.0,Power RD & Ensenada St,Mesa,Standard,-111.684543187154,33.4320251305447,AZ, , , 
60,-111.788385764512,33.4221460236508,4610.0,GILBERT RD & UNIVERSITY DR,Mesa,Standard,-111.788385764512,33.4221460236508,AZ, , , 
61,-111.788477086019,33.396985368599,5093.0,GILBERT RD & EMERALD AVE,Mesa,Standard,-111.788477086019,33.396985368599,AZ, , , 
62,-111.78853946584299,33.4074493622242,5091.0,GILBERT RD & BROADWAY RD,Mesa,Standard,-111.78853946584299,33.4074493622242,AZ, , , 
63,-111.68454624822901,33.3943466946745,3481.0,POWER RD & SOUTHERN AVE,Mesa,Standard,-111.68454624822901,33.3943466946745,AZ, , , 
64,-111.804937447745,33.4445289868643,3106.0,STAPLEY DR & MCLELLAN RD,Mesa,Standard,-111.804937447745,33.4445289868643,AZ, , , 
65,-111.68433698280899,33.4165026497028,3031.0,POWER RD & MAIN ST,Mesa,Standard,-111.68433698280899,33.4165026497028,AZ, , , 
66,-111.686953402342,33.336584037405,8878.0,Power Rd & Warner Rd,Mesa,Standard,-111.686953402342,33.336584037405,AZ, , , 
67,-111.78815964052,33.3902031836348,3363.0,GILBERT RD & HAMPTON AVE,Mesa,Standard,-111.78815964052,33.3902031836348,AZ, , , 
68,-111.788016763339,33.4196298010275,2898.0,MAIN ST & UNIVERSITY DR,Mesa,Standard,-111.788016763339,33.4196298010275,AZ, , , 
69,-111.787853857865,33.4510782029525,4608.0,GILBERT RD & MCKELLIPS RD,Mesa,Standard,-111.787853857865,33.4510782029525,AZ, , , 
70,-111.684502274219,33.3994052165531,3474.0,POWER RD & VIA ROSSMOOR BLVD,Mesa,Standard,-111.684502274219,33.3994052165531,AZ, , , 
71,-111.684761505562,33.408116200592104,5216.0,POWER RD & BROADWAY RD,Mesa,Standard,-111.684761505562,33.408116200592104,AZ, , , 
72,-111.80514909373801,33.4339463447256,3098.0,STAPLEY DR & FAIRFIELD ST,Mesa,Standard,-111.80514909373801,33.4339463447256,AZ, , , 
73,-111.78808082301902,33.433604482744606,4602.0,GILBERT RD & FAIRFIELD ST,Mesa,Standard,-111.78808082301902,33.433604482744606,AZ, , , 
74,-111.787910769799,33.4234034739444,2895.0,GILBERT RD & UNIVERSITY DR,Mesa,Standard,-111.787910769799,33.4234034739444,AZ, , , 
75,-111.68431882742901,33.447784775292895,4722.0,POWER RD & INGLEWOOD ST,Mesa,Standard,-111.68431882742901,33.447784775292895,AZ, , , 
76,-111.68424138801399,33.4235421539109,3032.0,POWER RD & UNIVERSITY DR,Mesa,Standard,-111.68424138801399,33.4235421539109,AZ, , , 
77,-111.684944639899,33.3935519559004,5220.0,POWER RD & SOUTHERN AVE,Mesa,Standard,-111.684944639899,33.3935519559004,AZ, , , 
78,-111.80514718847701,33.4299813204818,3100.0,STAPLEY DR & 8TH ST,Mesa,Standard,-111.80514718847701,33.4299813204818,AZ, , , 
79,-111.78741560450199,33.456250818489195,9145.0,N GILBERT RD & E LOCKWOOD ST,Mesa,Standard,-111.78741560450199,33.456250818489195,AZ, , , 
80,-111.78788263767099,33.4304123897902,2885.0,GILBERT RD & ADOBE ST,Mesa,Standard,-111.78788263767099,33.4304123897902,AZ, , , 
81,-111.788533789377,33.3928630228436,5097.0,GILBERT RD & SOUTHERN AVE,Mesa,Standard,-111.788533789377,33.3928630228436,AZ, , , 
82,-111.683338966532,33.4709359974428,9090.0,POWER RD PARK AND RIDE,Mesa,Standard,-111.683338966532,33.4709359974428,AZ, , , 
83,-111.788090741445,33.3942479785644,3368.0,GILBERT RD & SOUTHERN AVE,Mesa,Standard,-111.788090741445,33.3942479785644,AZ, , , 
84,-111.685008457925,33.390853600366604,5222.0,POWER RD & HAMPTON AVE,Mesa,Standard,-111.685008457925,33.390853600366604,AZ, , , 
85,-111.788252797148,33.4264384387506,4600.0,GILBERT RD & DECATUR ST,Mesa,Standard,-111.788252797148,33.4264384387506,AZ, , , 
86,-111.68466540919901,33.4185909706987,4719.0,POWER RD & ALBANY ST,Mesa,Standard,-111.68466540919901,33.4185909706987,AZ, , , 
87,-111.827461970062,33.4295319021242,9587.0,8TH ST- FITCH PARK,Mesa,Standard,-111.827461970062,33.4295319021242,AZ, , , 
88,-111.798532895951,33.4513500164297,9588.0,BARKLEY & MCKELLIPS,Mesa,Standard,-111.798532895951,33.4513500164297,AZ, , , 
89,-111.684356990038,33.4443673290144,9590.0,POWER RD & MCLELLAN RD,Mesa,Standard,-111.684356990038,33.4443673290144,AZ, , , 
90,-111.68400917717501,33.4441396253463,9591.0,POWER RD & MCLELLAN RD,Mesa,Standard,-111.68400917717501,33.4441396253463,AZ, , , 
91,-111.805142951473,33.4372927954465,3101.0,STAPLEY DR & BROWN RD,Mesa,Standard,-111.805142951473,33.4372927954465,AZ, , , 
92,-111.78792912618799,33.439892054782,4603.0,GILBERT RD & GRANDVIEW ST,Mesa,Standard,-111.78792912618799,33.439892054782,AZ, , , 
93,-111.684489115066,33.43674964071,4721.0,POWER RD & BROWN RD,Mesa,Standard,-111.684489115066,33.43674964071,AZ, , , 
94,-111.78788559937401,33.4440932291909,4609.0,GILBERT RD & MCLELLAN RD,Mesa,Standard,-111.78788559937401,33.4440932291909,AZ, , , 
95,-111.684834616751,33.3986279493442,5218.0,POWER RD & VIA ROSSMOOR BLVD,Mesa,Standard,-111.684834616751,33.3986279493442,AZ, , , 
96,-111.787644479999,33.4442843016488,9143.0,N GILBERT RD & E HALE ST,Mesa,Standard,-111.787644479999,33.4442843016488,AZ, , , 
97,-111.788463396407,33.4114489009891,5088.0,GILBERT RD & 2ND AVE,Mesa,Standard,-111.788463396407,33.4114489009891,AZ, , , 
98,-111.80516694489201,33.4262055331939,3108.0,STAPLEY DR & DOVER ST,Mesa,Standard,-111.80516694489201,33.4262055331939,AZ, , , 
99,-111.683924255272,33.451995083914596,9504.0,MCKELLIPS & POWER RD,Mesa,Standard,-111.683924255272,33.451995083914596,AZ, , , 
100,-111.789420045879,33.4589647190624,4605.0,GILBERT RD & HERMOSA VISTA DR ,Mesa,Standard,-111.789420045879,33.4589647190624,AZ, , , 
101,-111.80518552938,33.419069013287604,3099.0,STAPLEY DR & 2ND ST,Mesa,Standard,-111.80518552938,33.419069013287604,AZ, , , 
102,-111.78817286986201,33.3840596010143,3371.0,GILBERT RD & INVERNESS AVE,Mesa,Standard,-111.78817286986201,33.3840596010143,AZ, , , 
103,-111.684155245942,33.4659058316972,8634.0,POWER RD & MCDOWELL RD,Mesa,Standard,-111.684155245942,33.4659058316972,AZ, , , 
104,-111.788502452358,33.4148395808063,5095.0,GILBERT RD & MAIN ST,Mesa,Standard,-111.788502452358,33.4148395808063,AZ, , , 
105,-111.68437173958901,33.4510881180378,4723.0,POWER RD & MCKELLIPS RD,Mesa,Standard,-111.68437173958901,33.4510881180378,AZ, , , 
106,-111.684229865352,33.458698424116804,9140.0,N POWER RD & E HERMOSA VISTA DR,Mesa,Standard,-111.684229865352,33.458698424116804,AZ, , , 
107,-111.80482014338101,33.4484544331615,3104.0,STAPLEY DR & JENSEN ST,Mesa,Standard,-111.80482014338101,33.4484544331615,AZ, , , 
108,-111.80384632071501,33.451337951518695,533.0,MCKELLIPS RD & STAPLEY DR,Mesa,Standard,-111.80384632071501,33.451337951518695,AZ, , , 
109,-111.80529969577299,33.3964931890655,3557.0,STAPLEY DR & EMERALD AVE,Mesa,Standard,-111.80529969577299,33.3964931890655,AZ, , , 
110,-111.78744201516399,33.4522291714083,9144.0,N GILBERT RD & E MCKELLIPS RD,Mesa,Standard,-111.78744201516399,33.4522291714083,AZ, , , 
111,-111.78632747286801,33.46750544193,9089.0,GILBERT MCDOWELL PARK AND RIDE,Mesa,Park and Ride,-111.78632747286801,33.46750544193,AZ, , , 
112,-111.805260547403,33.4008439216858,3555.0,STAPLEY DR & 8TH AVE,Mesa,Standard,-111.805260547403,33.4008439216858,AZ, , , 
113,-111.67733115575399,33.3096721718088,9433.0,INNOVATION WAY N & S TWINING,Mesa,Standard,-111.67733115575399,33.3096721718088,AZ, , , 
114,-111.66933406328,33.3080758056252,9503.0,PHX-MESA GATEWAY AIRPORT,Mesa,Standard,-111.66933406328,33.3080758056252,AZ, , , 
115,-111.78807415788602,33.4368168157559,4599.0,GILBERT RD & BROWN RD,Mesa,Standard,-111.78807415788602,33.4368168157559,AZ, , , 
116,-111.684707850241,33.415196496991804,5217.0,POWER RD & MAIN ST,Mesa,Standard,-111.684707850241,33.415196496991804,AZ, , , 
117,-111.684176849295,33.462161482093805,9139.0,N POWER RD & E MELROSE ST,Mesa,Standard,-111.684176849295,33.462161482093805,AZ, , , 
118,-111.670917720655,33.3104076542497,8981.0,SOSSAMAN & TAHOE AV,Mesa,Standard,-111.670917720655,33.3104076542497,AZ, , , 
119,-111.68424368983,33.4271740536566,3028.0,POWER RD & DECATUR ST,Mesa,Standard,-111.68424368983,33.4271740536566,AZ, , , 
120,-111.80506673412201,33.4400425445464,3102.0,STAPLEY DR & GRANDVIEW ST,Mesa,Standard,-111.80506673412201,33.4400425445464,AZ, , , 
121,-111.78849875130301,33.400484417368105,5090.0,GILBERT RD & 8TH AVE,Mesa,Standard,-111.78849875130301,33.400484417368105,AZ, , , 
122,-111.788509906086,33.3895954003221,5094.0,GILBERT RD & HAMPTON AVE,Mesa,Standard,-111.788509906086,33.3895954003221,AZ, , , 
123,-111.80505746253,33.4228180017271,3107.0,STAPLEY DR & UNIVERSITY DR,Mesa,Standard,-111.80505746253,33.4228180017271,AZ, , , 
124,-111.788139418459,33.379593773756,3359.0,GILBERT RD & BASELINE RD,Mesa,Standard,-111.788139418459,33.379593773756,AZ, , , 
125,-111.788146391051,33.401188231066996,3365.0,GILBERT RD & PUEBLO AVE,Mesa,Standard,-111.788146391051,33.401188231066996,AZ, , , 
126,-111.683907120938,33.4494119127513,3030.0,POWER RD & JENSEN ST,Mesa,Standard,-111.683907120938,33.4494119127513,AZ, , , 
127,-111.675131282981,33.312651082430804,8894.0,Sossaman & Avery,Mesa,Standard,-111.675131282981,33.312651082430804,AZ, , , 
128,-111.787783507393,33.4557129469234,4607.0,GILBERT RD & E LOCKWOOD ST ,Mesa,Standard,-111.787783507393,33.4557129469234,AZ, , , 
129,-111.684500350427,33.3911238448355,3479.0,POWER RD & HAMPTON AVE,Mesa,Standard,-111.684500350427,33.3911238448355,AZ, , , 
130,-111.78849895471501,33.404204657933505,5089.0,GILBERT RD & 6TH AVE,Mesa,Standard,-111.78849895471501,33.404204657933505,AZ, , , 
131,-111.788380139735,33.4190244828542,4614.0,UNIVERSITY DR & MAIN ST,Mesa,Standard,-111.788380139735,33.4190244828542,AZ, , , 
132,-111.80519683014299,33.4082482110976,3556.0,STAPLEY DR & BROADWAY RD,Mesa,Standard,-111.80519683014299,33.4082482110976,AZ, , , 
133,-111.80519238571699,33.4105274079722,3559.0,STAPLEY DR & JARVIS AVE,Mesa,Standard,-111.80519238571699,33.4105274079722,AZ, , , 
134,-111.78776142791,33.4376931274931,9141.0,N GILBERT RD & E BROWN RD,Mesa,Standard,-111.78776142791,33.4376931274931,AZ, , , 
135,-111.78805428835399,33.4158815333508,2893.0,GILBERT RD & MAIN ST,Mesa,Standard,-111.78805428835399,33.4158815333508,AZ, , , 
136,-111.78773613372101,33.4395456266966,9142.0,N GILBERT RD & E GARY ST,Mesa,Standard,-111.78773613372101,33.4395456266966,AZ, , , 
137,-111.78851568957,33.3836161650427,5106.0,GILBERT RD & INTREPID AVE,Mesa,Standard,-111.78851568957,33.3836161650427,AZ, , , 
138,-111.788107700875,33.4113479782192,3360.0,GILBERT RD & BAYBERRY AVE,Mesa,Standard,-111.788107700875,33.4113479782192,AZ, , , 
139,-111.68428721812599,33.4185462975917,3026.0,POWER RD & ALBANY ST,Mesa,Standard,-111.68428721812599,33.4185462975917,AZ, , , 
140,-111.80524399512,33.404452790558096,3554.0,STAPLEY DR & 6TH AVE,Mesa,Standard,-111.80524399512,33.404452790558096,AZ, , , 
141,-111.683825295805,33.4626209809148,9138.0,N POWER RD & E MELROSE ST,Mesa,Standard,-111.683825295805,33.4626209809148,AZ, , , 
142,-111.683847948151,33.4592052550813,9595.0,POWER RD & HERMOSA VISTA,Mesa,Standard,-111.683847948151,33.4592052550813,AZ, , , 
143,-111.92653806941,33.4579725466934,4752.0,SCOTTSDALE RD & CONTINENTAL DR,Tempe,Standard,-111.92653806941,33.4579725466934,AZ, , , 
144,-111.92558988346501,33.451063032795,532.0,MCKELLIPS RD & SCOTTSDALE RD,Tempe,Standard,-111.92558988346501,33.451063032795,AZ, , , 
145,-111.870345341715,33.415729580607,8758.0,SYCAMORE/MAIN ST TRANSIT CENTER,Mesa,Transit Center,-111.870345341715,33.415729580607,AZ, , , 
146,-111.840107736531,33.4145175009168,5067.0,COUNTRY CLUB DR & MAIN ST,Mesa,Standard,-111.840107736531,33.4145175009168,AZ, , , 
147,-111.840226320798,33.406028786662304,5064.0,COUNTRY CLUB DR & BROADWAY FRONTAGE RD,Mesa,LINK,-111.840226320798,33.406028786662304,AZ, , , 
148,-111.840237218211,33.4001398648762,5063.0,COUNTRY CLUB DR & 8TH AVE,Mesa,Standard,-111.840237218211,33.4001398648762,AZ, , , 
149,-111.84024107340299,33.396601652841895,5065.0,COUNTRY CLUB DR & EMERALD AVE,Mesa,Standard,-111.84024107340299,33.396601652841895,AZ, , , 
150,-111.84029144908101,33.3926316133196,5068.0,COUNTRY CLUB DR & SOUTHERN AVE,Mesa,LINK,-111.84029144908101,33.3926316133196,AZ, , , 
151,-111.840265214563,33.3886657972989,5061.0,COUNTRY CLUB DR & HAMPTON AVE,Mesa,Standard,-111.840265214563,33.3886657972989,AZ, , , 
152,-111.84032195961399,33.3818254842947,9505.0,S COUNTRY CLUB & W JUANITA,Mesa,LINK,-111.84032195961399,33.3818254842947,AZ, , , 
153,-111.84238242119801,33.3817335083704,9088.0,WEST MESA PARK AND RIDE,Mesa,Park and Ride,-111.84238242119801,33.3817335083704,AZ, , , 
154,-111.841742558438,33.37818375005,9375.0,COUNTRY CLUB DR & BASELINE RD,Mesa,Standard,-111.841742558438,33.37818375005,AZ, , , 
155,-111.842193611567,33.3680451478942,8066.0,COUNTRY CLUB DR & MESETO AVE,Mesa,LINK,-111.842193611567,33.3680451478942,AZ, , , 
156,-111.842037024275,33.3637425219217,8067.0,COUNTRY CLUB DR & GUADALUPE RD,Mesa,Standard,-111.842037024275,33.3637425219217,AZ, , , 
157,-111.839924658295,33.3826679066393,7821.0,COUNTRY CLUB DR & JUANITA AVE,Mesa,LINK,-111.839924658295,33.3826679066393,AZ, , , 
158,-111.839917280702,33.390950701406496,3334.0,COUNTRY CLUB DR & HAMPTON AVE,Mesa,Standard,-111.839917280702,33.390950701406496,AZ, , , 
159,-111.839830630028,33.394041373056396,3335.0,COUNTRY CLUB DR & SOUTHERN AVE,Mesa,LINK,-111.839830630028,33.394041373056396,AZ, , , 
160,-111.839908152148,33.3972843749159,3331.0,COUNTRY CLUB DR & 10TH AVE,Mesa,Standard,-111.839908152148,33.3972843749159,AZ, , , 
161,-111.839919407842,33.401323168634704,3333.0,COUNTRY CLUB DR & 8TH AVE,Mesa,Standard,-111.839919407842,33.401323168634704,AZ, , , 
162,-111.839870363088,33.40529919329001,3336.0,COUNTRY CLUB DR & 6TH DR,Mesa,LINK,-111.839870363088,33.40529919329001,AZ, , , 
163,-111.839744384965,33.413406801701996,3332.0,COUNTRY CLUB DR & 1ST AVE,Mesa,Standard,-111.839744384965,33.413406801701996,AZ, , , 
164,-111.839757561951,33.415628918188,2863.0,COUNTRY CLUB DR & MAIN ST,Mesa,LINK,-111.839757561951,33.415628918188,AZ, , , 
165,-111.83981191905701,33.417942104671695,2857.0,COUNTRY CLUB DR & 1ST ST,Mesa,Standard,-111.83981191905701,33.417942104671695,AZ, , , 
166,-111.83976933840599,33.4228938446818,2865.0,COUNTRY CLUB DR & UNIVERSITY DR,Mesa,Standard,-111.83976933840599,33.4228938446818,AZ, , , 
167,-111.839798035485,33.4263602698986,2858.0,COUNTRY CLUB DR & 6TH ST,Mesa,Standard,-111.839798035485,33.4263602698986,AZ, , , 
168,-111.83976154218901,33.430003758347,2859.0,COUNTRY CLUB DR & 8TH ST,Mesa,Standard,-111.83976154218901,33.430003758347,AZ, , , 
169,-111.839754582057,33.43269107169,2860.0,COUNTRY CLUB DR & 9TH PL,Mesa,Standard,-111.839754582057,33.43269107169,AZ, , , 
170,-111.839728226398,33.4354500978543,2861.0,COUNTRY CLUB DR & BROWN RD,Mesa,Standard,-111.839728226398,33.4354500978543,AZ, , , 
171,-111.83970182824899,33.439671877341496,2856.0,COUNTRY CLUB DR & 13TH PL,Mesa,Standard,-111.83970182824899,33.439671877341496,AZ, , , 
172,-111.83964840916201,33.444399330805396,2864.0,COUNTRY CLUB DR & MCLELLAN RD,Mesa,Standard,-111.83964840916201,33.444399330805396,AZ, , , 
173,-111.83962422787,33.448542139917,2862.0,COUNTRY CLUB DR & JUNIPER ST,Mesa,Standard,-111.83962422787,33.448542139917,AZ, , , 
174,-111.839269329284,33.4512982564548,1517.0,MCKELLIPS RD & COUNTRY CLUB DR,Mesa,Standard,-111.839269329284,33.4512982564548,AZ, , , 
175,-111.831283748105,33.450919857406895,4501.0,CENTER ST & MCKELLIPS RD,Mesa,Standard,-111.831283748105,33.450919857406895,AZ, , , 
176,-111.83127949450301,33.4469619379775,4500.0,CENTER ST & INGLEWOOD ST,Mesa,Standard,-111.83127949450301,33.4469619379775,AZ, , , 
177,-111.835156175436,33.444253761438496,6835.0,MCLELLAN RD & GRAND,Mesa,Standard,-111.835156175436,33.444253761438496,AZ, , , 
178,-111.839986092819,33.4438621452756,4568.0,COUNTRY CLUB DR & MCLELLAN RD,Mesa,Standard,-111.839986092819,33.4438621452756,AZ, , , 
179,-111.84002992895901,33.4397214965583,4567.0,COUNTRY CLUB DR & FAIRWAY DR,Mesa,Standard,-111.84002992895901,33.4397214965583,AZ, , , 
180,-111.84009978909,33.434739679763396,4566.0,COUNTRY CLUB DR & BROWN RD,Mesa,Standard,-111.84009978909,33.434739679763396,AZ, , , 
181,-111.84009661120001,33.4322254115756,4570.0,COUNTRY CLUB DR & 9TH ST,Mesa,Standard,-111.84009661120001,33.4322254115756,AZ, , , 
182,-111.840132190749,33.4294564582042,4565.0,COUNTRY CLUB DR & 8TH ST,Mesa,Standard,-111.840132190749,33.4294564582042,AZ, , , 
183,-111.84015626281901,33.426633218355896,4564.0,COUNTRY CLUB DR & 6TH PL,Mesa,Standard,-111.84015626281901,33.426633218355896,AZ, , , 
184,-111.84017793454201,33.4218253507632,4569.0,COUNTRY CLUB DR & UNIVERSITY DR,Mesa,Standard,-111.84017793454201,33.4218253507632,AZ, , , 
185,-111.840158156155,33.4170268532643,4563.0,COUNTRY CLUB DR & 1ST ST,Mesa,Standard,-111.840158156155,33.4170268532643,AZ, , , 
186,-111.82291368918,33.4289474298428,4684.0,MESA DR & 8TH ST,Mesa,Standard,-111.82291368918,33.4289474298428,AZ, , , 
187,-111.862763856756,33.436379465341304,8936.0,MESA RIVERVIEW,Mesa,Standard,-111.862763856756,33.436379465341304,AZ, , , 
188,-111.85636000011002,33.436221661798896,9275.0,N ALMA SCHOOL & BASS PRO DR,Mesa,Standard,-111.85636000011002,33.436221661798896,AZ, , , 
189,-111.856383977516,33.4334241885582,9442.0,N ALMA SCHOOL RD & W MOUNTAIN VIEW DR,Mesa,Standard,-111.856383977516,33.4334241885582,AZ, , , 
190,-111.85646980861999,33.429033556472696,4427.0,ALMA SCHOOL RD & 8TH ST,Mesa,Standard,-111.85646980861999,33.429033556472696,AZ, , , 
191,-111.85648369500299,33.4266418594938,4426.0,ALMA SCHOOL RD & 7TH ST,Mesa,Standard,-111.85648369500299,33.4266418594938,AZ, , , 
192,-111.85662215734101,33.4216069134197,4435.0,ALMA SCHOOL RD & UNIVERSITY DR,Mesa,Standard,-111.85662215734101,33.4216069134197,AZ, , , 
193,-111.856655019378,33.4187719971718,4438.0,ALMA SCHOOL RD & 2ND ST,Mesa,Standard,-111.856655019378,33.4187719971718,AZ, , , 
194,-111.856819769401,33.4142787693302,5010.0,ALMA SCHOOL RD & MAIN ST,Mesa,Standard,-111.856819769401,33.4142787693302,AZ, , , 
195,-111.85691656052201,33.4069087735628,5004.0,ALMA SCHOOL RD & BROADWAY RD,Mesa,Standard,-111.85691656052201,33.4069087735628,AZ, , , 
196,-111.85704497423599,33.4033565333037,5001.0,ALMA SCHOOL RD & 6TH AVE,Mesa,Standard,-111.85704497423599,33.4033565333037,AZ, , , 
197,-111.857182180818,33.3999319734679,5002.0,ALMA SCHOOL RD & 8TH AVE,Mesa,Standard,-111.857182180818,33.3999319734679,AZ, , , 
198,-111.857321073984,33.3964977136005,5006.0,ALMA SCHOOL RD & EMERALD AVE,Mesa,Standard,-111.857321073984,33.3964977136005,AZ, , , 
199,-111.857394174671,33.3933384463042,5016.0,ALMA SCHOOL RD & SOUTHERN AVE,Mesa,Standard,-111.857394174671,33.3933384463042,AZ, , , 
200,-111.86008799156299,33.390744132844,974.0,STEWART & GROVE AVE,Mesa,Standard,-111.86008799156299,33.390744132844,AZ, , , 
201,-111.858154288671,33.383002820253,5008.0,ALMA SCHOOL RD & ISABELLA AVE,Mesa,Standard,-111.858154288671,33.383002820253,AZ, , , 
202,-111.85996611780199,33.3780961108814,5003.0,ALMA SCHOOL RD & BASELINE RD,Mesa,Standard,-111.85996611780199,33.3780961108814,AZ, , , 
203,-111.85970421486,33.374357133250605,5009.0,ALMA SCHOOL RD & KILAREA AVE,Mesa,Standard,-111.85970421486,33.374357133250605,AZ, , , 
204,-111.85953991435301,33.3710511247188,5011.0,ALMA SCHOOL RD & MEDINA AVE,Mesa,Standard,-111.85953991435301,33.3710511247188,AZ, , , 
205,-111.859386881012,33.367875988722304,5013.0,ALMA SCHOOL RD & MESETO AVE,Mesa,Standard,-111.859386881012,33.367875988722304,AZ, , , 
206,-111.859270187617,33.3630021048414,5007.0,ALMA SCHOOL RD & GUADALUPE RD,Mesa,Standard,-111.859270187617,33.3630021048414,AZ, , , 
207,-111.859231369859,33.3599998065855,5014.0,ALMA SCHOOL RD & PECOS AVE,Mesa,Standard,-111.859231369859,33.3599998065855,AZ, , , 
208,-111.858941600286,33.360614998740694,3289.0,ALMA SCHOOL RD & PECOS AVE,Mesa,Standard,-111.858941600286,33.360614998740694,AZ, , , 
209,-111.858887318512,33.3649118003377,3282.0,ALMA SCHOOL RD & GUADALUPE RD,Mesa,Standard,-111.858887318512,33.3649118003377,AZ, , , 
210,-111.859140822591,33.3685448679907,3288.0,ALMA SCHOOL RD & MESETO AVE,Mesa,Standard,-111.859140822591,33.3685448679907,AZ, , , 
211,-111.859296237145,33.3717855172041,3287.0,ALMA SCHOOL RD & MEDINA AVE,Mesa,Standard,-111.859296237145,33.3717855172041,AZ, , , 
212,-111.85945735473699,33.3749639039085,3286.0,ALMA SCHOOL RD & KILAREA AVE,Mesa,Standard,-111.85945735473699,33.3749639039085,AZ, , , 
213,-111.85960208293699,33.3791082069523,3279.0,ALMA SCHOOL RD & BASELINE RD,Mesa,Standard,-111.85960208293699,33.3791082069523,AZ, , , 
214,-111.857779771227,33.3829737973873,3284.0,ALMA SCHOOL RD & ISABELLA AVE,Mesa,Standard,-111.857779771227,33.3829737973873,AZ, , , 
215,-111.857046708726,33.388720823601,3283.0,ALMA SCHOOL RD & HOLMES AVE,Mesa,Standard,-111.857046708726,33.388720823601,AZ, , , 
216,-111.856998761574,33.3936801121771,2728.0,ALMA SCHOOL RD & SOUTHERN AVE,Mesa,Standard,-111.856998761574,33.3936801121771,AZ, , , 
217,-111.856954949508,33.397043971178604,2720.0,ALMA SCHOOL RD & EMERALD AVE,Mesa,Standard,-111.856954949508,33.397043971178604,AZ, , , 
218,-111.856804855047,33.4006681662876,2716.0,ALMA SCHOOL RD & 8TH AVE,Mesa,Standard,-111.856804855047,33.4006681662876,AZ, , , 
219,-111.85672546970899,33.4032321717351,2713.0,ALMA SCHOOL RD & 6TH AVE,Mesa,Standard,-111.85672546970899,33.4032321717351,AZ, , , 
220,-111.85649723162399,33.40804988330669,2717.0,ALMA SCHOOL RD & BROADWAY RD,Mesa,Standard,-111.85649723162399,33.40804988330669,AZ, , , 
221,-111.856411550145,33.415386221149305,2724.0,ALMA SCHOOL RD & MAIN ST,Mesa,Standard,-111.856411550145,33.415386221149305,AZ, , , 
222,-111.85633468814899,33.4188216042597,2714.0,ALMA SCHOOL RD & 2ND ST,Mesa,Standard,-111.85633468814899,33.4188216042597,AZ, , , 
223,-111.85624795292,33.4225331739596,2730.0,ALMA SCHOOL RD & UNIVERSITY DR,Mesa,Standard,-111.85624795292,33.4225331739596,AZ, , , 
224,-111.856156943107,33.4271001832756,2715.0,ALMA SCHOOL RD & 7TH ST,Mesa,Standard,-111.856156943107,33.4271001832756,AZ, , , 
225,-111.856081480515,33.4331855638738,9443.0,N ALMA SCHOOL RD & W 10TH ST,Mesa,Standard,-111.856081480515,33.4331855638738,AZ, , , 
226,-111.687442873636,33.3657298951658,3478.0,POWER RD & GUADALUPE RD,Mesa,Standard,-111.687442873636,33.3657298951658,AZ, , , 
227,-111.68754931732501,33.3686469086888,8979.0,POWER RD & MONTEREY AV,Mesa,Standard,-111.68754931732501,33.3686469086888,AZ, , , 
228,-111.68760866134501,33.3721792025092,8876.0,Power Rd & Madero Ave,Mesa,Standard,-111.68760866134501,33.3721792025092,AZ, , , 
229,-111.687250083214,33.3791601322898,9212.0,E BASELINE RD & S POWER RD,Mesa,Standard,-111.687250083214,33.3791601322898,AZ, , , 
230,-111.683819957108,33.3792380189974,9213.0,E BASELINE RD & S ROSLYN,Mesa,Standard,-111.683819957108,33.3792380189974,AZ, , , 
231,-111.671628062791,33.3791750758472,9215.0,E BASELINE RD & S AVOCA,Mesa,Standard,-111.671628062791,33.3791750758472,AZ, , , 
232,-111.66719940120001,33.3791461525172,78.0,BASELINE RD & SOSSAMAN RD,Mesa,Standard,-111.66719940120001,33.3791461525172,AZ, , , 
233,-111.662524981681,33.3791636843405,9216.0,E BASELINE RD & S FARNSWORTH DR,Mesa,Standard,-111.662524981681,33.3791636843405,AZ, , , 
234,-111.660913561192,33.3788402031441,5086.0,FARNSWORTH DR & BASELINE RD,Mesa,Standard,-111.660913561192,33.3788402031441,AZ, , , 
235,-111.66126663701,33.3760958343778,3352.0,FARNSWORTH DR & KIOWA ST,Mesa,Standard,-111.66126663701,33.3760958343778,AZ, , , 
236,-111.66309117499,33.379357946798,5370.0,BASELINE RD & 78TH ST,Mesa,Standard,-111.66309117499,33.379357946798,AZ, , , 
237,-111.667691225767,33.3793623003302,5376.0,BASELINE RD & SOSSAMAN RD,Mesa,Standard,-111.667691225767,33.3793623003302,AZ, , , 
238,-111.687694407814,33.380049882033504,3475.0,POWER RD & BASELINE RD,Mesa,Standard,-111.687694407814,33.380049882033504,AZ, , , 
239,-111.689096783026,33.3876415766442,8833.0,SUPERSTITION SPRINGS TRANSIT CENTER,Mesa,Transit Center,-111.689096783026,33.3876415766442,AZ, , , 
240,-111.68505854778499,33.3896394155726,8999.0,POWER RD & HAMPTON AVE,Mesa,Standard,-111.68505854778499,33.3896394155726,AZ, , , 
241,-111.685560123697,33.3834874663147,5221.0,POWER RD & SUPERSTITION SPRINGS BLVD,Mesa,Standard,-111.685560123697,33.3834874663147,AZ, , , 
242,-111.92739062485201,33.4583270173752,9627.0,Continental Dr & Bull Run St,Tempe,Standard,-111.92739062485201,33.4583270173752,AZ, , , 
243,-111.927203749979,33.458516671862505,9643.0,Continental Dr - Scottsdale Rd,Tempe,Standard,-111.927203749979,33.458516671862505,AZ, , , 
244,-111.922360432735,33.4511126986135,9651.0,McKellips Rd & 74th St,Tempe,Standard,-111.922360432735,33.4511126986135,AZ, , , 
245,-111.842367228824,33.3724914634232,9548.0,Country Club Dr & Desert Ln,Mesa,Standard,-111.842367228824,33.3724914634232,AZ, , , 
246,-111.85609569564899,33.4298633772576,9652.0,Alma School Rd & 8th St,Mesa,Standard,-111.85609569564899,33.4298633772576,AZ, , , 
247,-111.680290925657,33.379207220928194,9214.0,Baseline Rd & Superstition Springs Blvd,Mesa,Standard,-111.680290925657,33.379207220928194,AZ, , , 
248,-111.681197511414,33.3794866965802,9653.0,Baseline Rd & Superstition Springs Blvd,Mesa,Standard,-111.681197511414,33.3794866965802,AZ, , , 
249,-111.685895886042,33.307013562165,9431.0,WILLIAMS FIELD RD & D ST SAGEWOOD,Mesa,Standard,-111.685895886042,33.307013562165,AZ, , , 
250,-111.680247679342,33.3088860294434,9464.0,WILLIAMS CAMPUS LOOP N & WILLIAMS CAMPUS LOOP E,Mesa,Standard,-111.680247679342,33.3088860294434,AZ, , , 
251,-111.68314367162901,33.3072763024361,8980.0,WILLIAMS FIELD RD & EDGEWATER,Mesa,Standard,-111.68314367162901,33.3072763024361,AZ, , , 
252,-111.89741716862801,33.3451156473348,5255.0,RIVER PKWY & TECHNOLOGY CIR,Tempe,Standard,-111.89741716862801,33.3451156473348,AZ, , , 
253,-111.904626312416,33.4308760742719,9564.0,TEMPE MARKETPLACE,Tempe,Standard,-111.904626312416,33.4308760742719,AZ, , , 
254,-111.771704435234,33.4228190374045,6068.0,UNIVERSITY DR & LINDSAY RD,Mesa,Standard,-111.771704435234,33.4228190374045,AZ, , , 
255,-111.777149963016,33.4225456655586,827.0,UNIVERSITY DR & 25TH ST,Mesa,Standard,-111.777149963016,33.4225456655586,AZ, , , 
256,-111.874335580595,33.4313604321844,8934.0,DOBSON RD & RIVERVIEW DR,Mesa,Standard,-111.874335580595,33.4313604321844,AZ, , , 
257,-111.87443990094201,33.429097735500996,9147.0,N DOBSON RD & W 8TH ST,Mesa,Standard,-111.87443990094201,33.429097735500996,AZ, , , 
258,-111.874492821681,33.4256655168659,9441.0,N DOBSON RD & W DECATUR ST,Mesa,Standard,-111.874492821681,33.4256655168659,AZ, , , 
259,-111.874561980487,33.4215787706624,4582.0,DOBSON RD & UNIVERSITY DR,Mesa,Standard,-111.874561980487,33.4215787706624,AZ, , , 
260,-111.874560801194,33.41828321912749,4574.0,DOBSON RD & 2ND ST,Mesa,Standard,-111.874560801194,33.41828321912749,AZ, , , 
261,-111.874662470079,33.4126693695218,5070.0,DOBSON RD & 1ST AVE,Mesa,Standard,-111.874662470079,33.4126693695218,AZ, , , 
262,-111.87475264052601,33.406960227367705,5073.0,DOBSON RD & BROADWAY RD,Mesa,Standard,-111.87475264052601,33.406960227367705,AZ, , , 
263,-111.874743913259,33.403160430079105,5081.0,BROADWAY RD & 8TH AVE,Mesa,Standard,-111.874743913259,33.403160430079105,AZ, , , 
264,-111.874756552792,33.3999697529971,5071.0,DOBSON RD & 8TH AVE,Mesa,Standard,-111.874756552792,33.3999697529971,AZ, , , 
265,-111.874769059921,33.396497222365,5074.0,DOBSON RD & EMERALD AVE,Mesa,Standard,-111.874769059921,33.396497222365,AZ, , , 
266,-111.8748236258,33.3925642916961,5080.0,DOBSON RD & SOUTHERN AVE,Mesa,Standard,-111.8748236258,33.3925642916961,AZ, , , 
267,-111.87485561623501,33.3887136446271,5083.0,SOUTHERN AVE & US 60,Mesa,Standard,-111.87485561623501,33.3887136446271,AZ, , , 
268,-111.875658966727,33.3825666024147,5075.0,DOBSON RD & ISABELLA AVE,Mesa,Standard,-111.875658966727,33.3825666024147,AZ, , , 
269,-111.87808732298099,33.377786719677,9092.0,S DOBSON RD & W BASELINE RD,Mesa,Standard,-111.87808732298099,33.377786719677,AZ, , , 
270,-111.87961735683099,33.375184101399604,8928.0,DOBSON & LINDNER,Mesa,Standard,-111.87961735683099,33.375184101399604,AZ, , , 
271,-111.88040792046499,33.371591760753304,8927.0,DOBSON & LOS LAGOS VISTA,Mesa,Standard,-111.88040792046499,33.371591760753304,AZ, , , 
272,-111.87756218514099,33.3670247107207,8930.0,DOBSON & KEATING,Mesa,Standard,-111.87756218514099,33.3670247107207,AZ, , , 
273,-111.87678515171301,33.3631876671723,8931.0,DOBSON & GUADALUPE,Mesa,Standard,-111.87678515171301,33.3631876671723,AZ, , , 
274,-111.876694607632,33.3601852240762,8932.0,DOBSON & PORTOBELLO,Mesa,Standard,-111.876694607632,33.3601852240762,AZ, , , 
275,-111.895368758504,33.3495240894637,5626.0,ELLIOT RD & PRICE RD,Tempe,Standard,-111.895368758504,33.3495240894637,AZ, , , 
276,-111.898266934468,33.349394613543204,5628.0,ELLIOT RD & RIVER PKWY,Tempe,Standard,-111.898266934468,33.349394613543204,AZ, , , 
277,-111.903251043326,33.3493461418104,5621.0,ELLIOT RD & COUNTRY CLUB WY,Tempe,Standard,-111.903251043326,33.3493461418104,AZ, , , 
278,-111.90719654410101,33.349320110320804,5624.0,ELLIOT RD & LOS FELIZ DR,Tempe,Standard,-111.90719654410101,33.349320110320804,AZ, , , 
279,-111.911932095562,33.3492459886418,5625.0,ELLIOT RD & MCCLINTOCK DR,Tempe,Standard,-111.911932095562,33.3492459886418,AZ, , , 
280,-111.915241636698,33.349257757867306,5630.0,ELLIOT RD & WILLOW DR,Tempe,Standard,-111.915241636698,33.349257757867306,AZ, , , 
281,-111.92006014316601,33.3492960498444,5623.0,ELLIOT RD & LAKESHORE DR,Tempe,Standard,-111.92006014316601,33.3492960498444,AZ, , , 
282,-111.92374945862,33.3492954163178,5627.0,ELLIOT RD & RITA LN,Tempe,Standard,-111.92374945862,33.3492954163178,AZ, , , 
283,-111.92888697727301,33.34932359603449,5629.0,ELLIOT RD & RURAL RD,Tempe,Standard,-111.92888697727301,33.34932359603449,AZ, , , 
284,-111.93357223728901,33.3493146498144,5632.0,ELLIOT RD & COLLEGE AVE,Tempe,Standard,-111.93357223728901,33.3493146498144,AZ, , , 
285,-111.937404836505,33.3493105513329,6571.0,MILL AVE & DATELAND DR,Tempe,Standard,-111.937404836505,33.3493105513329,AZ, , , 
286,-111.939419645963,33.3493358343242,6548.0,ELLIOT RD & DATELAND DR,Tempe,Standard,-111.939419645963,33.3493358343242,AZ, , , 
287,-111.94645767783301,33.3493713969088,6567.0,ELLIOT RD & KYRENE RD,Tempe,Standard,-111.94645767783301,33.3493713969088,AZ, , , 
288,-111.950850939451,33.3493055535985,6569.0,ELLIOT RD & ROOSEVELT ST,Tempe,Standard,-111.950850939451,33.3493055535985,AZ, , , 
289,-111.95501797377399,33.3492971454326,6565.0,ELLIOT RD & HARDY DR,Tempe,Standard,-111.95501797377399,33.3492971454326,AZ, , , 
290,-111.958891529776,33.3492864135279,6570.0,HARDY DR & PRIEST DR,Tempe,Standard,-111.958891529776,33.3492864135279,AZ, , , 
291,-111.963922458659,33.3492593628728,6568.0,ELLIOT RD & PRIEST DR,Tempe,Standard,-111.963922458659,33.3492593628728,AZ, , , 
292,-111.96646928183,33.349240101545,6566.0,ELLIOT RD & HARL AVE,Tempe,Standard,-111.96646928183,33.349240101545,AZ, , , 
293,-111.965279494029,33.3489401463307,9453.0,W ELLIOT RD & AUTOPLEX S HARL AV,Tempe,Standard,-111.965279494029,33.3489401463307,AZ, , , 
294,-111.96253428868201,33.3489415963874,1280.0,ELLIOT RD & PRIEST DR,Tempe,Standard,-111.96253428868201,33.3489415963874,AZ, , , 
295,-111.957863466597,33.348994352023894,1281.0,PRIEST DR & HARDY DR,Tempe,Standard,-111.957863466597,33.348994352023894,AZ, , , 
296,-111.953708782981,33.3489636814175,1275.0,ELLIOT RD & HARDY DR,Tempe,Standard,-111.953708782981,33.3489636814175,AZ, , , 
297,-111.94947544232001,33.34903569461201,1263.0,ELLIOT RD & ROOSEVELT ST,Tempe,Standard,-111.94947544232001,33.34903569461201,AZ, , , 
298,-111.944965172581,33.349012084635895,333.0,ELLIOT RD & KYRENE RD,Tempe,Standard,-111.944965172581,33.349012084635895,AZ, , , 
299,-111.93923068485901,33.3490632158782,330.0,ELLIOT RD & DATELAND DR,Tempe,Standard,-111.93923068485901,33.3490632158782,AZ, , , 
300,-111.93677596114401,33.3490397628858,339.0,ELLIOT RD & MILL AVE,Tempe,Standard,-111.93677596114401,33.3490397628858,AZ, , , 
301,-111.933511684939,33.3490611251121,329.0,ELLIOT RD & COLLEGE AVE,Tempe,Standard,-111.933511684939,33.3490611251121,AZ, , , 
302,-111.927668640079,33.3490333337788,340.0,ELLIOT RD & RURAL RD,Tempe,Standard,-111.927668640079,33.3490333337788,AZ, , , 
303,-111.923789663544,33.3490355384088,322.0,ELLIOT RD & RITA LN,Tempe,Standard,-111.923789663544,33.3490355384088,AZ, , , 
304,-111.919567479482,33.3490219423032,334.0,ELLIOT RD & LAKESHORE DR,Tempe,Standard,-111.919567479482,33.3490219423032,AZ, , , 
305,-111.91538907374701,33.348998953295805,342.0,ELLIOT RD & WILLOW DR,Tempe,Standard,-111.91538907374701,33.348998953295805,AZ, , , 
306,-111.913403413846,33.3489418789108,343.0,WILLOW DR & MCCLINTOCK DR,Tempe,Standard,-111.913403413846,33.3489418789108,AZ, , , 
307,-111.91069692314801,33.348965599847,338.0,ELLIOT RD & MCCLINTOCK DR,Tempe,Standard,-111.91069692314801,33.348965599847,AZ, , , 
308,-111.90646413300301,33.3490310728971,337.0,ELLIOT RD & LOS FELIZ DR,Tempe,Standard,-111.90646413300301,33.3490310728971,AZ, , , 
309,-111.903073603711,33.3490691332313,323.0,ELLIOT RD & COUNTRY CLUB WY,Tempe,Standard,-111.903073603711,33.3490691332313,AZ, , , 
310,-111.876387546715,33.3579555181456,8933.0,DOBSON & PAMPA,Mesa,Standard,-111.876387546715,33.3579555181456,AZ, , , 
311,-111.876419435328,33.3606960269627,9097.0,S DOBSON RD & W PORTOBELLO AV,Mesa,Standard,-111.876419435328,33.3606960269627,AZ, , , 
312,-111.876391796432,33.3646201009406,3341.0,DOBSON RD & GUADALUPE RD,Mesa,Standard,-111.876391796432,33.3646201009406,AZ, , , 
313,-111.87767546479401,33.3677824690874,5077.0,DOBSON RD & KEATING AVE,Mesa,Standard,-111.87767546479401,33.3677824690874,AZ, , , 
314,-111.87976426152001,33.3707798055231,8992.0,DOBSON AT MESA LIBRARY,Mesa,Standard,-111.87976426152001,33.3707798055231,AZ, , , 
315,-111.87811817668002,33.37664563748829,3343.0,DOBSON RD & LINDNER AVE,Mesa,Standard,-111.87811817668002,33.37664563748829,AZ, , , 
316,-111.877430146354,33.3789424140689,3338.0,DOBSON RD & BASELINE RD,Mesa,Standard,-111.877430146354,33.3789424140689,AZ, , , 
317,-111.874913195283,33.3831192301078,3342.0,DOBSON RD & ISABELLA AVE,Mesa,Standard,-111.874913195283,33.3831192301078,AZ, , , 
318,-111.87444429079399,33.3897857727531,3346.0,US 60 & SOUTHERN AVE,Mesa,Standard,-111.87444429079399,33.3897857727531,AZ, , , 
319,-111.874405033311,33.3935831363277,3345.0,DOBSON RD & SOUTHERN AVE,Mesa,Standard,-111.874405033311,33.3935831363277,AZ, , , 
320,-111.874432383949,33.4029647294117,3348.0,8TH AVE & BROADWAY RD,Mesa,Standard,-111.874432383949,33.4029647294117,AZ, , , 
321,-111.874296432645,33.408124054755895,3339.0,DOBSON RD & BROADWAY RD,Mesa,Standard,-111.874296432645,33.408124054755895,AZ, , , 
322,-111.874234689756,33.4158273408316,2875.0,DOBSON RD & MAIN ST,Mesa,Standard,-111.874234689756,33.4158273408316,AZ, , , 
323,-111.87420281695101,33.4185527731374,8100.0,DOBSON RD & 2ND ST,Mesa,Standard,-111.87420281695101,33.4185527731374,AZ, , , 
324,-111.874185606807,33.422510673455804,2876.0,DOBSON RD & UNIVERSITY DR,Mesa,Standard,-111.874185606807,33.422510673455804,AZ, , , 
325,-111.874158349119,33.4260377772241,2871.0,DOBSON RD & DECATUR ST,Mesa,Standard,-111.874158349119,33.4260377772241,AZ, , , 
326,-111.874004454693,33.4309548186054,8996.0,N DOBSON RD & 8TH STREET,Mesa,Standard,-111.874004454693,33.4309548186054,AZ, , , 
327,-111.86920829241,33.4311256182586,8994.0,MESA RIVERVIEW NEAR HOME DEPOT,Mesa,Standard,-111.86920829241,33.4311256182586,AZ, , , 
328,-111.867124251668,33.4335736104176,8997.0,MESA RIVERVIEW NEAR WALMART,Mesa,Standard,-111.867124251668,33.4335736104176,AZ, , , 
329,-111.86816539725001,33.4343748568758,8935.0,BASS PRO DR & DOBSON RD,Mesa,Standard,-111.86816539725001,33.4343748568758,AZ, , , 
330,-111.908884822367,33.422668720976,3431.0,MCCLINTOCK DR & UNIVERSITY DR,Tempe,Standard,-111.908884822367,33.422668720976,AZ, , , 
331,-111.908952144054,33.42495041476,9421.0,S MCCLINTOCK DR AT 525 S MCCLINTOCK,Tempe,Standard,-111.908952144054,33.42495041476,AZ, , , 
332,-111.90951086936,33.4493426056044,4674.0,MCCLINTOCK DR & LARKSPUR LN,Tempe,Standard,-111.90951086936,33.4493426056044,AZ, , , 
333,-111.909504472642,33.446016571154104,4655.0,LARKSPUR LN & WEBER DR,Tempe,Standard,-111.909504472642,33.446016571154104,AZ, , , 
334,-111.90965140776501,33.4435594750642,4676.0,MCCLINTOCK DR & WEBER DR,Tempe,Standard,-111.90965140776501,33.4435594750642,AZ, , , 
335,-111.909650641843,33.4401134698155,4675.0,MCCLINTOCK DR & CURRY RD,Tempe,Standard,-111.909650641843,33.4401134698155,AZ, , , 
336,-111.908468659825,33.4291624119803,9423.0,RIO SALADO PKWY & S MCCLINTOCK DR,Tempe,Standard,-111.908468659825,33.4291624119803,AZ, , , 
337,-111.909194784621,33.428620675647004,5169.0,MCCLINTOCK DR & RIO SALADO PKWY,Tempe,Standard,-111.909194784621,33.428620675647004,AZ, , , 
338,-111.909227047403,33.424498667154104,9422.0,S MCCLINTOCK DR AT 526 S MCCLINTOCK,Tempe,Standard,-111.909227047403,33.424498667154104,AZ, , , 
339,-111.909304658146,33.4214893170463,5172.0,MCCLINTOCK DR & UNIVERSITY DR,Tempe,Standard,-111.909304658146,33.4214893170463,AZ, , , 
340,-111.90923576329399,33.4197495142136,5177.0,MCCLINTOCK DR & 8TH ST,Tempe,Standard,-111.90923576329399,33.4197495142136,AZ, , , 
341,-111.909217196247,33.417056609114496,5163.0,MCCLINTOCK DR & DON CARLOS AVE,Tempe,Standard,-111.909217196247,33.417056609114496,AZ, , , 
342,-111.90926724721399,33.4143398216351,5156.0,MCCLINTOCK DR & APACHE BLVD,Tempe,Standard,-111.90926724721399,33.4143398216351,AZ, , , 
343,-111.90926602497998,33.4070845948488,5159.0,MCCLINTOCK DR & BROADWAY RD,Tempe,Standard,-111.90926602497998,33.4070845948488,AZ, , , 
344,-111.909251938075,33.4038898647755,5168.0,MCCLINTOCK DR & PALMCROFT DR,Tempe,Standard,-111.909251938075,33.4038898647755,AZ, , , 
345,-111.90926052318501,33.3999172020131,5155.0,MCCLINTOCK DR & ALAMEDA DR,Tempe,Standard,-111.90926052318501,33.3999172020131,AZ, , , 
346,-111.909260520291,33.3980630992481,5160.0,MCCLINTOCK DR & CAMPUS DR,Tempe,Standard,-111.909260520291,33.3980630992481,AZ, , , 
347,-111.9092768665,33.3949566662787,5174.0,MCCLINTOCK DR & SOUTHERN AVE,Tempe,Standard,-111.9092768665,33.3949566662787,AZ, , , 
348,-111.909308734707,33.39253912760461,5170.0,MCCLINTOCK DR & SOUTHERN AVE,Tempe,Standard,-111.909308734707,33.39253912760461,AZ, , , 
349,-111.90931936875401,33.3905251400688,5166.0,MCCLINTOCK DR & LAGUNA DR,Tempe,Standard,-111.90931936875401,33.3905251400688,AZ, , , 
350,-111.90934364371701,33.3873970041055,5176.0,MCCLINTOCK DR & HERMOSA DR,Tempe,Standard,-111.90934364371701,33.3873970041055,AZ, , , 
351,-111.909373078617,33.383583055763395,5161.0,MCCLINTOCK DR & CARSON DR,Tempe,Standard,-111.909373078617,33.383583055763395,AZ, , , 
352,-111.909387834896,33.382152933853305,5175.0,MCCLINTOCK DR & MINTON DR,Tempe,Standard,-111.909387834896,33.382152933853305,AZ, , , 
353,-111.909423322899,33.3798108312063,5164.0,MCCLINTOCK DR & DUNBAR DR,Tempe,Standard,-111.909423322899,33.3798108312063,AZ, , , 
354,-111.909422384492,33.3780881803077,5157.0,MCCLINTOCK DR & BASELINE RD,Tempe,Standard,-111.909422384492,33.3780881803077,AZ, , , 
355,-111.910263545842,33.3758421662121,5154.0,MCCLINTOCK DR & OXFORD DR,Tempe,Standard,-111.910263545842,33.3758421662121,AZ, , , 
356,-111.911425943345,33.371996271652606,5171.0,MCCLINTOCK DR & SOUTHSHORE DR,Tempe,Standard,-111.911425943345,33.371996271652606,AZ, , , 
357,-111.91140059781901,33.3691951663497,5173.0,MCCLINTOCK DR & WATSON DR,Tempe,Standard,-111.91140059781901,33.3691951663497,AZ, , , 
358,-111.911368954468,33.3653653957694,5167.0,MCCLINTOCK DR & LIBRA DR,Tempe,Standard,-111.911368954468,33.3653653957694,AZ, , , 
359,-111.911417233568,33.363325288070506,5165.0,MCCLINTOCK DR & GUADALUPE RD,Tempe,Standard,-111.911417233568,33.363325288070506,AZ, , , 
360,-111.91135907144199,33.35946814388211,5158.0,MCCLINTOCK DR & BELL DE MAR DR,Tempe,Standard,-111.91135907144199,33.35946814388211,AZ, , , 
361,-111.911340686826,33.3540748964964,5162.0,MCCLINTOCK DR & DAVA DR,Tempe,Standard,-111.911340686826,33.3540748964964,AZ, , , 
362,-111.911403004889,33.348295673464605,8988.0,MCCLINTOCK & ELLIOTT,Tempe,Standard,-111.911403004889,33.348295673464605,AZ, , , 
363,-111.91130952495199,33.3442507961996,8989.0,MCCLINTOCK & SECRETARIAT,Tempe,Standard,-111.91130952495199,33.3442507961996,AZ, , , 
364,-111.911286963876,33.339318066221104,8990.0,MCCLINTOCK & CALLE DE CABALLOS,Tempe,Standard,-111.911286963876,33.339318066221104,AZ, , , 
365,-111.911279056896,33.333737278513,8633.0,MCCLINTOCK DR & WARNER RD,Tempe,Standard,-111.911279056896,33.333737278513,AZ, , , 
366,-111.911269562821,33.3312126579494,8632.0,MCCLINTOCK DR & LA VIEVE LN,Tempe,Standard,-111.911269562821,33.3312126579494,AZ, , , 
367,-111.91126027662901,33.328583160974695,8631.0,MCCLINTOCK DR & JEANINE DR,Tempe,Standard,-111.91126027662901,33.328583160974695,AZ, , , 
368,-111.91104888887199,33.3286078181328,8628.0,MCCLINTOCK DR & JEANINE DR,Tempe,Standard,-111.91104888887199,33.3286078181328,AZ, , , 
369,-111.91103981499,33.3319401538242,8627.0,MCCLINTOCK DR & LA VIEVE LN,Tempe,Standard,-111.91103981499,33.3319401538242,AZ, , , 
370,-111.910628465183,33.3345153939828,946.0,WARNER RD & MCCLINTOCK DR,Tempe,Standard,-111.910628465183,33.3345153939828,AZ, , , 
371,-111.90591872379999,33.334586042804105,945.0,WARNER RD & LOS FELIZ DR,Tempe,Standard,-111.90591872379999,33.334586042804105,AZ, , , 
372,-111.90322781757799,33.3346234573241,951.0,WARNER RD & KENWOOD LN,Tempe,Standard,-111.90322781757799,33.3346234573241,AZ, , , 
373,-111.90019262737101,33.334621604017,940.0,WARNER RD & FAIRFIELD DR,Tempe,Standard,-111.90019262737101,33.334621604017,AZ, , , 
374,-111.899131209501,33.3398490477074,9345.0,CENTENNIAL & RIVER,Tempe,Standard,-111.899131209501,33.3398490477074,AZ, , , 
375,-111.90110203852,33.3348348479113,6167.0,WARNER RD & FAIRFIELD DR,Tempe,Standard,-111.90110203852,33.3348348479113,AZ, , , 
376,-111.903785501056,33.3348059503212,7735.0,WARNER RD & KENWOOD LN,Tempe,Standard,-111.903785501056,33.3348059503212,AZ, , , 
377,-111.906922071273,33.3347793476458,6173.0,WARNER RD & LOS FELIZ DR,Tempe,Standard,-111.906922071273,33.3347793476458,AZ, , , 
378,-111.911020563391,33.3351169426112,8985.0,MCCLINTOCK & WARNER,Tempe,Standard,-111.911020563391,33.3351169426112,AZ, , , 
379,-111.911026682336,33.3397996577182,8986.0,MCCLINTOCK & CALLE DE CABALLOS,Tempe,Standard,-111.911026682336,33.3397996577182,AZ, , , 
380,-111.911028410849,33.3448682544553,8987.0,MCCLINTOCK & SECRETARIAT,Tempe,Standard,-111.911028410849,33.3448682544553,AZ, , , 
381,-111.91103009027,33.3495172955096,3422.0,MCCLINTOCK DR & ELLIOT RD,Tempe,Standard,-111.91103009027,33.3495172955096,AZ, , , 
382,-111.911016322615,33.35395898101689,3416.0,MCCLINTOCK DR & ANOZIRA PKWY N,Tempe,Standard,-111.911016322615,33.35395898101689,AZ, , , 
383,-111.911056828032,33.3601063707828,3419.0,MCCLINTOCK DR & BELL DE MAR DR,Tempe,Standard,-111.911056828032,33.3601063707828,AZ, , , 
384,-111.91101932983,33.3641943718233,3424.0,MCCLINTOCK DR & GUADALUPE RD,Tempe,Standard,-111.91101932983,33.3641943718233,AZ, , , 
385,-111.911120025581,33.3698588270501,3432.0,MCCLINTOCK DR & WATSON DR,Tempe,Standard,-111.911120025581,33.3698588270501,AZ, , , 
386,-111.911173001392,33.371840787321,3436.0,MCCLINTOCK DR & CORNELL DR,Tempe,Standard,-111.911173001392,33.371840787321,AZ, , , 
387,-111.91001213786801,33.3757045227807,3428.0,MCCLINTOCK DR & OXFORD DR,Tempe,Standard,-111.91001213786801,33.3757045227807,AZ, , , 
388,-111.909087300044,33.3789254055568,3418.0,MCCLINTOCK DR & BASELINE RD,Tempe,Standard,-111.909087300044,33.3789254055568,AZ, , , 
389,-111.90907124326401,33.3809357986802,3423.0,MCCLINTOCK DR & ELLIS DR,Tempe,Standard,-111.90907124326401,33.3809357986802,AZ, , , 
390,-111.90900016327801,33.3840834020179,3434.0,MCCLINTOCK DR & US 60,Tempe,Standard,-111.90900016327801,33.3840834020179,AZ, , , 
391,-111.908992353939,33.387148878903496,3433.0,MCCLINTOCK DR & US 60,Tempe,Standard,-111.908992353939,33.387148878903496,AZ, , , 
392,-111.909010192558,33.3905708994199,3426.0,MCCLINTOCK DR & LA JOLLA DR,Tempe,Standard,-111.909010192558,33.3905708994199,AZ, , , 
393,-111.90891122729099,33.3932383760392,3430.0,MCCLINTOCK DR & SOUTHERN AVE,Tempe,Standard,-111.90891122729099,33.3932383760392,AZ, , , 
394,-111.908934506966,33.3981011937185,3435.0,MCCLINTOCK DR & CAMPUS DR,Tempe,Standard,-111.908934506966,33.3981011937185,AZ, , , 
395,-111.908970028771,33.400453680522105,3415.0,MCCLINTOCK DR & ALAMEDA DR,Tempe,Standard,-111.908970028771,33.400453680522105,AZ, , , 
396,-111.908983417383,33.405033891996396,3429.0,MCCLINTOCK DR & PALMCROFT DR,Tempe,Standard,-111.908983417383,33.405033891996396,AZ, , , 
397,-111.908899376839,33.4080777876166,3420.0,MCCLINTOCK DR & BROADWAY RD,Tempe,Standard,-111.908899376839,33.4080777876166,AZ, , , 
398,-111.90895414044701,33.4142776478979,3417.0,MCCLINTOCK DR & APACHE BLVD,Tempe,Standard,-111.90895414044701,33.4142776478979,AZ, , , 
399,-111.908979252595,33.4178229234845,3421.0,MCCLINTOCK DR & DON CARLOS AVE,Tempe,Standard,-111.908979252595,33.4178229234845,AZ, , , 
400,-111.90896285702601,33.4193697782232,3425.0,MCCLINTOCK DR & HAYDEN LN,Tempe,Standard,-111.90896285702601,33.4193697782232,AZ, , , 
401,-111.909736591222,33.422125791251304,6093.0,UNIVERSITY DR & MCCLINTOCK DR,Tempe,Standard,-111.909736591222,33.422125791251304,AZ, , , 
402,-111.92671689802799,33.4221582717561,6097.0,UNIVERSITY DR & RURAL RD,Tempe,Standard,-111.92671689802799,33.4221582717561,AZ, , , 
403,-111.938496441285,33.425598509064,5324.0,5TH ST & MYRTLE AVE,Tempe,Standard,-111.938496441285,33.425598509064,AZ, , , 
404,-111.940743507085,33.4255957695657,6256.0,5TH ST & MILL AVE,Tempe,Standard,-111.940743507085,33.4255957695657,AZ, , , 
405,-111.94313918460101,33.4255900001411,9469.0,5TH ST & ASH ST,Tempe,Standard,-111.94313918460101,33.4255900001411,AZ, , , 
406,-111.94285358744301,33.427278906030104,8921.0,ASH AVE & 3RD ST,Tempe,Standard,-111.94285358744301,33.427278906030104,AZ, , , 
407,-111.942497599095,33.4292007214261,9419.0,S ASH AV AT W RIO SALADO PKWY,Tempe,Standard,-111.942497599095,33.4292007214261,AZ, , , 
408,-111.94536954253401,33.4315379497401,8920.0,RIO SALADO PKWY AT LINEAR PARK,Tempe,Standard,-111.94536954253401,33.4315379497401,AZ, , , 
409,-111.94920931661,33.4309328732056,9565.0,RIO SALADO PKWY & TEMPE CENTER FOR THE ARTS,Tempe,Standard,-111.94920931661,33.4309328732056,AZ, , , 
410,-111.95203841098301,33.4310954884405,8918.0,RIO SALADO PKWY & HARDY DR,Tempe,Standard,-111.95203841098301,33.4310954884405,AZ, , , 
411,-111.961552192708,33.4295427327449,8916.0,RIO SALADO PKWY & PRIEST DR,Tempe,Standard,-111.961552192708,33.4295427327449,AZ, , , 
412,-111.969781252071,33.4301308711862,8911.0,RIO SALADO PKWY AT 2050 WEST,Tempe,Standard,-111.969781252071,33.4301308711862,AZ, , , 
413,-111.969724676987,33.426564074648,9420.0,N 52ND ST & W 4TH ST,Tempe,Standard,-111.969724676987,33.426564074648,AZ, , , 
414,-111.969683446797,33.4216094469369,7817.0,52ND ST & UNIVERSITY DR,Tempe,Standard,-111.969683446797,33.4216094469369,AZ, , , 
415,-111.96962623909401,33.4176854509532,7812.0,52ND ST & MEDTRONIC WY,Tempe,Standard,-111.96962623909401,33.4176854509532,AZ, , , 
416,-111.96958702915,33.4132630253161,7816.0,52ND ST & 14TH ST,Tempe,Standard,-111.96958702915,33.4132630253161,AZ, , , 
417,-111.969587810404,33.411329916217696,8912.0,52ND ST & 16TH ST,Tempe,Standard,-111.969587810404,33.411329916217696,AZ, , , 
418,-111.97772765150299,33.378033490757396,1012.0,BASELINE RD & 48TH ST,Tempe,Standard,-111.97772765150299,33.378033490757396,AZ, , , 
419,-111.97232749275601,33.3780601649048,7681.0,BASELINE RD & ARIZONA GRAND PKWY,Tempe,Standard,-111.97232749275601,33.3780601649048,AZ, , , 
420,-111.96288583812999,33.3788389989016,3503.0,PRIEST DR & BASELINE RD,Tempe,Standard,-111.96288583812999,33.3788389989016,AZ, , , 
421,-111.96113731843,33.3840662699817,5236.0,PRIEST DR & AZ MILLS EAST,Tempe,Standard,-111.96113731843,33.3840662699817,AZ, , , 
422,-111.961228737663,33.38083745053269,3495.0,PRIEST DR & DARROW DR,Tempe,Standard,-111.961228737663,33.38083745053269,AZ, , , 
423,-111.962039575478,33.3804059085831,5231.0,PRIEST DR & DARROW DR,Tempe,Standard,-111.962039575478,33.3804059085831,AZ, , , 
424,-111.96386370586201,33.3784640398855,6288.0,BASELINE RD & PRIEST DR,Tempe,Standard,-111.96386370586201,33.3784640398855,AZ, , , 
425,-111.970103220898,33.3784035440994,8910.0,BASELINE RD & WENDLER DR,Tempe,Standard,-111.970103220898,33.3784035440994,AZ, , , 
426,-111.97236643382799,33.3784008467485,6287.0,BASELINE RD & ARIZONA GRAND PKWY,Tempe,Standard,-111.97236643382799,33.3784008467485,AZ, , , 
427,-111.97561934119499,33.3783715248576,7679.0,BASELINE RD & CALLE LOS CERROS,Tempe,Standard,-111.97561934119499,33.3783715248576,AZ, , , 
428,-111.97823101784701,33.378846457478105,4936.0,48TH ST & BASELINE RD,Phoenix,Standard,-111.97823101784701,33.378846457478105,AZ, , , 
429,-111.978226407247,33.3821735697367,5246.0,48TH ST & MINTON DR,Phoenix,Standard,-111.978226407247,33.3821735697367,AZ, , , 
430,-111.97822844182,33.3859208444934,3233.0,48TH ST & VINEYARD RD,Phoenix,Standard,-111.97822844182,33.3859208444934,AZ, , , 
431,-111.978234442471,33.389354427076896,3224.0,48TH ST & ALTA VISTA RD,Phoenix,Standard,-111.978234442471,33.389354427076896,AZ, , , 
432,-111.978157216769,33.3931251334561,3237.0,48TH ST & SOUTHERN AVE,Tempe,Standard,-111.978157216769,33.3931251334561,AZ, , , 
433,-111.978190574253,33.3967738743155,3236.0,48TH ST & FAIRMONT DR,Tempe,Standard,-111.978190574253,33.3967738743155,AZ, , , 
434,-111.97812380659,33.400340532293804,3235.0,48TH ST & ALAMEDA DR,Tempe,Standard,-111.97812380659,33.400340532293804,AZ, , , 
435,-111.978123254213,33.4033796632005,8909.0,48TH ST NS WESTCOURT WY,Tempe,Standard,-111.978123254213,33.4033796632005,AZ, , , 
436,-111.977504851844,33.407190435218396,1088.0,BROADWAY RD & 48TH ST,Tempe,Standard,-111.977504851844,33.407190435218396,AZ, , , 
437,-111.96939754076,33.411796497313105,8914.0,52ND ST & 16TH ST,Tempe,Standard,-111.96939754076,33.411796497313105,AZ, , , 
438,-111.96939110249,33.4138338523114,7814.0,52ND ST & 14TH ST,Tempe,Standard,-111.96939110249,33.4138338523114,AZ, , , 
439,-111.969425040478,33.4179789266961,3247.0,52ND ST & 10TH PL,Tempe,Standard,-111.969425040478,33.4179789266961,AZ, , , 
440,-111.969539613227,33.4266441881151,8913.0,52ND ST & 4TH ST,Tempe,Standard,-111.969539613227,33.4266441881151,AZ, , , 
441,-111.96939183058599,33.4303360633186,8915.0,RIO SALADO PKWY NS 1894 WEST,Tempe,Standard,-111.96939183058599,33.4303360633186,AZ, , , 
442,-111.9615085981,33.4292751324593,8917.0,RIO SALADO PKWY & PRIEST DR,Tempe,Standard,-111.9615085981,33.4292751324593,AZ, , , 
443,-111.951616234978,33.430897001374504,8919.0,RIO SALADO PKWY & HARDY DR,Tempe,Standard,-111.951616234978,33.430897001374504,AZ, , , 
444,-111.94680834794599,33.4308514870083,9566.0,RIO SALADO PKWY & LAKESIDE DR,Tempe,Standard,-111.94680834794599,33.4308514870083,AZ, , , 
445,-111.942720783794,33.4289049236602,5021.0,ASH AVE & RIO SALADO PKWY,Tempe,Standard,-111.942720783794,33.4289049236602,AZ, , , 
446,-111.943006536334,33.4274409344035,5020.0,ASH AVE & 3RD ST,Tempe,Standard,-111.943006536334,33.4274409344035,AZ, , , 
447,-111.942948652089,33.42539275563061,996.0,5TH ST & ASH AVE,Tempe,Standard,-111.942948652089,33.42539275563061,AZ, , , 
448,-111.94069836490299,33.425404857528896,997.0,5TH ST & MAPLE AVE,Tempe,Standard,-111.94069836490299,33.425404857528896,AZ, , , 
449,-111.93881786995199,33.42537017453511,11.0,5TH ST & MYRTLE AVE,Tempe,Standard,-111.93881786995199,33.42537017453511,AZ, , , 
450,-111.955814398846,33.442861058789,3033.0,PRIEST DR & WASHINGTON ST,Tempe,Standard,-111.955814398846,33.442861058789,AZ, , , 
451,-111.955212554346,33.4442194514814,4726.0,PRIEST DR & CENTER PKWY,Tempe,Standard,-111.955212554346,33.4442194514814,AZ, , , 
452,-111.95745785660601,33.4423293756168,4729.0,PRIEST DR & WASHINGTON ST,Tempe,Standard,-111.95745785660601,33.4423293756168,AZ, , , 
453,-111.961147150195,33.42895911949,5247.0,PRIEST DR & RIO SALADO PKWY,Tempe,Standard,-111.961147150195,33.42895911949,AZ, , , 
454,-111.961156622668,33.4253278027158,5233.0,PRIEST DR & 5TH ST,Tempe,Standard,-111.961156622668,33.4253278027158,AZ, , , 
455,-111.961069726264,33.4212667445659,5250.0,PRIEST DR & UNIVERSITY DR,Tempe,Standard,-111.961069726264,33.4212667445659,AZ, , , 
456,-111.96099469301599,33.4173732823472,5230.0,PRIEST DR & 11TH ST,Tempe,Standard,-111.96099469301599,33.4173732823472,AZ, , , 
457,-111.960987076921,33.4149579789403,7651.0,PRIEST DR & 13TH ST,Tempe,Standard,-111.960987076921,33.4149579789403,AZ, , , 
458,-111.960954075842,33.4128558429567,5232.0,PRIEST DR & 14TH ST,Tempe,Standard,-111.960954075842,33.4128558429567,AZ, , , 
459,-111.96095419278299,33.410139398068196,5229.0,PRIEST DR & 18TH ST,Tempe,Standard,-111.96095419278299,33.410139398068196,AZ, , , 
460,-111.960901730273,33.4069959218392,5240.0,PRIEST DR & BROADWAY RD,Tempe,Standard,-111.960901730273,33.4069959218392,AZ, , , 
461,-111.960900081502,33.4040034827957,7652.0,PRIEST DR & FOUNTAINHEAD PKWY,Tempe,Standard,-111.960900081502,33.4040034827957,AZ, , , 
462,-111.960901536054,33.399857832060796,5235.0,PRIEST DR & ALAMEDA DR,Tempe,Standard,-111.960901536054,33.399857832060796,AZ, , , 
463,-111.960956321577,33.3961695093612,5243.0,PRIEST DR & FAIRMONT DR,Tempe,Standard,-111.960956321577,33.3961695093612,AZ, , , 
464,-111.960961027463,33.3921570835127,5248.0,PRIEST DR & SOUTHERN AVE,Tempe,Standard,-111.960961027463,33.3921570835127,AZ, , , 
465,-111.960982446096,33.389967570764,5245.0,PRIEST DR & LA JOLLA DR,Tempe,Standard,-111.960982446096,33.389967570764,AZ, , , 
466,-111.96108387798701,33.388417759962,7654.0,PRIEST DR & US 60,Tempe,Standard,-111.96108387798701,33.388417759962,AZ, , , 
467,-111.96330787811002,33.3597847998777,4946.0,56TH ST & CARMEN ST,Tempe,Standard,-111.96330787811002,33.3597847998777,AZ, , , 
468,-111.963296414536,33.357773248379196,5239.0,PRIEST DR & BELL DE MAR DR,Tempe,Standard,-111.963296414536,33.357773248379196,AZ, , , 
469,-111.96327141043,33.35534168583749,5242.0,PRIEST DR & DRAKE DR,Tempe,Standard,-111.96327141043,33.35534168583749,AZ, , , 
470,-111.963313325975,33.3525249698426,5249.0,PRIEST DR & TODD DR,Tempe,Standard,-111.963313325975,33.3525249698426,AZ, , , 
471,-111.96292890639201,33.351177682082,5244.0,PRIEST DR & GROVE PKWY,Tempe,Standard,-111.96292890639201,33.351177682082,AZ, , , 
472,-111.96331359789,33.3486247864864,9449.0,S PRIEST DR & W ELLIOT RD,Tempe,Standard,-111.96331359789,33.3486247864864,AZ, , , 
473,-111.96329543716101,33.345145760855395,9450.0,S PRIEST DR & W AUTO DR,Tempe,Standard,-111.96329543716101,33.345145760855395,AZ, , , 
474,-111.96335536116501,33.3396742577742,9451.0,S PRIEST DR & W RUBY DR,Tempe,Standard,-111.96335536116501,33.3396742577742,AZ, , , 
475,-111.963296109788,33.3341265723623,9452.0,S PRIEST DR & W WARNER RD,Tempe,Standard,-111.963296109788,33.3341265723623,AZ, , , 
476,-111.96293449807699,33.320829365415605,9444.0,S PRIEST DR & W RAY RD,Tempe,Standard,-111.96293449807699,33.320829365415605,AZ, , , 
477,-111.962970215303,33.3270244658475,9445.0,S PRIEST DR NS W KNOX RD,Tempe,Standard,-111.962970215303,33.3270244658475,AZ, , , 
478,-111.96297535302,33.3318369244953,9446.0,S PRIEST DR & W GREENTREE DR,Tempe,Standard,-111.96297535302,33.3318369244953,AZ, , , 
479,-111.96292590278601,33.3351122756292,7993.0,PRIEST DR & WARNER RD,Tempe,Standard,-111.96292590278601,33.3351122756292,AZ, , , 
480,-111.96293354493,33.340888858967396,9447.0,S PRIEST DR & RUBY DR,Tempe,Standard,-111.96293354493,33.340888858967396,AZ, , , 
481,-111.962965226662,33.3458186950988,9448.0,S PRIEST DR & W AUTO DR,Tempe,Standard,-111.962965226662,33.3458186950988,AZ, , , 
482,-111.962917498461,33.3495326907769,3505.0,PRIEST DR & ELLIOT RD,Tempe,Standard,-111.962917498461,33.3495326907769,AZ, , , 
483,-111.962998576672,33.3526714569119,3493.0,PRIEST DR & TODD DR,Tempe,Standard,-111.962998576672,33.3526714569119,AZ, , , 
484,-111.962959030594,33.3555687455461,3491.0,PRIEST DR & DRAKE DR,Tempe,Standard,-111.962959030594,33.3555687455461,AZ, , , 
485,-111.963008578261,33.3576442855287,3490.0,PRIEST DR & BELL DE MAR DR,Tempe,Standard,-111.963008578261,33.3576442855287,AZ, , , 
486,-111.960737733204,33.3850338810932,3502.0,PRIEST DR & AZ MILLS EAST,Tempe,Standard,-111.960737733204,33.3850338810932,AZ, , , 
487,-111.960659990435,33.388978335854695,3507.0,PRIEST DR & MANHATTON DR,Tempe,Standard,-111.960659990435,33.388978335854695,AZ, , , 
488,-111.9605274791,33.3935038765869,3509.0,PRIEST DR & SOUTHERN AVE,Tempe,Standard,-111.9605274791,33.3935038765869,AZ, , , 
489,-111.960607135616,33.3967273083944,3506.0,PRIEST DR & FAIRMONT DR,Tempe,Standard,-111.960607135616,33.3967273083944,AZ, , , 
490,-111.96058213190099,33.400994594766196,3500.0,PRIEST DR & ALAMEDA DR,Tempe,Standard,-111.96058213190099,33.400994594766196,AZ, , , 
491,-111.96062381461701,33.4040108604649,3498.0,PRIEST DR & 23RD ST,Tempe,Standard,-111.96062381461701,33.4040108604649,AZ, , , 
492,-111.960632670635,33.4081802223923,3504.0,PRIEST DR & BROADWAY RD,Tempe,Standard,-111.960632670635,33.4081802223923,AZ, , , 
493,-111.960627472426,33.4097918735225,3492.0,PRIEST DR & 17TH ST,Tempe,Standard,-111.960627472426,33.4097918735225,AZ, , , 
494,-111.96068420636601,33.4126693622546,3497.0,PRIEST DR & 14TH ST,Tempe,Standard,-111.96068420636601,33.4126693622546,AZ, , , 
495,-111.960655687672,33.4150383803542,7657.0,PRIEST DR & 13TH ST,Tempe,Standard,-111.960655687672,33.4150383803542,AZ, , , 
496,-111.960691353288,33.4170252910632,3511.0,PRIEST DR & 11TH ST,Tempe,Standard,-111.960691353288,33.4170252910632,AZ, , , 
497,-111.96071504812599,33.4193436798068,7658.0,PRIEST DR & ELNA RAE ST,Tempe,Standard,-111.96071504812599,33.4193436798068,AZ, , , 
498,-111.960732371831,33.4223747349538,3510.0,PRIEST DR & UNIVERSITY DR,Tempe,Standard,-111.960732371831,33.4223747349538,AZ, , , 
499,-111.96077505978,33.4258899664947,3499.0,PRIEST DR & 5TH ST,Tempe,Standard,-111.96077505978,33.4258899664947,AZ, , , 
500,-111.96076121924601,33.4302592891844,3508.0,PRIEST DR & RIO SALADO PKWY,Tempe,Standard,-111.96076121924601,33.4302592891844,AZ, , , 
501,-111.926101385411,33.4292249105115,3550.0,RURAL RD & RIO SALADO PKWY,Tempe,Standard,-111.926101385411,33.4292249105115,AZ, , , 
502,-111.92606067818001,33.4344240363162,3041.0,RURAL RD & PLAYA DEL NORTE,Tempe,Standard,-111.92606067818001,33.4344240363162,AZ, , , 
503,-111.92615329993099,33.440736603305204,3056.0,SCOTTSDALE RD & CURRY RD,Tempe,Standard,-111.92615329993099,33.440736603305204,AZ, , , 
504,-111.92625960697501,33.443752263244804,7715.0,SCOTTSDALE RD & WEBER DR,Tempe,Standard,-111.92625960697501,33.443752263244804,AZ, , , 
505,-111.92626910836901,33.4471275767305,3063.0,SCOTTSDALE RD & HANCOCK AVE,Tempe,Standard,-111.92626910836901,33.4471275767305,AZ, , , 
506,-111.926272398782,33.452221885699004,3075.0,SCOTTSDALE RD & MCKELLIPS RD,Tempe,Standard,-111.926272398782,33.452221885699004,AZ, , , 
507,-111.92621490406201,33.4543661342292,3090.0,SCOTTSDALE RD & FILLMORE ST,Tempe,Standard,-111.92621490406201,33.4543661342292,AZ, , , 
508,-111.926586690287,33.4543927376888,4755.0,SCOTTSDALE RD & FILLMORE ST,Tempe,Standard,-111.926586690287,33.4543927376888,AZ, , , 
509,-111.926638696532,33.4509060874416,4770.0,SCOTTSDALE RD & MCKELLIPS RD,Tempe,Standard,-111.926638696532,33.4509060874416,AZ, , , 
510,-111.926628522215,33.4486609614486,4749.0,SCOTTSDALE RD & CAVALIER DR,Tempe,Standard,-111.926628522215,33.4486609614486,AZ, , , 
511,-111.92661857654,33.4463505351385,7712.0,SCOTTSDALE RD & HANCOCK DR,Tempe,Standard,-111.92661857654,33.4463505351385,AZ, , , 
512,-111.926568828636,33.4432275759441,7713.0,SCOTTSDALE RD & WEBER DR,Tempe,Standard,-111.926568828636,33.4432275759441,AZ, , , 
513,-111.92650400698,33.4399664952403,4790.0,SCOTTSDALE RD & CURRY RD,Tempe,Standard,-111.92650400698,33.4399664952403,AZ, , , 
514,-111.92645663876301,33.4380826988874,4733.0,RURAL RD & GILBERT DR,Tempe,Standard,-111.92645663876301,33.4380826988874,AZ, , , 
515,-111.926452448652,33.4342602827009,4731.0,RURAL RD & PLAYA DEL NORTE,Tempe,Standard,-111.926452448652,33.4342602827009,AZ, , , 
516,-111.92644849115601,33.428337525696605,5282.0,RURAL RD & RIO SALADO PKWY,Tempe,Standard,-111.92644849115601,33.428337525696605,AZ, , , 
517,-111.926458652765,33.4240107089818,5260.0,RURAL RD & 6TH ST,Tempe,Standard,-111.926458652765,33.4240107089818,AZ, , , 
518,-111.926478572801,33.418279680962,5287.0,RURAL RD & TERRACE RD,Tempe,Standard,-111.926478572801,33.418279680962,AZ, , , 
519,-111.92644535479499,33.4151340129922,5263.0,RURAL RD & APACHE BLVD,Tempe,Standard,-111.92644535479499,33.4151340129922,AZ, , , 
520,-111.92644295009,33.4126728225319,5258.0,RURAL RD & SPENCE AVE,Tempe,Standard,-111.92644295009,33.4126728225319,AZ, , , 
521,-111.926414647957,33.4102299477153,9468.0,RURAL RD & BROADWAY RD,Tempe,Standard,-111.926414647957,33.4102299477153,AZ, , , 
522,-111.926438703804,33.4079937897844,5267.0,RURAL RD & BROADWAY RD,Tempe,Standard,-111.926438703804,33.4079937897844,AZ, , , 
523,-111.926453011332,33.403157571594804,5266.0,RURAL RD & BROADMOR DR,Tempe,Standard,-111.926453011332,33.403157571594804,AZ, , , 
524,-111.926459672463,33.3996784164012,5261.0,RURAL RD & ALAMEDA DR,Tempe,Standard,-111.926459672463,33.3996784164012,AZ, , , 
525,-111.92646988567101,33.397431920353,5291.0,RURAL RD & WESLEYAN DR,Tempe,Standard,-111.92646988567101,33.397431920353,AZ, , , 
526,-111.92647411230499,33.3948357120203,5275.0,RURAL RD & GENEVA DR,Tempe,Standard,-111.92647411230499,33.3948357120203,AZ, , , 
527,-111.926546896227,33.3924469356054,5284.0,RURAL RD & SOUTHERN AVE,Tempe,Standard,-111.926546896227,33.3924469356054,AZ, , , 
528,-111.92656603360399,33.38922383129289,5278.0,RURAL RD & LA JOLLA DR,Tempe,Standard,-111.92656603360399,33.38922383129289,AZ, , , 
529,-111.926594747257,33.3874434234843,5277.0,RURAL RD & HERMOSA DR,Tempe,Standard,-111.926594747257,33.3874434234843,AZ, , , 
530,-111.926697617792,33.3843722220495,5286.0,RURAL RD & SUPERSTITION FRWY,Tempe,Standard,-111.926697617792,33.3843722220495,AZ, , , 
531,-111.927327696393,33.3817358010313,5268.0,RURAL RD & CARTER DR,Tempe,Standard,-111.927327696393,33.3817358010313,AZ, , , 
532,-111.928685148039,33.379601761248104,5279.0,RURAL RD & MINTON DR,Tempe,Standard,-111.928685148039,33.379601761248104,AZ, , , 
533,-111.928895400375,33.3776457978928,5264.0,RURAL RD & BASELINE RD,Tempe,Standard,-111.928895400375,33.3776457978928,AZ, , , 
534,-111.92879527726299,33.3749333985297,5280.0,RURAL RD & OXFORD DR,Tempe,Standard,-111.92879527726299,33.3749333985297,AZ, , , 
535,-111.92878833548599,33.3718179771309,5270.0,RURAL RD & CORNELL DR,Tempe,Standard,-111.92878833548599,33.3718179771309,AZ, , , 
536,-111.92877910144199,33.3670854361655,5292.0,RURAL RD & WESTCHESTER DR,Tempe,Standard,-111.92877910144199,33.3670854361655,AZ, , , 
537,-111.928760632619,33.3633169398568,5276.0,RURAL RD & GUADALUPE RD,Tempe,Standard,-111.928760632619,33.3633169398568,AZ, , , 
538,-111.928686285215,33.3605346865883,5285.0,RURAL RD & STRAHAN DR,Tempe,Standard,-111.928686285215,33.3605346865883,AZ, , , 
539,-111.928683083197,33.3574629393798,5265.0,RURAL RD & BELL DE MAR DR,Tempe,Standard,-111.928683083197,33.3574629393798,AZ, , , 
540,-111.928695614484,33.3553872567558,5271.0,RURAL RD & DIVOT DR,Tempe,Standard,-111.928695614484,33.3553872567558,AZ, , , 
541,-111.92867504291999,33.353098947511704,5294.0,RURAL RD & TODD DR,Tempe,Standard,-111.92867504291999,33.353098947511704,AZ, , , 
542,-111.928694668336,33.3487029443655,5273.0,RURAL RD & ELLIOT RD,Tempe,Standard,-111.928694668336,33.3487029443655,AZ, , , 
543,-111.92863275454,33.3459539945294,5289.0,RURAL RD & VINEDO LN,Tempe,Standard,-111.92863275454,33.3459539945294,AZ, , , 
544,-111.928600455998,33.3440033327715,5283.0,RURAL RD & SECRETARIAT DR,Tempe,Standard,-111.928600455998,33.3440033327715,AZ, , , 
545,-111.928610040219,33.341626164764904,5269.0,RURAL RD & CARVER RD,Tempe,Standard,-111.928610040219,33.341626164764904,AZ, , , 
546,-111.928560769457,33.338067626393,5272.0,RURAL RD & EL FREDA DR,Tempe,Standard,-111.928560769457,33.338067626393,AZ, , , 
547,-111.928239160318,33.3350968518317,3548.0,RURAL RD & WARNER RD,Tempe,Standard,-111.928239160318,33.3350968518317,AZ, , , 
548,-111.928499555916,33.331137986589304,5259.0,RURAL RD & LA VIEVE LN,Tempe,Standard,-111.928499555916,33.331137986589304,AZ, , , 
549,-111.92845150344401,33.3276064764959,5293.0,RURAL RD & KNOX RD,Tempe,Standard,-111.92845150344401,33.3276064764959,AZ, , , 
550,-111.928381619606,33.323482375736,5262.0,RURAL RD & ALEXANDER BLVD,Tempe,Standard,-111.928381619606,33.323482375736,AZ, , , 
551,-111.92805926415001,33.3240650756875,3524.0,RURAL RD & ALEXANDER BLVD,Tempe,Standard,-111.92805926415001,33.3240650756875,AZ, , , 
552,-111.928128089697,33.327774568365,3537.0,RURAL RD & KNOX RD,Tempe,Standard,-111.928128089697,33.327774568365,AZ, , , 
553,-111.928218074501,33.3311852379197,3539.0,RURAL RD & LA VIEVE LN,Tempe,Standard,-111.928218074501,33.3311852379197,AZ, , , 
554,-111.928594399258,33.3343205638164,5290.0,RURAL RD & WARNER RD,Tempe,Standard,-111.928594399258,33.3343205638164,AZ, , , 
555,-111.928252829877,33.3385036371132,3532.0,RURAL RD & EL FREDA DR,Tempe,Standard,-111.928252829877,33.3385036371132,AZ, , , 
556,-111.92829063378099,33.3422553207262,3531.0,RURAL RD & CARVER RD,Tempe,Standard,-111.92829063378099,33.3422553207262,AZ, , , 
557,-111.928289376099,33.3438916196626,3551.0,RURAL RD & SECRETARIAT DR,Tempe,Standard,-111.928289376099,33.3438916196626,AZ, , , 
558,-111.92830627909402,33.346348482550304,3519.0,RURAL RD & VINEDO LN,Tempe,Standard,-111.92830627909402,33.346348482550304,AZ, , , 
559,-111.928285128811,33.3496402293287,3533.0,RURAL RD & ELLIOT RD,Tempe,Standard,-111.928285128811,33.3496402293287,AZ, , , 
560,-111.92833883299801,33.3535724137969,3552.0,RURAL RD & STEPHENS DR,Tempe,Standard,-111.92833883299801,33.3535724137969,AZ, , , 
561,-111.92838873709199,33.358209074689604,3527.0,RURAL RD & BELL DE MAR DR,Tempe,Standard,-111.92838873709199,33.358209074689604,AZ, , , 
562,-111.928441852768,33.3611757309727,3544.0,RURAL RD & VAUGHN DR,Tempe,Standard,-111.928441852768,33.3611757309727,AZ, , , 
563,-111.928422663433,33.3642456570078,3535.0,RURAL RD & GUADALUPE RD,Tempe,Standard,-111.928422663433,33.3642456570078,AZ, , , 
564,-111.92846010201201,33.3677153338647,3549.0,RURAL RD & WESTCHESTER DR,Tempe,Standard,-111.92846010201201,33.3677153338647,AZ, , , 
565,-111.928506962558,33.3725604614003,3542.0,RURAL RD & SOUTHSHORE DR,Tempe,Standard,-111.928506962558,33.3725604614003,AZ, , , 
566,-111.928538138303,33.3742358610387,3521.0,RURAL RD & OXFORD DR,Tempe,Standard,-111.928538138303,33.3742358610387,AZ, , , 
567,-111.928488048905,33.3788524321184,3526.0,RURAL RD & BASELINE RD,Tempe,Standard,-111.928488048905,33.3788524321184,AZ, , , 
568,-111.927102337992,33.3815189269307,3530.0,RURAL RD & LAKESHORE DR,Tempe,Standard,-111.927102337992,33.3815189269307,AZ, , , 
569,-111.92627429371299,33.3842032089923,3553.0,RURAL RD & SUPERSTITION FREEWAY,Tempe,Standard,-111.92627429371299,33.3842032089923,AZ, , , 
570,-111.926272324197,33.388040803492196,3536.0,RURAL RD & HERMOSA DR,Tempe,Standard,-111.926272324197,33.388040803492196,AZ, , , 
571,-111.92623976205299,33.3895957918069,3538.0,RURAL RD & LA JOLLA DR,Tempe,Standard,-111.92623976205299,33.3895957918069,AZ, , , 
572,-111.926095965443,33.3940611814963,3541.0,RURAL RD & SOUTHERN AVE,Tempe,Standard,-111.926095965443,33.3940611814963,AZ, , , 
573,-111.926169588454,33.3972490148015,3540.0,RURAL RD & LOYOLA DR,Tempe,Standard,-111.926169588454,33.3972490148015,AZ, , , 
574,-111.92612161321101,33.4006444039261,3523.0,RURAL RD & ALAMEDA DR,Tempe,Standard,-111.92612161321101,33.4006444039261,AZ, , , 
575,-111.92613907963998,33.4037567470843,3528.0,RURAL RD & BROADMOR DR,Tempe,Standard,-111.92613907963998,33.4037567470843,AZ, , , 
576,-111.92609278243299,33.4080495601337,3529.0,RURAL RD & BROADWAY RD,Tempe,Standard,-111.92609278243299,33.4080495601337,AZ, , , 
577,-111.926123478263,33.4106849151089,3547.0,RURAL RD & VISTA DEL CERRO DR,Tempe,Standard,-111.926123478263,33.4106849151089,AZ, , , 
578,-111.92611344104999,33.413173143202,3543.0,RURAL RD & SPENCE AVE,Tempe,Standard,-111.92611344104999,33.413173143202,AZ, , , 
579,-111.92605340598101,33.4150705387516,3525.0,RURAL RD & APACHE BLVD,Tempe,Standard,-111.92605340598101,33.4150705387516,AZ, , , 
580,-111.927277150129,33.420663175769,9340.0,UNIV RURAL TC SBD LANE STOP 1 RT 72 S,Tempe,Transit Center,-111.927277150129,33.420663175769,AZ, , , 
581,-111.931120354063,33.4220894361357,6099.0,UNIVERSITY DR & PALO VERDE DORMS,Tempe,Standard,-111.931120354063,33.4220894361357,AZ, , , 
582,-111.934874951791,33.4229485587768,3327.0,COLLEGE AVE & UNIVERSITY DR,Tempe,Standard,-111.934874951791,33.4229485587768,AZ, , , 
583,-111.926081633554,33.422799567925,3546.0,RURAL RD & UNIVERSITY DR,Tempe,Standard,-111.926081633554,33.422799567925,AZ, , , 
584,-111.926112562892,33.4247749168822,3522.0,RURAL RD & 6TH ST,Tempe,Standard,-111.926112562892,33.4247749168822,AZ, , , 
585,-111.962472319145,33.3780571179585,1020.0,BASELINE RD & PRIEST DR,Tempe,Standard,-111.962472319145,33.3780571179585,AZ, , , 
586,-111.960684040643,33.3781257531725,8046.0,BASELINE RD & DARROW DR,Tempe,Standard,-111.960684040643,33.3781257531725,AZ, , , 
587,-111.958156458523,33.37809713413529,1013.0,BASELINE RD & BECK AVE,Tempe,Standard,-111.958156458523,33.37809713413529,AZ, , , 
588,-111.955421447032,33.3780790091662,1007.0,BASELINE RD & TERRY LN,Tempe,Standard,-111.955421447032,33.3780790091662,AZ, , , 
589,-111.95216318115801,33.3780522298624,67.0,BASELINE RD & HARDY DR,Tempe,Standard,-111.95216318115801,33.3780522298624,AZ, , , 
590,-111.948987920562,33.3780634561209,7680.0,HARDY DR & ROOSEVELT ST,Tempe,Standard,-111.948987920562,33.3780634561209,AZ, , , 
591,-111.945454054408,33.3780072944689,1016.0,BASELINE RD & KYRENE RD,Tempe,Standard,-111.945454054408,33.3780072944689,AZ, , , 
592,-111.94213963185601,33.378075273986695,47.0,BASELINE RD & ASH AVE,Tempe,Standard,-111.94213963185601,33.378075273986695,AZ, , , 
593,-111.938888750201,33.378081262820004,73.0,BASELINE RD & MILL AVE,Tempe,Standard,-111.938888750201,33.378081262820004,AZ, , , 
594,-111.934845777063,33.3780949811601,63.0,BASELINE RD & COLLEGE AVE,Tempe,Standard,-111.934845777063,33.3780949811601,AZ, , , 
595,-111.927748023036,33.3781206824293,77.0,BASELINE RD & RURAL RD,Tempe,Standard,-111.927748023036,33.3781206824293,AZ, , , 
596,-111.925724393544,33.3781141125994,80.0,BASELINE RD & JENTILLY LN,Tempe,Standard,-111.925724393544,33.3781141125994,AZ, , , 
597,-111.920051540166,33.3781837106418,70.0,BASELINE RD & LAKESHORE DR,Tempe,Standard,-111.920051540166,33.3781837106418,AZ, , , 
598,-111.917246795474,33.3782322486236,43.0,BASELINE RD & DORSEY LN,Tempe,Standard,-111.917246795474,33.3782322486236,AZ, , , 
599,-111.91344277914699,33.3782571855453,71.0,BASELINE RD & MARINE DR,Tempe,Standard,-111.91344277914699,33.3782571855453,AZ, , , 
600,-111.907905404694,33.3782898821175,72.0,BASELINE RD & MCCLINTOCK DR,Tempe,Standard,-111.907905404694,33.3782898821175,AZ, , , 
601,-111.904629399151,33.3783141026784,44.0,BASELINE RD & HAZELTON LN,Tempe,Standard,-111.904629399151,33.3783141026784,AZ, , , 
602,-111.900322041894,33.3783216048298,64.0,BASELINE RD & COUNTRY CLUB WY,Tempe,Standard,-111.900322041894,33.3783216048298,AZ, , , 
603,-111.89695183732401,33.3783152884484,76.0,BASELINE RD & RIVER DR,Tempe,Standard,-111.89695183732401,33.3783152884484,AZ, , , 
604,-111.89440554445999,33.3782452213863,81.0,BASELINE RD & PRICE RD,Tempe,Standard,-111.89440554445999,33.3782452213863,AZ, , , 
605,-111.890148299446,33.3783357581121,65.0,BASELINE RD & DON CARLOS,Mesa,Standard,-111.890148299446,33.3783357581121,AZ, , , 
606,-111.884928598953,33.3783718866954,66.0,BASELINE RD & EL DORADO,Mesa,Standard,-111.884928598953,33.3783718866954,AZ, , , 
607,-111.87706808478501,33.3783820653247,1014.0,BASELINE RD & DOBSON RD,Mesa,Standard,-111.87706808478501,33.3783820653247,AZ, , , 
608,-111.87830278707199,33.3787105816222,6278.0,BASELINE RD & DOBSON RD,Mesa,Standard,-111.87830278707199,33.3787105816222,AZ, , , 
609,-111.886323960088,33.378629764635896,6281.0,BASELINE RD & EL DORADO,Mesa,Standard,-111.886323960088,33.378629764635896,AZ, , , 
610,-111.89115648770701,33.3786087463722,6279.0,BASELINE RD & DON CARLOS,Mesa,Standard,-111.89115648770701,33.3786087463722,AZ, , , 
611,-111.894320584714,33.378590644875196,5373.0,BASELINE RD & PRICE RD,Tempe,Standard,-111.894320584714,33.378590644875196,AZ, , , 
612,-111.897511878125,33.3785799863023,5374.0,BASELINE RD & RIVER DR,Tempe,Standard,-111.897511878125,33.3785799863023,AZ, , , 
613,-111.90099386128401,33.3785962736794,5372.0,BASELINE RD & COUNTRY CLUB WY,Tempe,Standard,-111.90099386128401,33.3785962736794,AZ, , , 
614,-111.90420817108802,33.3785810112324,5358.0,BASELINE RD & KENWOOD LN,Tempe,Standard,-111.90420817108802,33.3785810112324,AZ, , , 
615,-111.90676464472901,33.3785751675577,5381.0,BASELINE RD & MCCLINTOCK DR,Tempe,Standard,-111.90676464472901,33.3785751675577,AZ, , , 
616,-111.909796944983,33.378575101897894,8047.0,BASELINE RD & MCCLINTOCK DR,Tempe,Standard,-111.909796944983,33.378575101897894,AZ, , , 
617,-111.914068005213,33.378519676033804,6285.0,BASELINE RD & ELM ST,Tempe,Standard,-111.914068005213,33.378519676033804,AZ, , , 
618,-111.918224442195,33.3784799865605,6280.0,BASELINE RD & DORSEY LN,Tempe,Standard,-111.918224442195,33.3784799865605,AZ, , , 
619,-111.920868848146,33.3784596673387,6284.0,BASELINE RD & LAKESHORE DR,Tempe,Standard,-111.920868848146,33.3784596673387,AZ, , , 
620,-111.926073589613,33.3783975543194,6292.0,BASELINE RD & JENTILLY LN,Tempe,Standard,-111.926073589613,33.3783975543194,AZ, , , 
621,-111.929440975415,33.378399348132504,5375.0,BASELINE RD & RURAL RD,Tempe,Standard,-111.929440975415,33.378399348132504,AZ, , , 
622,-111.93594780524299,33.3783684259457,5371.0,BASELINE RD & COLLEGE AVE,Tempe,Standard,-111.93594780524299,33.3783684259457,AZ, , , 
623,-111.93981106683998,33.3783725051479,6286.0,BASELINE RD & MILL AVE,Tempe,Standard,-111.93981106683998,33.3783725051479,AZ, , , 
624,-111.941859273737,33.3783568971755,6275.0,BASELINE RD & ASH AVE,Tempe,Standard,-111.941859273737,33.3783568971755,AZ, , , 
625,-111.94624803431101,33.3783237729181,6283.0,BASELINE RD & KYRENE RD,Tempe,Standard,-111.94624803431101,33.3783237729181,AZ, , , 
626,-111.94812565531099,33.3783435222419,6289.0,BASELINE RD & ROOSEVELT ST,Tempe,Standard,-111.94812565531099,33.3783435222419,AZ, , , 
627,-111.95295883869301,33.37836081459,6282.0,BASELINE RD & HARDY DR,Tempe,Standard,-111.95295883869301,33.37836081459,AZ, , , 
628,-111.95513225528299,33.3783657399124,6295.0,BASELINE RD & TERRY LN,Tempe,Standard,-111.95513225528299,33.3783657399124,AZ, , , 
629,-111.957628547831,33.3783803984091,6293.0,TERRY LN & BECK AVE,Tempe,Standard,-111.957628547831,33.3783803984091,AZ, , , 
630,-111.96059269122499,33.3783962514034,6271.0,BASELINE RD & DARROW DR,Tempe,Standard,-111.96059269122499,33.3783962514034,AZ, , , 
631,-111.93702155253901,33.4220398538547,6091.0,UNIVERSITY DR & FOREST AVE,Tempe,Standard,-111.93702155253901,33.4220398538547,AZ, , , 
632,-111.940647088837,33.4220408488807,7112.0,UNIVERSITY DR & MILL AVE,Tempe,Standard,-111.940647088837,33.4220408488807,AZ, , , 
633,-111.94468053608101,33.4220139794559,7108.0,UNIVERSITY DR & FARMER AVE,Tempe,Standard,-111.94468053608101,33.4220139794559,AZ, , , 
634,-111.947615003293,33.422015099903,7114.0,UNIVERSITY DR & ROOSEVELT ST,Tempe,Standard,-111.947615003293,33.422015099903,AZ, , , 
635,-111.952566400537,33.4220344897023,7110.0,UNIVERSITY DR & HARDY DR,Tempe,Standard,-111.952566400537,33.4220344897023,AZ, , , 
636,-111.956720578072,33.4220352539865,7106.0,UNIVERSITY DR & BECK AVE,Tempe,Standard,-111.956720578072,33.4220352539865,AZ, , , 
637,-111.961319087487,33.422092663636306,7113.0,UNIVERSITY DR & PRIEST DR,Tempe,Standard,-111.961319087487,33.422092663636306,AZ, , , 
638,-111.965521095091,33.4220737915241,7111.0,UNIVERSITY DR & LINDON LN,Tempe,Standard,-111.965521095091,33.4220737915241,AZ, , , 
639,-111.96992833921499,33.4220539866968,7105.0,UNIVERSITY DR & 52ND ST,Tempe,Standard,-111.96992833921499,33.4220539866968,AZ, , , 
640,-111.97589697906099,33.4220405293884,7116.0,UNIVERSITY DR & 48TH ST,Tempe,Standard,-111.97589697906099,33.4220405293884,AZ, , , 
641,-111.975727238649,33.4217711851429,1787.0,UNIVERSITY DR & 48TH ST,Tempe,Standard,-111.975727238649,33.4217711851429,AZ, , , 
642,-111.969109693083,33.4218127639932,1788.0,UNIVERSITY DR & 52ND ST,Tempe,Standard,-111.969109693083,33.4218127639932,AZ, , , 
643,-111.96548570368601,33.4218379597905,1791.0,UNIVERSITY DR & EDWARD DR,Tempe,Standard,-111.96548570368601,33.4218379597905,AZ, , , 
644,-111.960447187194,33.4218142508279,1795.0,UNIVERSITY DR & PRIEST DR,Tempe,Standard,-111.960447187194,33.4218142508279,AZ, , , 
645,-111.956166266369,33.4218113298651,1790.0,UNIVERSITY DR & BECK AVE,Tempe,Standard,-111.956166266369,33.4218113298651,AZ, , , 
646,-111.951519270641,33.4217820654055,1793.0,UNIVERSITY DR & HARDY DR,Tempe,Standard,-111.951519270641,33.4217820654055,AZ, , , 
647,-111.94762072764601,33.421789185978,1794.0,UNIVERSITY DR & MITCHELL DR,Tempe,Standard,-111.94762072764601,33.421789185978,AZ, , , 
648,-111.944605211243,33.4217573069172,1792.0,UNIVERSITY DR & FARMER AVE,Tempe,Standard,-111.944605211243,33.4217573069172,AZ, , , 
649,-111.941515415167,33.42181325241989,1789.0,UNIVERSITY DR & MAPLE AVE,Tempe,Standard,-111.941515415167,33.42181325241989,AZ, , , 
650,-111.939307149943,33.4218475026055,859.0,UNIVERSITY DR & MILL AVE,Tempe,Standard,-111.939307149943,33.4218475026055,AZ, , , 
651,-111.93443242591101,33.4218235077172,825.0,UNIVERSITY DR & COLLEGE AVE,Tempe,Standard,-111.93443242591101,33.4218235077172,AZ, , , 
652,-111.9326301415,33.4218778127149,867.0,UNIVERSITY DR & PALO VERDE DORMS,Tempe,Standard,-111.9326301415,33.4218778127149,AZ, , , 
653,-111.92596316247601,33.4218820189779,863.0,UNIVERSITY DR & RURAL RD,Tempe,Standard,-111.92596316247601,33.4218820189779,AZ, , , 
654,-111.92211298862301,33.4219060951837,864.0,UNIVERSITY DR & ATHLETES PL,Tempe,Standard,-111.92211298862301,33.4219060951837,AZ, , , 
655,-111.91730557710501,33.421899602690395,854.0,UNIVERSITY DR & DORSEY LN,Tempe,Standard,-111.91730557710501,33.421899602690395,AZ, , , 
656,-111.913035246003,33.4218437076307,9418.0,E UNIVERSITY DR AT 1601 E UNIV,Tempe,Standard,-111.913035246003,33.4218437076307,AZ, , , 
657,-111.90818437507,33.4218443057624,857.0,UNIVERSITY DR & MCCLINTOCK DR,Tempe,Standard,-111.90818437507,33.4218443057624,AZ, , , 
658,-111.90114891326799,33.4219872164468,871.0,UNIVERSITY DR & SMITH RD,Tempe,Standard,-111.90114891326799,33.4219872164468,AZ, , , 
659,-111.895876045726,33.421941357684396,862.0,UNIVERSITY DR & RIVER DR,Tempe,Standard,-111.895876045726,33.421941357684396,AZ, , , 
660,-111.89233500879101,33.42181246042939,870.0,UNIVERSITY DR & PRICE RD,Tempe,Standard,-111.89233500879101,33.42181246042939,AZ, , , 
661,-111.889424231564,33.4218666420994,861.0,UNIVERSITY DR & PRICE RD,Tempe,Standard,-111.889424231564,33.4218666420994,AZ, , , 
662,-111.887694142616,33.4219528400101,872.0,UNIVERSITY DR & GEORGE DR,Tempe,Standard,-111.887694142616,33.4219528400101,AZ, , , 
663,-111.88249894439801,33.4219697819092,855.0,UNIVERSITY DR & EVERGREEN RD,Tempe,Standard,-111.88249894439801,33.4219697819092,AZ, , , 
664,-111.87995569809999,33.4220028034845,869.0,UNIVERSITY DR & MAY,Tempe,Standard,-111.87995569809999,33.4220028034845,AZ, , , 
665,-111.873973045982,33.421998737259194,1778.0,UNIVERSITY DR & DOBSON RD,Mesa,Standard,-111.873973045982,33.421998737259194,AZ, , , 
666,-111.86473672423901,33.422029097084,1781.0,UNIVERSITY DR & LONGMORE,Mesa,Standard,-111.86473672423901,33.422029097084,AZ, , , 
667,-111.86055276594,33.4220374083984,1784.0,UNIVERSITY DR & STANDAGE,Mesa,Standard,-111.86055276594,33.4220374083984,AZ, , , 
668,-111.855873195981,33.4219634897704,1776.0,UNIVERSITY DR & ALMA SCHOOL RD,Mesa,Standard,-111.855873195981,33.4219634897704,AZ, , , 
669,-111.851779565667,33.4221040343326,1786.0,UNIVERSITY DR & WESTWOOD,Mesa,Standard,-111.851779565667,33.4221040343326,AZ, , , 
670,-111.848600181737,33.4221424699644,1797.0,UNIVERSITY DR & EXTENSION RD,Mesa,Standard,-111.848600181737,33.4221424699644,AZ, , , 
671,-111.844878245196,33.4222024552216,1780.0,UNIVERSITY DR & HOSICK,Mesa,Standard,-111.844878245196,33.4222024552216,AZ, , , 
672,-111.839421909545,33.422232635381604,1777.0,UNIVERSITY DR & COUNTRY CLUB DR,Mesa,Standard,-111.839421909545,33.422232635381604,AZ, , , 
673,-111.836207939587,33.4222239784168,1783.0,UNIVERSITY DR & ROBSON,Mesa,Standard,-111.836207939587,33.4222239784168,AZ, , , 
674,-111.833612701782,33.4222420270647,1782.0,UNIVERSITY DR & MACDONALD,Mesa,Standard,-111.833612701782,33.4222420270647,AZ, , , 
675,-111.830732173065,33.4221595932309,832.0,UNIVERSITY DR & CENTER ST,Mesa,Standard,-111.830732173065,33.4221595932309,AZ, , , 
676,-111.825832184909,33.4221896111974,836.0,UNIVERSITY DR & HIBBERT,Mesa,Standard,-111.825832184909,33.4221896111974,AZ, , , 
677,-111.822263180869,33.4222285394385,843.0,UNIVERSITY DR & MESA DR,Mesa,Standard,-111.822263180869,33.4222285394385,AZ, , , 
678,-111.817883436895,33.4222598970233,820.0,UNIVERSITY DR & OLIVE,Mesa,Standard,-111.817883436895,33.4222598970233,AZ, , , 
679,-111.81363292345699,33.42227554114689,838.0,UNIVERSITY DR & HORNE,Mesa,Standard,-111.81363292345699,33.42227554114689,AZ, , , 
680,-111.809301095622,33.4222939205554,844.0,UNIVERSITY DR & MILLER ST,Mesa,Standard,-111.809301095622,33.4222939205554,AZ, , , 
681,-111.80496664999201,33.422305564789,846.0,UNIVERSITY DR & STAPLEY DR,Mesa,Standard,-111.80496664999201,33.422305564789,AZ, , , 
682,-111.800558269872,33.422365235026,840.0,UNIVERSITY DR & LAZONA DR,Mesa,Standard,-111.800558269872,33.422365235026,AZ, , , 
683,-111.79686697212699,33.4224114649514,839.0,UNIVERSITY DR & HUNT DR,Mesa,Standard,-111.79686697212699,33.4224114649514,AZ, , , 
684,-111.793030519764,33.4224741337085,835.0,UNIVERSITY DR & HALL ST,Mesa,Standard,-111.793030519764,33.4224741337085,AZ, , , 
685,-111.78729724002899,33.422460643255896,833.0,UNIVERSITY DR & GILBERT RD,Mesa,Standard,-111.78729724002899,33.422460643255896,AZ, , , 
686,-111.782363213618,33.4225474022293,826.0,UNIVERSITY DR & 22ND PL,Mesa,Standard,-111.782363213618,33.4225474022293,AZ, , , 
687,-111.773280055548,33.4225640820933,848.0,UNIVERSITY DR & YALE,Mesa,Standard,-111.773280055548,33.4225640820933,AZ, , , 
688,-111.769815212705,33.4225319379167,841.0,UNIVERSITY DR & LINDSAY RD,Mesa,Standard,-111.769815212705,33.4225319379167,AZ, , , 
689,-111.76573839696002,33.422578994609,842.0,UNIVERSITY DR & LOS ALAMOS,Mesa,Standard,-111.76573839696002,33.422578994609,AZ, , , 
690,-111.760985846989,33.422609630314696,816.0,UNIVERSITY DR & CRESTON,Mesa,Standard,-111.760985846989,33.422609630314696,AZ, , , 
691,-111.757011870784,33.4226303779842,866.0,CRESTON & VAL VISTA DR,Mesa,Standard,-111.757011870784,33.4226303779842,AZ, , , 
692,-111.752845970033,33.4226239770327,847.0,UNIVERSITY DR & VAL VISTA DR,Mesa,Standard,-111.752845970033,33.4226239770327,AZ, , , 
693,-111.747871899893,33.4226398375346,817.0,UNIVERSITY DR & MAPLE,Mesa,Standard,-111.747871899893,33.4226398375346,AZ, , , 
694,-111.744217426631,33.422661105593,818.0,UNIVERSITY DR & NASSAU,Mesa,Standard,-111.744217426631,33.422661105593,AZ, , , 
695,-111.73992009080798,33.42265568016989,819.0,NORFOLK & GREENFIELD RD,Mesa,Standard,-111.73992009080798,33.42265568016989,AZ, , , 
696,-111.735908853748,33.4226510325598,834.0,UNIVERSITY DR & GREENFIELD RD,Mesa,Standard,-111.735908853748,33.4226510325598,AZ, , , 
697,-111.73219896465,33.422696306468,7620.0,UNIVERSITY DR & QUINN,Mesa,Standard,-111.73219896465,33.422696306468,AZ, , , 
698,-111.728800716073,33.4227070241925,821.0,UNIVERSITY DR & ROANOKE,Mesa,Standard,-111.728800716073,33.4227070241925,AZ, , , 
699,-111.726448936043,33.4227316779793,822.0,UNIVERSITY DR & ROANOKE,Mesa,Standard,-111.726448936043,33.4227316779793,AZ, , , 
700,-111.72171789118,33.4227138111006,823.0,UNIVERSITY DR & ST PAUL,Mesa,Standard,-111.72171789118,33.4227138111006,AZ, , , 
701,-111.68344807589399,33.4227675052766,9488.0,Temporary Stop Power & University Rt_30,Mesa,Standard,-111.68344807589399,33.4227675052766,AZ, , , 
702,-111.66758686088801,33.4218148208478,9492.0,SOSSAMAN & UNIVERSITY DR,Mesa,Standard,-111.66758686088801,33.4218148208478,AZ, , , 
703,-111.667551216408,33.4186975878671,9435.0,N SOSSAMAN RD & E BILLINGS ST,Mesa,Standard,-111.667551216408,33.4186975878671,AZ, , , 
704,-111.66794197843201,33.4155286486374,9436.0,MAIN ST & SOSSAMAN RD,Mesa,Standard,-111.66794197843201,33.4155286486374,AZ, , , 
705,-111.672117323764,33.415536265861604,9437.0,E MAIN ST & N 74TH ST,Mesa,Standard,-111.672117323764,33.415536265861604,AZ, , , 
706,-111.675715252054,33.4155506539197,9438.0,E MAIN ST NS N SUNVALLEY BLVD,Mesa,Standard,-111.675715252054,33.4155506539197,AZ, , , 
707,-111.685050584932,33.4230724420685,6074.0,UNIVERSITY DR & POWER RD,Mesa,Standard,-111.685050584932,33.4230724420685,AZ, , , 
708,-111.71986028935,33.422976631587304,6064.0,UNIVERSITY DR & HIGLEY RD,Mesa,Standard,-111.71986028935,33.422976631587304,AZ, , , 
709,-111.722323820063,33.4229511173672,6078.0,UNIVERSITY DR & ST PAUL,Mesa,Standard,-111.722323820063,33.4229511173672,AZ, , , 
710,-111.727855611043,33.4229406607658,6077.0,UNIVERSITY DR & ROANOKE,Mesa,Standard,-111.727855611043,33.4229406607658,AZ, , , 
711,-111.734499399512,33.422936210376,6075.0,UNIVERSITY DR & QUINN,Mesa,Standard,-111.734499399512,33.422936210376,AZ, , , 
712,-111.73719015103902,33.4229546572807,6060.0,UNIVERSITY DR & GREENFIELD RD,Mesa,Standard,-111.73719015103902,33.4229546572807,AZ, , , 
713,-111.742181734413,33.4228839284177,6073.0,UNIVERSITY DR & NORFOLK,Mesa,Standard,-111.742181734413,33.4228839284177,AZ, , , 
714,-111.744891943533,33.4228694478581,6072.0,UNIVERSITY DR & NASSAU,Mesa,Standard,-111.744891943533,33.4228694478581,AZ, , , 
715,-111.74858123371,33.422873157283696,6070.0,UNIVERSITY DR & MAPLE,Mesa,Standard,-111.74858123371,33.422873157283696,AZ, , , 
716,-111.75436845585199,33.4228646243039,6080.0,UNIVERSITY DR & VAL VISTA DR,Mesa,Standard,-111.75436845585199,33.4228646243039,AZ, , , 
717,-111.760095641862,33.4228390721481,6103.0,UNIVERSITY DR & CRESTON,Mesa,Standard,-111.760095641862,33.4228390721481,AZ, , , 
718,-111.766531492957,33.4228097771851,6069.0,UNIVERSITY DR & LOS ALAMOS,Mesa,Standard,-111.766531492957,33.4228097771851,AZ, , , 
719,-111.77800773853399,33.422778288817604,6054.0,UNIVERSITY DR & 25TH ST,Mesa,Standard,-111.77800773853399,33.422778288817604,AZ, , , 
720,-111.78179010103001,33.4227656665647,6053.0,UNIVERSITY DR & 23RD ST,Mesa,Standard,-111.78179010103001,33.4227656665647,AZ, , , 
721,-111.78938086136499,33.4228228170816,6059.0,UNIVERSITY DR & GILBERT RD,Mesa,Standard,-111.78938086136499,33.4228228170816,AZ, , , 
722,-111.793878179895,33.4226577314277,6061.0,UNIVERSITY DR & HALL ST,Mesa,Standard,-111.793878179895,33.4226577314277,AZ, , , 
723,-111.79894541471201,33.4225905063898,6067.0,UNIVERSITY DR & HUNT DR,Mesa,Standard,-111.79894541471201,33.4225905063898,AZ, , , 
724,-111.80611861938101,33.4224945995649,6079.0,UNIVERSITY DR & STAPLEY DR,Mesa,Standard,-111.80611861938101,33.4224945995649,AZ, , , 
725,-111.809374384637,33.4224827225998,6071.0,UNIVERSITY DR & MILLER ST,Mesa,Standard,-111.809374384637,33.4224827225998,AZ, , , 
726,-111.814343373911,33.4224741319705,6066.0,UNIVERSITY DR & HORNE RD,Mesa,Standard,-111.814343373911,33.4224741319705,AZ, , , 
727,-111.818288430058,33.42245196921911,6065.0,UNIVERSITY DR & HOBSON,Mesa,Standard,-111.818288430058,33.42245196921911,AZ, , , 
728,-111.823729648213,33.4224421129202,6051.0,UNIVERSITY DR & POMEROY,Mesa,Standard,-111.823729648213,33.4224421129202,AZ, , , 
729,-111.82684286845699,33.4224165246342,6063.0,UNIVERSITY DR & HIBBERT,Mesa,Standard,-111.82684286845699,33.4224165246342,AZ, , , 
730,-111.831098121693,33.4224282325315,9371.0,UNIVERSITY & CENTER,Mesa,Standard,-111.831098121693,33.4224282325315,AZ, , , 
731,-111.840483384142,33.4225159440506,7098.0,UNIVERSITY DR & COUNTRY CLUB DR,Mesa,Standard,-111.840483384142,33.4225159440506,AZ, , , 
732,-111.844376450553,33.4224314585351,7099.0,UNIVERSITY DR & DATE,Mesa,Standard,-111.844376450553,33.4224314585351,AZ, , , 
733,-111.848799144567,33.422400627298,7101.0,UNIVERSITY DR & EXTENSION RD,Mesa,Standard,-111.848799144567,33.422400627298,AZ, , , 
734,-111.852707409425,33.4223132123695,7104.0,UNIVERSITY DR & WESTWOOD,Mesa,Standard,-111.852707409425,33.4223132123695,AZ, , , 
735,-111.857158688111,33.422300185134,7097.0,UNIVERSITY DR & ALMA SCHOOL RD,Mesa,Standard,-111.857158688111,33.422300185134,AZ, , , 
736,-111.860721584476,33.4222548904147,7115.0,UNIVERSITY DR & STANDAGE,Mesa,Standard,-111.860721584476,33.4222548904147,AZ, , , 
737,-111.86569877698999,33.422245912692,7102.0,UNIVERSITY DR & LONGMORE RD,Mesa,Standard,-111.86569877698999,33.422245912692,AZ, , , 
738,-111.875229605,33.4222545471905,7100.0,UNIVERSITY DR & DOBSON RD,Mesa,Standard,-111.875229605,33.4222545471905,AZ, , , 
739,-111.87931020186501,33.422226035455196,7103.0,UNIVERSITY DR & MAY ST,Mesa,Standard,-111.87931020186501,33.422226035455196,AZ, , , 
740,-111.88337789709,33.4222387626028,6090.0,UNIVERSITY DR & EVERGREEN RD,Tempe,Standard,-111.88337789709,33.4222387626028,AZ, , , 
741,-111.888140946977,33.4221776107959,6050.0,UNIVERSITY DR & GEORGE DR,Tempe,Standard,-111.888140946977,33.4221776107959,AZ, , , 
742,-111.892593841127,33.4222156311801,6095.0,UNIVERSITY DR & PRICE RD,Tempe,Standard,-111.892593841127,33.4222156311801,AZ, , , 
743,-111.895804859598,33.4222185454596,6096.0,UNIVERSITY DR & RIVER DR,Tempe,Standard,-111.895804859598,33.4222185454596,AZ, , , 
744,-111.9008720594,33.4222332922168,6098.0,UNIVERSITY DR & SMITH RD,Tempe,Standard,-111.9008720594,33.4222332922168,AZ, , , 
745,-111.90537903719299,33.42214827632439,6094.0,UNIVERSITY DR & PERRY LN,Tempe,Standard,-111.90537903719299,33.42214827632439,AZ, , , 
746,-111.918052587726,33.4221362475154,6089.0,UNIVERSITY DR & DORSEY LN,Tempe,Standard,-111.918052587726,33.4221362475154,AZ, , , 
747,-111.93535060502501,33.422040091533106,6088.0,UNIVERSITY DR & COLLEGE AVE,Tempe,Standard,-111.93535060502501,33.422040091533106,AZ, , , 
748,-111.951778131002,33.4290228056699,989.0,1ST ST & HARDY DR,Tempe,Standard,-111.951778131002,33.4290228056699,AZ, , , 
749,-111.94981403160601,33.429029420888,990.0,1ST ST & MCKEMY ST,Tempe,Standard,-111.94981403160601,33.429029420888,AZ, , , 
750,-111.947558029286,33.4290502573559,991.0,1ST ST & ROOSEVELT ST,Tempe,Standard,-111.947558029286,33.4290502573559,AZ, , , 
751,-111.94484577488998,33.4290443261533,992.0,1ST ST & FARMER AVE,Tempe,Standard,-111.94484577488998,33.4290443261533,AZ, , , 
752,-111.97437194181101,33.3780561105023,9466.0,Baseline Rd - Calle Los Cerros,Tempe,Standard,-111.97437194181101,33.3780561105023,AZ, , , 
753,-111.969444483017,33.4223719221504,9563.0,52ND ST & UNIVERSITY DR,Tempe,Standard,-111.969444483017,33.4223719221504,AZ, , , 
754,-111.96325814593,33.3232674260074,9462.0,Priest Dr & Orchid Ln,Tempe,Standard,-111.96325814593,33.3232674260074,AZ, , , 
755,-111.96296757814301,33.3237887288908,9463.0,Priest Dr & Orchid Ln,Tempe,Standard,-111.96296757814301,33.3237887288908,AZ, , , 
756,-111.926118452036,33.411818329366696,9669.0,Rural Rd - Spence Ave,Tempe,Standard,-111.926118452036,33.411818329366696,AZ, , , 
757,-111.90333290159201,33.4219525888302,6094.0,University Dr & Perry Ln ,Tempe,Standard,-111.90333290159201,33.4219525888302,AZ, , , 
758,-111.673895469132,33.4223099567117,9489.0,UNIVERSITY DR &  SUNVALLEY BLVD,Mesa,Standard,-111.673895469132,33.4223099567117,AZ, , , 
759,-111.80156548581101,33.4225564460915,9670.0,University Dr & Lazona Dr,Mesa,Standard,-111.80156548581101,33.4225564460915,AZ, , , 
760,-111.83756826998,33.4224803190796,9671.0,University Dr & Robson,Mesa,Standard,-111.83756826998,33.4224803190796,AZ, , , 
761,-111.944038516446,33.4255684534695,7720.0,5TH ST & FARMER AVE,Tempe,Standard,-111.944038516446,33.4255684534695,AZ, , , 
762,-111.95241494678899,33.42888567013,5112.0,HARDY DR & 1ST ST,Tempe,Standard,-111.95241494678899,33.42888567013,AZ, , , 
763,-111.95234824969299,33.4252215067944,5114.0,HARDY DR & 5TH ST,Tempe,Standard,-111.95234824969299,33.4252215067944,AZ, , , 
764,-111.952303741898,33.4215284757816,5124.0,HARDY DR & UNIVERSITY DR,Tempe,Standard,-111.952303741898,33.4215284757816,AZ, , , 
765,-111.952268254105,33.419893396213105,5133.0,HARDY DR & ELNA RAE ST,Tempe,Standard,-111.952268254105,33.419893396213105,AZ, , , 
766,-111.952268077706,33.4176746900897,5108.0,HARDY DR & 11TH ST,Tempe,Standard,-111.952268077706,33.4176746900897,AZ, , , 
767,-111.95227339982401,33.41444094906689,5110.0,HARDY DR & 13TH ST,Tempe,Standard,-111.95227339982401,33.41444094906689,AZ, , , 
768,-111.952256404827,33.4121155512987,5111.0,HARDY DR & 16TH ST,Tempe,Standard,-111.952256404827,33.4121155512987,AZ, , , 
769,-111.952287901044,33.407081054884,5117.0,HARDY DR & BROADWAY RD,Tempe,Standard,-111.952287901044,33.407081054884,AZ, , , 
770,-111.952229731019,33.4035654434371,5113.0,HARDY DR & 23RD ST,Tempe,Standard,-111.952229731019,33.4035654434371,AZ, , , 
771,-111.952223529342,33.399855617606605,5115.0,HARDY DR & ALAMEDA DR,Tempe,Standard,-111.952223529342,33.399855617606605,AZ, , , 
772,-111.95221288432501,33.3962830923492,5120.0,HARDY DR & FAIRMONT DR,Tempe,Standard,-111.95221288432501,33.3962830923492,AZ, , , 
773,-111.952102092301,33.3925531758127,7695.0,HARDY DR & SOUTHERN AVE,Tempe,Standard,-111.952102092301,33.3925531758127,AZ, , , 
774,-111.9526450631,33.3891174704563,5122.0,HARDY DR & MANHATTON DR,Tempe,Standard,-111.9526450631,33.3891174704563,AZ, , , 
775,-111.952420085345,33.384116955399996,5128.0,RIVIERA CIR & GREENWAY DR,Tempe,Standard,-111.952420085345,33.384116955399996,AZ, , , 
776,-111.95252526293699,33.3803565764172,5123.0,HARDY DR & MINTON DR,Tempe,Standard,-111.95252526293699,33.3803565764172,AZ, , , 
777,-111.95261731177901,33.377880474465606,5116.0,HARDY DR & BASELINE RD,Tempe,Standard,-111.95261731177901,33.377880474465606,AZ, , , 
778,-111.95304318019699,33.3755929709816,7721.0,HARDY DR & MCKEMY ST,Tempe,Standard,-111.95304318019699,33.3755929709816,AZ, , , 
779,-111.954535702177,33.3738153624227,5129.0,HARDY DR & OXFORD DR,Tempe,Standard,-111.954535702177,33.3738153624227,AZ, , , 
780,-111.954642463282,33.3710377198788,5134.0,HARDY DR & CORNELL DR,Tempe,Standard,-111.954642463282,33.3710377198788,AZ, , , 
781,-111.954657886502,33.3680768667437,7722.0,HARDY DR & LADONNA DR,Tempe,Standard,-111.954657886502,33.3680768667437,AZ, , , 
782,-111.954191297951,33.3635580696065,6692.0,GUADALUPE RD & HARDY DR,Tempe,Standard,-111.954191297951,33.3635580696065,AZ, , , 
783,-111.94971114013,33.3635543076565,7723.0,GUADALUPE RD & ROOSEVELT ST,Tempe,Standard,-111.94971114013,33.3635543076565,AZ, , , 
784,-111.945391701999,33.3635455588589,1394.0,GUADALUPE RD & KYRENE RD,Tempe,Standard,-111.945391701999,33.3635455588589,AZ, , , 
785,-111.94057534402599,33.3635553507258,1393.0,GUADALUPE RD & ASH,Tempe,Standard,-111.94057534402599,33.3635553507258,AZ, , , 
786,-111.938072876256,33.363557764119804,1395.0,GUADALUPE RD & MAPLE AVE,Tempe,Standard,-111.938072876256,33.363557764119804,AZ, , , 
787,-111.933486063969,33.3636167723629,372.0,GUADALUPE RD & COLLEGE AVE,Tempe,Standard,-111.933486063969,33.3636167723629,AZ, , , 
788,-111.928100860764,33.3636360451764,387.0,GUADALUPE RD & RURAL RD,Tempe,Standard,-111.928100860764,33.3636360451764,AZ, , , 
789,-111.924157371898,33.363644608132,388.0,GUADALUPE RD & TERRACE RD,Tempe,Standard,-111.924157371898,33.363644608132,AZ, , , 
790,-111.91948321727399,33.3636207065373,384.0,GUADALUPE RD & LAKESHORE DR,Tempe,Standard,-111.91948321727399,33.3636207065373,AZ, , , 
791,-111.91454767316799,33.363643639278,383.0,GUADALUPE RD & JUNIPER ST,Tempe,Standard,-111.91454767316799,33.363643639278,AZ, , , 
792,-111.910533409982,33.36359183132249,385.0,GUADALUPE RD & MCCLINTOCK DR,Tempe,Standard,-111.910533409982,33.36359183132249,AZ, , , 
793,-111.906194953746,33.363670222104,382.0,GUADALUPE RD & HAZELTON LN,Tempe,Standard,-111.906194953746,33.363670222104,AZ, , , 
794,-111.90218696191201,33.3636798166769,381.0,GUADALUPE RD & COUNTRY CLUB WY,Tempe,Standard,-111.90218696191201,33.3636798166769,AZ, , , 
795,-111.897880940154,33.3637130541123,8012.0,GUADALUPE RD & RIVER DR,Tempe,Standard,-111.897880940154,33.3637130541123,AZ, , , 
796,-111.896399750103,33.3639660586334,5674.0,GUADALUPE RD & SHANNON DR,Tempe,Standard,-111.896399750103,33.3639660586334,AZ, , , 
797,-111.897972225243,33.3639360880101,5671.0,GUADALUPE RD & RIVER DR,Tempe,Standard,-111.897972225243,33.3639360880101,AZ, , , 
798,-111.90301952473801,33.36390342975289,5666.0,GUADALUPE RD & COUNTRY CLUB WY,Tempe,Standard,-111.90301952473801,33.36390342975289,AZ, , , 
799,-111.906972484634,33.3639064217101,5667.0,GUADALUPE RD & HAZELTON LN,Tempe,Standard,-111.906972484634,33.3639064217101,AZ, , , 
800,-111.911785717491,33.363893887261,5670.0,GUADALUPE RD & MCCLINTOCK DR,Tempe,Standard,-111.911785717491,33.363893887261,AZ, , , 
801,-111.92031447049801,33.363886788939,5669.0,GUADALUPE RD & LAKESHORE DR,Tempe,Standard,-111.92031447049801,33.363886788939,AZ, , , 
802,-111.924433040907,33.3638730982522,5654.0,GUADALUPE RD & TERRACE RD,Tempe,Standard,-111.924433040907,33.3638730982522,AZ, , , 
803,-111.92894131532499,33.363887417914,5672.0,GUADALUPE RD & RURAL RD,Tempe,Standard,-111.92894131532499,33.363887417914,AZ, , , 
804,-111.934004738346,33.363842138635505,5665.0,GUADALUPE RD & COLLEGE AVE,Tempe,Standard,-111.934004738346,33.363842138635505,AZ, , , 
805,-111.937772132013,33.3638165923136,5664.0,GUADALUPE RD & MAPLE AVE,Tempe,Standard,-111.937772132013,33.3638165923136,AZ, , , 
806,-111.94116252626199,33.3637758848783,5673.0,GUADALUPE RD & ASH AVE,Tempe,Standard,-111.94116252626199,33.3637758848783,AZ, , , 
807,-111.94623272222799,33.3637936881647,6693.0,GUADALUPE RD & KYRENE RD,Tempe,Standard,-111.94623272222799,33.3637936881647,AZ, , , 
808,-111.95003763104201,33.3637975488575,6698.0,GUADALUPE RD & ROOSEVELT ST,Tempe,Standard,-111.95003763104201,33.3637975488575,AZ, , , 
809,-111.95407861092899,33.363781186844,6699.0,GUADALUPE RD & HARDY DR,Tempe,Standard,-111.95407861092899,33.363781186844,AZ, , , 
810,-111.954471667465,33.367681376936105,7726.0,HARDY DR & JULIE DR,Tempe,Standard,-111.954471667465,33.367681376936105,AZ, , , 
811,-111.95445665578998,33.371101459177396,7727.0,HARDY DR & CORNELL DR,Tempe,Standard,-111.95445665578998,33.371101459177396,AZ, , , 
812,-111.95446456661301,33.3731963897382,3375.0,HARDY DR & OXFORD DR,Tempe,Standard,-111.95446456661301,33.3731963897382,AZ, , , 
813,-111.952961432082,33.3753774071389,7728.0,HARDY DR & MCKEMY ST,Tempe,Standard,-111.952961432082,33.3753774071389,AZ, , , 
814,-111.95236618830201,33.378540459642004,3380.0,HARDY DR & BASELINE RD,Tempe,Standard,-111.95236618830201,33.378540459642004,AZ, , , 
815,-111.95235436696998,33.3806904655696,7729.0,HARDY DR & MINTON DR,Tempe,Standard,-111.95235436696998,33.3806904655696,AZ, , , 
816,-111.95223970198099,33.3841749286604,3391.0,HARDY DR & GREENWAY DR,Tempe,Standard,-111.95223970198099,33.3841749286604,AZ, , , 
817,-111.952473476968,33.3891457138661,3395.0,HARDY DR & MANHATTON DR,Tempe,Standard,-111.952473476968,33.3891457138661,AZ, , , 
818,-111.951856184625,33.3932741990871,3386.0,HARDY DR & SOUTHERN AVE,Tempe,Standard,-111.951856184625,33.3932741990871,AZ, , , 
819,-111.952014149511,33.3966869896755,3383.0,HARDY DR & FAIRMONT DR,Tempe,Standard,-111.952014149511,33.3966869896755,AZ, , , 
820,-111.95202554803801,33.400395989970995,3379.0,HARDY DR & ALAMEDA DR,Tempe,Standard,-111.95202554803801,33.400395989970995,AZ, , , 
821,-111.952031163877,33.4030413153381,3378.0,HARDY DR & 24TH ST,Tempe,Standard,-111.952031163877,33.4030413153381,AZ, , , 
822,-111.95202657941401,33.40778021663,3381.0,HARDY DR & BROADWAY RD,Tempe,Standard,-111.95202657941401,33.40778021663,AZ, , , 
823,-111.952070609128,33.412078243115204,3389.0,HARDY DR & 16TH ST,Tempe,Standard,-111.952070609128,33.412078243115204,AZ, , , 
824,-111.952065041511,33.4142720369166,3377.0,HARDY DR & 14TH ST,Tempe,Standard,-111.952065041511,33.4142720369166,AZ, , , 
825,-111.952093378692,33.417510440155695,3384.0,HARDY DR & 11TH ST,Tempe,Standard,-111.952093378692,33.417510440155695,AZ, , , 
826,-111.95210124849399,33.420128659492995,3376.0,HARDY DR & ELNA RAE ST,Tempe,Standard,-111.95210124849399,33.420128659492995,AZ, , , 
827,-111.952095884039,33.4222285124755,3387.0,HARDY DR & UNIVERSITY DR,Tempe,Standard,-111.952095884039,33.4222285124755,AZ, , , 
828,-111.952166530547,33.4253187104768,3393.0,HARDY DR & 5TH ST,Tempe,Standard,-111.952166530547,33.4253187104768,AZ, , , 
829,-111.940121548207,33.4252513407766,5196.0,MILL AVE & 5TH ST,Tempe,Standard,-111.940121548207,33.4252513407766,AZ, , , 
830,-111.940112798374,33.424132325874,5197.0,MILL AVE & 6TH ST,Tempe,Standard,-111.940112798374,33.424132325874,AZ, , , 
831,-111.94013492875901,33.4230331740169,5198.0,MILL AVE & 7TH ST,Tempe,Standard,-111.94013492875901,33.4230331740169,AZ, , , 
832,-111.940135048685,33.4216324199143,5210.0,MILL AVE & UNIVERSITY DR,Tempe,Standard,-111.940135048685,33.4216324199143,AZ, , , 
833,-111.940101428682,33.4188803378828,5191.0,MILL AVE & 10TH ST,Tempe,Standard,-111.940101428682,33.4188803378828,AZ, , , 
834,-111.94001543839501,33.4141480692092,5193.0,MILL AVE & 13TH ST,Tempe,Standard,-111.94001543839501,33.4141480692092,AZ, , , 
835,-111.939978492346,33.4079956861522,5211.0,MILL AVE & BROADWAY RD,Tempe,Standard,-111.939978492346,33.4079956861522,AZ, , , 
836,-111.939862626242,33.4028873796028,5188.0,MILL AVE & BROADMOR DR,Tempe,Standard,-111.939862626242,33.4028873796028,AZ, , , 
837,-111.939820549097,33.399552147325394,5199.0,MILL AVE & ALAMEDA DR,Tempe,Standard,-111.939820549097,33.399552147325394,AZ, , , 
838,-111.939788530327,33.397628103970696,5202.0,MILL AVE & DEL RIO DR,Tempe,Standard,-111.939788530327,33.397628103970696,AZ, , , 
839,-111.939739664797,33.3948255227671,5204.0,MILL AVE & GENEVA DR,Tempe,Standard,-111.939739664797,33.3948255227671,AZ, , , 
840,-111.93973094642999,33.3925451736378,5209.0,MILL AVE & SOUTHERN AVE,Tempe,Standard,-111.93973094642999,33.3925451736378,AZ, , , 
841,-111.93967347520399,33.3904223381002,5187.0,MILL AVE & PEBBLE BEACH DR,Tempe,Standard,-111.93967347520399,33.3904223381002,AZ, , , 
842,-111.939638020252,33.3879302164836,5206.0,MILL AVE & HERMOSA DR,Tempe,Standard,-111.939638020252,33.3879302164836,AZ, , , 
843,-111.939568869821,33.3827869449285,5201.0,MILL AVE & CARTER DR,Tempe,Standard,-111.939568869821,33.3827869449285,AZ, , , 
844,-111.93953837979099,33.3803877172703,5203.0,MILL AVE & ELLIS DR,Tempe,Standard,-111.93953837979099,33.3803877172703,AZ, , , 
845,-111.946086512574,33.3737375099075,5150.0,KYRENE RD & OXFORD DR,Tempe,Standard,-111.946086512574,33.3737375099075,AZ, , , 
846,-111.94606881824,33.371417725518306,5140.0,KYRENE RD & CORNELL DR,Tempe,Standard,-111.94606881824,33.371417725518306,AZ, , , 
847,-111.946030592068,33.3677979778472,5144.0,KYRENE RD & LA DONNA DR,Tempe,Standard,-111.946030592068,33.3677979778472,AZ, , , 
848,-111.94603990725099,33.3632987874016,5143.0,KYRENE RD & GUADALUPE RD,Tempe,Standard,-111.94603990725099,33.3632987874016,AZ, , , 
849,-111.94599706148199,33.3608488821875,5146.0,KYRENE RD & VAUGHN ST,Tempe,Standard,-111.94599706148199,33.3608488821875,AZ, , , 
850,-111.94599733820401,33.3585730410175,7659.0,KYRENE RD & BELL DE MAR DR,Tempe,Standard,-111.94599733820401,33.3585730410175,AZ, , , 
851,-111.9524676624,33.3549058547884,6685.0,KYRENE RD & HARDY DR,Tempe,Standard,-111.9524676624,33.3549058547884,AZ, , , 
852,-111.954598730672,33.3544846673102,5121.0,HARDY DR & GROVE PKWY,Tempe,Standard,-111.954598730672,33.3544846673102,AZ, , , 
853,-111.954575408141,33.3515003437332,5118.0,HARDY DR & CHILTON DR,Tempe,Standard,-111.954575408141,33.3515003437332,AZ, , , 
854,-111.954602632321,33.3486737234275,5119.0,HARDY DR & ELLIOT RD,Tempe,Standard,-111.954602632321,33.3486737234275,AZ, , , 
855,-111.95453824355499,33.346108707961605,5127.0,ELLIOT RD & AUTO DR,Tempe,Standard,-111.95453824355499,33.346108707961605,AZ, , , 
856,-111.954518063747,33.344410679042504,5130.0,HARDY DR & AUTO DR,Tempe,Standard,-111.954518063747,33.344410679042504,AZ, , , 
857,-111.95450051313601,33.3420505952752,5125.0,HARDY DR & CARVER RD,Tempe,Standard,-111.95450051313601,33.3420505952752,AZ, , , 
858,-111.954461572222,33.3388276253795,5126.0,CARVER RD & WARNER RD,Tempe,Standard,-111.954461572222,33.3388276253795,AZ, , , 
859,-111.954443110922,33.3358071969713,9128.0,TEMPE SPORTS COMPLEX ON HARDY DR OUTBOUND,Tempe,Standard,-111.954443110922,33.3358071969713,AZ, , , 
860,-111.954444401898,33.335062471807696,7724.0,HARDY DR & WARNER RD,Tempe,Standard,-111.954444401898,33.335062471807696,AZ, , , 
861,-111.958987992533,33.3346600964353,7154.0,WARNER RD & BECK AVE,Tempe,Standard,-111.958987992533,33.3346600964353,AZ, , , 
862,-111.964248240465,33.3402617784867,7994.0,RUBY DR & PRIEST DR,Tempe,Standard,-111.964248240465,33.3402617784867,AZ, , , 
863,-111.96914653105301,33.3399557425316,7986.0,PRIEST DR & EMERALD DR,Tempe,Standard,-111.96914653105301,33.3399557425316,AZ, , , 
864,-111.95796599036301,33.334412339794696,1837.0,WARNER RD & BECK AVE,Tempe,Standard,-111.95796599036301,33.334412339794696,AZ, , , 
865,-111.945809534254,33.3341530503722,5147.0,KYRENE RD & WARNER RD,Tempe,Standard,-111.945809534254,33.3341530503722,AZ, , , 
866,-111.94580076154699,33.3311371805249,8630.0,KYRENE RD & LA VIEVE LN,Tempe,Standard,-111.94580076154699,33.3311371805249,AZ, , , 
867,-111.945765813694,33.3284775026756,8629.0,KYRENE RD & KNOX RD,Tempe,Standard,-111.945765813694,33.3284775026756,AZ, , , 
868,-111.945430250443,33.3252303275214,8625.0,KYRENE RD & WARNER RANCH RD,Tempe,Standard,-111.945430250443,33.3252303275214,AZ, , , 
869,-111.945503846876,33.3283443175736,8624.0,KYRENE RD & KNOX RD,Tempe,Standard,-111.945503846876,33.3283443175736,AZ, , , 
870,-111.94551616817301,33.3307844294933,8623.0,KYRENE RD & LA VIEVE LN,Tempe,Standard,-111.94551616817301,33.3307844294933,AZ, , , 
871,-111.945472666321,33.3330220697408,8626.0,KYRENE RD & WARNER RD,Tempe,Standard,-111.945472666321,33.3330220697408,AZ, , , 
872,-111.94546772062401,33.3350753366637,3407.0,KYRENE RD & WARNER RD,Tempe,Standard,-111.94546772062401,33.3350753366637,AZ, , , 
873,-111.94554156495501,33.3370386165777,3401.0,KYRENE RD & CALLE MONTE VISTA DR,Tempe,Standard,-111.94554156495501,33.3370386165777,AZ, , , 
874,-111.945571571899,33.3393137886343,2959.0,KYRENE RD & PALOMINO DR,Tempe,Standard,-111.945571571899,33.3393137886343,AZ, , , 
875,-111.94557846218599,33.3416930874642,3405.0,KYRENE RD & PECAN PL,Tempe,Standard,-111.94557846218599,33.3416930874642,AZ, , , 
876,-111.94560847280898,33.3449261718069,3406.0,KYRENE RD & VERDE LN,Tempe,Standard,-111.94560847280898,33.3449261718069,AZ, , , 
877,-111.945516417845,33.3487427836875,2960.0,KYRENE RD & ELLIOT RD,Tempe,Standard,-111.945516417845,33.3487427836875,AZ, , , 
878,-111.945704323421,33.3554263297739,3403.0,KYRENE RD & GROVE PKWY,Tempe,Standard,-111.945704323421,33.3554263297739,AZ, , , 
879,-111.945700811112,33.3610253732158,3400.0,KYRENE RD & VAUGHN ST,Tempe,Standard,-111.945700811112,33.3610253732158,AZ, , , 
880,-111.945715738986,33.364001024158895,3404.0,KYRENE RD & GUADALUPE RD,Tempe,Standard,-111.945715738986,33.364001024158895,AZ, , , 
881,-111.94576724790899,33.3675819766025,3402.0,KYRENE RD & GEMINI DR,Tempe,Standard,-111.94576724790899,33.3675819766025,AZ, , , 
882,-111.94579010542401,33.3713359246683,3399.0,KYRENE RD & CORNELL DR,Tempe,Standard,-111.94579010542401,33.3713359246683,AZ, , , 
883,-111.945805283009,33.3743619483853,3397.0,KYRENE RD & COLGATE DR,Tempe,Standard,-111.945805283009,33.3743619483853,AZ, , , 
884,-111.939198178592,33.3788996786272,3452.0,MILL AVE & BASELINE RD,Tempe,Standard,-111.939198178592,33.3788996786272,AZ, , , 
885,-111.939246219651,33.380864962129806,3455.0,MILL AVE & ELLIS DR,Tempe,Standard,-111.939246219651,33.380864962129806,AZ, , , 
886,-111.93929741591002,33.3835376813245,3465.0,MILL AVE & CARTER DR,Tempe,Standard,-111.93929741591002,33.3835376813245,AZ, , , 
887,-111.93936398808901,33.3885018235277,3458.0,MILL AVE & HERMOSA DR,Tempe,Standard,-111.93936398808901,33.3885018235277,AZ, , , 
888,-111.93942067752899,33.3909873279588,3460.0,MILL AVE & PEBBLE BEACH DR,Tempe,Standard,-111.93942067752899,33.3909873279588,AZ, , , 
889,-111.939421348084,33.3932142834956,3461.0,MILL AVE & SOUTHERN AVE,Tempe,Standard,-111.939421348084,33.3932142834956,AZ, , , 
890,-111.93950332358,33.3956578410345,3457.0,MILL AVE & GENEVA DR,Tempe,Standard,-111.93950332358,33.3956578410345,AZ, , , 
891,-111.939534503202,33.397967475125604,3454.0,MILL AVE & DEL RIO DR,Tempe,Standard,-111.939534503202,33.397967475125604,AZ, , , 
892,-111.939542381803,33.4003628696866,3451.0,MILL AVE & ALAMEDA DR,Tempe,Standard,-111.939542381803,33.4003628696866,AZ, , , 
893,-111.93958772863998,33.4028949788901,3464.0,MILL AVE & REDONDO DR,Tempe,Standard,-111.93958772863998,33.4028949788901,AZ, , , 
894,-111.939658722987,33.4078934948417,3453.0,MILL AVE & BROADWAY RD,Tempe,Standard,-111.939658722987,33.4078934948417,AZ, , , 
895,-111.93974089995399,33.4145379204082,3466.0,MILL AVE & 13TH ST,Tempe,Standard,-111.93974089995399,33.4145379204082,AZ, , , 
896,-111.93978552743499,33.417859432818396,3456.0,MILL AVE & GAMMAGE PKWY,Tempe,Standard,-111.93978552743499,33.417859432818396,AZ, , , 
897,-111.939778086617,33.4194747429401,3448.0,MILL AVE & 10TH ST,Tempe,Standard,-111.939778086617,33.4194747429401,AZ, , , 
898,-111.93981121040899,33.4208035207608,3447.0,MILL AVE & 9TH ST,Tempe,Standard,-111.93981121040899,33.4208035207608,AZ, , , 
899,-111.939842733069,33.4222458422939,3462.0,MILL AVE & UNIVERSITY DR,Tempe,Standard,-111.939842733069,33.4222458422939,AZ, , , 
900,-111.93989429990299,33.423470253534695,7757.0,MILL AVE & 7TH ST,Tempe,Standard,-111.93989429990299,33.423470253534695,AZ, , , 
901,-111.939869324325,33.4246383998036,3450.0,MILL AVE & 6TH ST,Tempe,Standard,-111.939869324325,33.4246383998036,AZ, , , 
902,-111.95421099108499,33.3349222811631,7724.0,HARDY DR & WARNER RD,Tempe,Standard,-111.95421099108499,33.3349222811631,AZ, , , 
903,-111.95424343994301,33.3366320656255,9127.0,TEMPE SPORTS COMPLEX ON HARDY DR INBOUND,Tempe,Standard,-111.95424343994301,33.3366320656255,AZ, , , 
904,-111.954255580969,33.339084923677,3392.0,WARNER RD & CARVER RD,Tempe,Standard,-111.954255580969,33.339084923677,AZ, , , 
905,-111.954297776596,33.3422141707116,7725.0,HARDY DR & CARVER RD,Tempe,Standard,-111.954297776596,33.3422141707116,AZ, , , 
906,-111.954307673805,33.343953355056,3373.0,HARDY DR & AUTO DR,Tempe,Standard,-111.954307673805,33.343953355056,AZ, , , 
907,-111.954351944435,33.346307607637,3390.0,AUTO DR & ELLIOT RD,Tempe,Standard,-111.954351944435,33.346307607637,AZ, , , 
908,-111.95434363353901,33.3495240875509,3382.0,HARDY DR & ELLIOT RD,Tempe,Standard,-111.95434363353901,33.3495240875509,AZ, , , 
909,-111.954369122076,33.3514511665225,3394.0,HARDY DR & CHILTON AVE,Tempe,Standard,-111.954369122076,33.3514511665225,AZ, , , 
910,-111.953862846058,33.35468128179539,1387.0,GROVE PKWY & HARDY DR,Tempe,Standard,-111.953862846058,33.35468128179539,AZ, , , 
911,-111.948265246129,33.3546933761446,1388.0,HARDY DR & KYRENE RD,Tempe,Standard,-111.948265246129,33.3546933761446,AZ, , , 
912,-111.945991895439,33.3544645337506,5141.0,KYRENE RD & GROVE PKWY,Tempe,Standard,-111.945991895439,33.3544645337506,AZ, , , 
913,-111.94592443984101,33.3506043061341,7655.0,KYRENE RD & ELLIOT RD,Tempe,Standard,-111.94592443984101,33.3506043061341,AZ, , , 
914,-111.94583875571199,33.3486056700103,7656.0,KYRENE RD & ELLIOT RD,Tempe,Standard,-111.94583875571199,33.3486056700103,AZ, , , 
915,-111.945901877477,33.3451541671772,5151.0,KYRENE RD & VERDE ST,Tempe,Standard,-111.945901877477,33.3451541671772,AZ, , , 
916,-111.945867638415,33.3413618234414,5149.0,KYRENE RD & PECAN PL,Tempe,Standard,-111.945867638415,33.3413618234414,AZ, , , 
917,-111.945834961968,33.3390993995224,5145.0,KYRENE RD & PALOMINO DR,Tempe,Standard,-111.945834961968,33.3390993995224,AZ, , , 
918,-111.94578799595502,33.336474215037,5139.0,KYRENE RD & CALLE MONTE VISTA DR,Tempe,Standard,-111.94578799595502,33.336474215037,AZ, , , 
919,-111.97563278591801,33.3926498436274,1627.0,SOUTHERN AVE & FAIR LN,Tempe,Standard,-111.97563278591801,33.3926498436274,AZ, , , 
920,-111.97179609477199,33.3926599372663,1649.0,SOUTHERN AVE & POTTER RD,Tempe,Standard,-111.97179609477199,33.3926599372663,AZ, , , 
921,-111.963061250437,33.3927316081147,1642.0,SOUTHERN AVE & CLEMENTINE DR,Tempe,Standard,-111.963061250437,33.3927316081147,AZ, , , 
922,-111.960072844454,33.3927071682107,1650.0,SOUTHERN AVE & PRIEST DR,Tempe,Standard,-111.960072844454,33.3927071682107,AZ, , , 
923,-111.95535276551901,33.392731604816106,1655.0,SOUTHERN AVE & WESTFALL AVE,Tempe,Standard,-111.95535276551901,33.392731604816106,AZ, , , 
924,-111.951558791388,33.3927271253673,1646.0,SOUTHERN AVE & HARDY DR,Tempe,Standard,-111.951558791388,33.3927271253673,AZ, , , 
925,-111.947424009427,33.3927196022514,1651.0,SOUTHERN AVE & ROOSEVELT ST,Tempe,Standard,-111.947424009427,33.3927196022514,AZ, , , 
926,-111.944361276592,33.392729593996,1661.0,SOUTHERN AVE & KYRENE RD,Tempe,Standard,-111.944361276592,33.392729593996,AZ, , , 
927,-111.939165020252,33.392719688112,709.0,SOUTHERN AVE & MILL AVE,Tempe,Standard,-111.939165020252,33.392719688112,AZ, , , 
928,-111.934223211306,33.39277693717089,693.0,SOUTHERN AVE & COLLEGE AVE,Tempe,Standard,-111.934223211306,33.39277693717089,AZ, , , 
929,-111.930137233048,33.3928316921176,724.0,SOUTHERN AVE & MCALLISTER AVE,Tempe,Standard,-111.930137233048,33.3928316921176,AZ, , , 
930,-111.925887873902,33.3928009238135,716.0,SOUTHERN AVE & RURAL RD,Tempe,Standard,-111.925887873902,33.3928009238135,AZ, , , 
931,-111.92262824332899,33.3928398597726,720.0,SOUTHERN AVE & TERRACE RD,Tempe,Standard,-111.92262824332899,33.3928398597726,AZ, , , 
932,-111.917255284589,33.3928332540678,696.0,SOUTHERN AVE & DORSEY LN,Tempe,Standard,-111.917255284589,33.3928332540678,AZ, , , 
933,-111.91484435163099,33.392861709075106,711.0,SOUTHERN AVE & OAK ST,Tempe,Standard,-111.91484435163099,33.392861709075106,AZ, , , 
934,-111.911017146406,33.392815058404395,690.0,SOUTHERN AVE & BUTTE AVE,Tempe,Standard,-111.911017146406,33.392815058404395,AZ, , , 
935,-111.908590509648,33.3928022100994,707.0,SOUTHERN AVE & MCCLINTOCK DR,Tempe,Standard,-111.908590509648,33.3928022100994,AZ, , , 
936,-111.904434606329,33.3928453811883,730.0,SOUTHERN AVE & LOS FELIZ DR,Tempe,Standard,-111.904434606329,33.3928453811883,AZ, , , 
937,-111.900847716329,33.392854230069,694.0,SOUTHERN AVE & COUNTRY CLUB WY,Tempe,Standard,-111.900847716329,33.392854230069,AZ, , , 
938,-111.895912700347,33.3928445633475,715.0,SOUTHERN AVE & RIVER DR,Tempe,Standard,-111.895912700347,33.3928445633475,AZ, , , 
939,-111.892882738847,33.3927401155932,731.0,SOUTHERN AVE & PRICE RD,Tempe,Standard,-111.892882738847,33.3927401155932,AZ, , , 
940,-111.889780857384,33.3927380423356,714.0,SOUTHERN AVE & PRICE RD,Tempe,Standard,-111.889780857384,33.3927380423356,AZ, , , 
941,-111.887402034173,33.392860419004805,698.0,SOUTHERN AVE & GEORGE DR,Tempe,Standard,-111.887402034173,33.392860419004805,AZ, , , 
942,-111.88253458325501,33.3928620594356,697.0,SOUTHERN AVE & EVERGREEN RD,Tempe,Standard,-111.88253458325501,33.3928620594356,AZ, , , 
943,-111.877655314821,33.3929321975216,1652.0,SOUTHERN AVE & SAN JOSE,Mesa,Standard,-111.877655314821,33.3929321975216,AZ, , , 
944,-111.873994883017,33.3929136304708,1644.0,SOUTHERN AVE & DOBSON RD,Mesa,Standard,-111.873994883017,33.3929136304708,AZ, , , 
945,-111.870657780512,33.392889490553,1629.0,SOUTHERN AVE & SYCAMORE,Mesa,Standard,-111.870657780512,33.392889490553,AZ, , , 
946,-111.86327160616301,33.39293652328,1647.0,SOUTHERN AVE & LONGMORE,Mesa,Standard,-111.86327160616301,33.39293652328,AZ, , , 
947,-111.859882346279,33.3929600863194,1653.0,SOUTHERN AVE & STEWART,Mesa,Standard,-111.859882346279,33.3929600863194,AZ, , , 
948,-111.856493654225,33.3929370585938,1640.0,SOUTHERN AVE & ALMA SCHOOL RD,Mesa,Standard,-111.856493654225,33.3929370585938,AZ, , , 
949,-111.85246574128,33.3930003754433,1656.0,SOUTHERN AVE & WESTWOOD,Mesa,Standard,-111.85246574128,33.3930003754433,AZ, , , 
950,-111.84809600490499,33.393080112503,1645.0,SOUTHERN AVE & EXTENSION RD,Mesa,Standard,-111.84809600490499,33.393080112503,AZ, , , 
951,-111.842085834992,33.3931549632775,1654.0,SOUTHERN AVE & VINEYARD,Mesa,Standard,-111.842085834992,33.3931549632775,AZ, , , 
952,-111.83910401675699,33.3931622914643,1643.0,SOUTHERN AVE & COUNTRY CLUB DR,Mesa,Standard,-111.83910401675699,33.3931622914643,AZ, , , 
953,-111.834780854884,33.3932198422367,1628.0,SOUTHERN AVE & MACDONALD,Mesa,Standard,-111.834780854884,33.3932198422367,AZ, , , 
954,-111.831000898365,33.393225265291,1641.0,SOUTHERN AVE & CENTER ST,Mesa,Standard,-111.831000898365,33.393225265291,AZ, , , 
955,-111.82918517798099,33.393213345852196,713.0,SOUTHERN AVE & PIMA,Mesa,Standard,-111.82918517798099,33.393213345852196,AZ, , , 
956,-111.826217777442,33.3932270201808,712.0,SOUTHERN AVE & PASADENA,Mesa,Standard,-111.826217777442,33.3932270201808,AZ, , , 
957,-111.82309371394699,33.392549883362,5185.0,MESA DR & SOUTHERN AVE,Mesa,Standard,-111.82309371394699,33.392549883362,AZ, , , 
958,-111.822772905189,33.394045241022894,3445.0,MESA DR & SOUTHERN AVE,Mesa,Standard,-111.822772905189,33.394045241022894,AZ, , , 
959,-111.822390834193,33.3931398224837,708.0,SOUTHERN AVE & MESA DR,Mesa,Standard,-111.822390834193,33.3931398224837,AZ, , , 
960,-111.818233356108,33.393229264179304,703.0,SOUTHERN AVE & HOBSON,Mesa,Standard,-111.818233356108,33.393229264179304,AZ, , , 
961,-111.813359540028,33.39323046053789,704.0,SOUTHERN AVE & HORNE,Mesa,Standard,-111.813359540028,33.39323046053789,AZ, , , 
962,-111.80965007446899,33.3932406381736,665.0,SOUTHERN AVE & SOLOMON,Mesa,Standard,-111.80965007446899,33.3932406381736,AZ, , , 
963,-111.804866884024,33.393247957811,718.0,SOUTHERN AVE & STAPLEY DR,Mesa,Standard,-111.804866884024,33.393247957811,AZ, , , 
964,-111.800472129631,33.3933064454431,695.0,SOUTHERN AVE & DORAN,Mesa,Standard,-111.800472129631,33.3933064454431,AZ, , , 
965,-111.796450027899,33.3933421616254,702.0,SOUTHERN AVE & HARRIS DR,Mesa,Standard,-111.796450027899,33.3933421616254,AZ, , , 
966,-111.792651283376,33.3933971456977,701.0,SOUTHERN AVE & HALL,Mesa,Standard,-111.792651283376,33.3933971456977,AZ, , , 
967,-111.787612989883,33.3934078507901,699.0,SOUTHERN AVE & GILBERT RD,Mesa,Standard,-111.787612989883,33.3934078507901,AZ, , , 
968,-111.783617173286,33.3934916885287,692.0,SOUTHERN AVE & CHESTNUT,Mesa,Standard,-111.783617173286,33.3934916885287,AZ, , , 
969,-111.77936177327899,33.3934760444034,675.0,SOUTHERN AVE & 24TH ST,Mesa,Standard,-111.77936177327899,33.3934760444034,AZ, , , 
970,-111.776244569227,33.3934589911118,9440.0,SOUTHERN AVE & 24TH ST,Mesa,Standard,-111.776244569227,33.3934589911118,AZ, , , 
971,-111.770480336761,33.393442380124604,706.0,SOUTHERN AVE & LINDSAY RD,Mesa,Standard,-111.770480336761,33.393442380124604,AZ, , , 
972,-111.766471053504,33.3935405479352,727.0,ROBIN LN & LOS ALAMOS,Mesa,Standard,-111.766471053504,33.3935405479352,AZ, , , 
973,-111.76060896877001,33.3935718592811,680.0,SOUTHERN AVE & 32ND ST,Mesa,Standard,-111.76060896877001,33.3935718592811,AZ, , , 
974,-111.757234023587,33.393598917310804,723.0,HELMS & VAL VISTA DR,Mesa,Standard,-111.757234023587,33.393598917310804,AZ, , , 
975,-111.752156315277,33.3935659223759,721.0,SOUTHERN AVE & VAL VISTA DR,Mesa,Standard,-111.752156315277,33.3935659223759,AZ, , , 
976,-111.747301154678,33.3936119609721,683.0,SOUTHERN AVE & 39TH ST,Mesa,Standard,-111.747301154678,33.3936119609721,AZ, , , 
977,-111.744869488068,33.393618178491,728.0,SOUTHERN AVE & NASSAU,Mesa,Standard,-111.744869488068,33.393618178491,AZ, , , 
978,-111.741232522207,33.3936396006803,710.0,SOUTHERN AVE & NORFOLK,Mesa,Standard,-111.741232522207,33.3936396006803,AZ, , , 
979,-111.73590876711701,33.393616351184804,700.0,SOUTHERN AVE & GREENFIELD RD,Mesa,Standard,-111.73590876711701,33.393616351184804,AZ, , , 
980,-111.72702270702801,33.3936681096985,726.0,SOUTHERN AVE & ROANOKE,Mesa,Standard,-111.72702270702801,33.3936681096985,AZ, , , 
981,-111.72314863310301,33.3936820397358,732.0,SOUTHERN AVE & ST PAUL,Mesa,Standard,-111.72314863310301,33.3936820397358,AZ, , , 
982,-111.718580912129,33.3936402335515,9285.0,E SOUTHERN AV & S HIGLEY,Mesa,Standard,-111.718580912129,33.3936402335515,AZ, , , 
983,-111.71421606707199,33.3937162740692,687.0,SOUTHERN AVE & 54TH ST,Mesa,Standard,-111.71421606707199,33.3937162740692,AZ, , , 
984,-111.708448885303,33.3937600011588,717.0,SOUTHERN AVE & SLATER,Mesa,Standard,-111.708448885303,33.3937600011588,AZ, , , 
985,-111.701456068482,33.393752925451196,705.0,SOUTHERN AVE & LEISURE WORLD BLVD,Mesa,Standard,-111.701456068482,33.393752925451196,AZ, , , 
986,-111.69704854805799,33.393737999225394,719.0,SOUTHERN AVE & SUPERSTITION SPRING BLVD,Mesa,Standard,-111.69704854805799,33.393737999225394,AZ, , , 
987,-111.692626079065,33.3937867880669,667.0,SOUTHERN AVE & MALL ENTRANCE WEST,Mesa,Standard,-111.692626079065,33.3937867880669,AZ, , , 
988,-111.688592199811,33.3938105868895,666.0,SOUTHERN AVE & MALL ENTRANCE EAST,Mesa,Standard,-111.688592199811,33.3938105868895,AZ, , , 
989,-111.709446256933,33.394047983477996,5914.0,SOUTHERN AVE & SLATER,Mesa,Standard,-111.709446256933,33.394047983477996,AZ, , , 
990,-111.71539804898,33.393983629675304,5932.0,SOUTHERN AVE & 54TH ST,Mesa,Standard,-111.71539804898,33.393983629675304,AZ, , , 
991,-111.72007845946,33.3940138975909,9284.0,E SOUTHERN AV & S HIGLEY,Mesa,Standard,-111.72007845946,33.3940138975909,AZ, , , 
992,-111.722906589895,33.3939239068256,5959.0,SOUTHERN AVE & ST PAUL,Mesa,Standard,-111.722906589895,33.3939239068256,AZ, , , 
993,-111.727921785168,33.393914564618605,5952.0,SOUTHERN AVE & ROANOKE,Mesa,Standard,-111.727921785168,33.393914564618605,AZ, , , 
994,-111.733469940769,33.393899343280694,5964.0,SOUTHERN AVE & PARKCREST,Mesa,Standard,-111.733469940769,33.393899343280694,AZ, , , 
995,-111.737227868126,33.3939756638799,9124.0,E SOUTHERN AVE & N GREENFIELD R,Mesa,Standard,-111.737227868126,33.3939756638799,AZ, , , 
996,-111.743103584982,33.393839420773695,5927.0,SOUTHERN AVE & 41ST ST,Mesa,Standard,-111.743103584982,33.393839420773695,AZ, , , 
997,-111.74835774441799,33.3938128590644,5925.0,SOUTHERN AVE & 39TH ST,Mesa,Standard,-111.74835774441799,33.3938128590644,AZ, , , 
998,-111.754374821867,33.3938019161605,5963.0,SOUTHERN AVE & VAL VISTA DR,Mesa,Standard,-111.754374821867,33.3938019161605,AZ, , , 
999,-111.757193520813,33.3937863773939,5965.0,VAL VISTA DR & HELMS,Mesa,Standard,-111.757193520813,33.3937863773939,AZ, , , 
